<?xml version="1.0" encoding="UTF-8"?>
<kml xmlns="http://www.opengis.net/kml/2.2" xmlns:xsi="http://www.w3.org/2001/XMLSchema-instance" xsi:schemaLocation="http://www.opengis.net/kml/2.2 http://schemas.opengis.net/kml/2.2.0/ogckml22.xsd">
  <Document>
    <name>GPS Wizard</name>
    <open>1</open>
    <Style id="wizard">
      <LineStyle>
        <color>a00000ff</color>
        <width>2</width>
      </LineStyle>
    </Style>
    <Placemark>
      <name>TBC</name>
      <styleUrl>#wizard</styleUrl>
      <LineString>
        <extrude>1</extrude>
        <tessellate>1</tessellate>
        <coordinates>
          -2.4224732,50.6372564
          -2.4224023,50.6372232
          -2.4223342,50.6372477
          -2.4222544,50.6372895
          -2.4221804,50.6373043
          -2.4220943,50.6373084
          -2.4220017,50.6373265
          -2.4219115,50.6373488
          -2.4218428,50.6373350
          -2.4217757,50.6373126
          -2.4217183,50.6372625
          -2.4216767,50.6371956
          -2.4216849,50.6371244
          -2.4217360,50.6370863
          -2.4218389,50.6370642
          -2.4219332,50.6370309
          -2.4220337,50.6370023
          -2.4221053,50.6369760
          -2.4221670,50.6369466
          -2.4222459,50.6369243
          -2.4223524,50.6369105
          -2.4224491,50.6368956
          -2.4225330,50.6368808
          -2.4226221,50.6368737
          -2.4227130,50.6368694
          -2.4228020,50.6368597
          -2.4228804,50.6368497
          -2.4229636,50.6368440
          -2.4230484,50.6368377
          -2.4231360,50.6368287
          -2.4232096,50.6368205
          -2.4232788,50.6368123
          -2.4233604,50.6367989
          -2.4234390,50.6367886
          -2.4235221,50.6367730
          -2.4236017,50.6367522
          -2.4236740,50.6367279
          -2.4237452,50.6367051
          -2.4238195,50.6366765
          -2.4238967,50.6366507
          -2.4239791,50.6366275
          -2.4240606,50.6366033
          -2.4241369,50.6365740
          -2.4242187,50.6365479
          -2.4243016,50.6365260
          -2.4243813,50.6365044
          -2.4244638,50.6364876
          -2.4245489,50.6364724
          -2.4246391,50.6364584
          -2.4247305,50.6364414
          -2.4248242,50.6364284
          -2.4249124,50.6364142
          -2.4249915,50.6363938
          -2.4250725,50.6363775
          -2.4251584,50.6363671
          -2.4252519,50.6363509
          -2.4253339,50.6363317
          -2.4254185,50.6363163
          -2.4255050,50.6362925
          -2.4255922,50.6362710
          -2.4256818,50.6362578
          -2.4257672,50.6362390
          -2.4258472,50.6362191
          -2.4259275,50.6361993
          -2.4260156,50.6361767
          -2.4261020,50.6361517
          -2.4261850,50.6361214
          -2.4262667,50.6360885
          -2.4263482,50.6360546
          -2.4264318,50.6360271
          -2.4265106,50.6359967
          -2.4265841,50.6359613
          -2.4266579,50.6359310
          -2.4267329,50.6359002
          -2.4268154,50.6358720
          -2.4268947,50.6358430
          -2.4269786,50.6358188
          -2.4270538,50.6357896
          -2.4271283,50.6357615
          -2.4272101,50.6357305
          -2.4272923,50.6357023
          -2.4273733,50.6356793
          -2.4274534,50.6356560
          -2.4275313,50.6356282
          -2.4276135,50.6356026
          -2.4277012,50.6355849
          -2.4277960,50.6355767
          -2.4278869,50.6355664
          -2.4279726,50.6355489
          -2.4280600,50.6355329
          -2.4281441,50.6355173
          -2.4282280,50.6354958
          -2.4282741,50.6354661
          -2.4282840,50.6354261
          -2.4282819,50.6353644
          -2.4282983,50.6353050
          -2.4283258,50.6352523
          -2.4283529,50.6352037
          -2.4283938,50.6351615
          -2.4284472,50.6351196
          -2.4285022,50.6350740
          -2.4285541,50.6350335
          -2.4286101,50.6349972
          -2.4286603,50.6349537
          -2.4286906,50.6349004
          -2.4286989,50.6348417
          -2.4287052,50.6347841
          -2.4287126,50.6347311
          -2.4287178,50.6346850
          -2.4287363,50.6346537
          -2.4287483,50.6346378
          -2.4287520,50.6346511
          -2.4287518,50.6346714
          -2.4287810,50.6347071
          -2.4288345,50.6347530
          -2.4288753,50.6347986
          -2.4289149,50.6348463
          -2.4289591,50.6348965
          -2.4290115,50.6349486
          -2.4290677,50.6349994
          -2.4291310,50.6350458
          -2.4291957,50.6350914
          -2.4292607,50.6351386
          -2.4293200,50.6351894
          -2.4293765,50.6352405
          -2.4294416,50.6352861
          -2.4294967,50.6353345
          -2.4295557,50.6353819
          -2.4296257,50.6354181
          -2.4296905,50.6354348
          -2.4297520,50.6354277
          -2.4298047,50.6354137
          -2.4298280,50.6353791
          -2.4298428,50.6353313
          -2.4298546,50.6352762
          -2.4298646,50.6352197
          -2.4298484,50.6351721
          -2.4298402,50.6351275
          -2.4298487,50.6350762
          -2.4298796,50.6350209
          -2.4299064,50.6349648
          -2.4299628,50.6349244
          -2.4300421,50.6348839
          -2.4300818,50.6348293
          -2.4301065,50.6347793
          -2.4301390,50.6347274
          -2.4301714,50.6346679
          -2.4301976,50.6346086
          -2.4302242,50.6345512
          -2.4302540,50.6344902
          -2.4302933,50.6344280
          -2.4303312,50.6343751
          -2.4303707,50.6343156
          -2.4304125,50.6342601
          -2.4304474,50.6342010
          -2.4304784,50.6341442
          -2.4305050,50.6340815
          -2.4305444,50.6340206
          -2.4305752,50.6339577
          -2.4306002,50.6338908
          -2.4306368,50.6338232
          -2.4306725,50.6337616
          -2.4307046,50.6337026
          -2.4307365,50.6336472
          -2.4307609,50.6335835
          -2.4307972,50.6335208
          -2.4308324,50.6334578
          -2.4308736,50.6333981
          -2.4309178,50.6333291
          -2.4309675,50.6332679
          -2.4310186,50.6332074
          -2.4310699,50.6331444
          -2.4311316,50.6330893
          -2.4312020,50.6330406
          -2.4312734,50.6329965
          -2.4313438,50.6329558
          -2.4314162,50.6329174
          -2.4314870,50.6328771
          -2.4315643,50.6328390
          -2.4316428,50.6327952
          -2.4317122,50.6327516
          -2.4317859,50.6327046
          -2.4318650,50.6326624
          -2.4319437,50.6326229
          -2.4320230,50.6325841
          -2.4320955,50.6325396
          -2.4321710,50.6324955
          -2.4322466,50.6324512
          -2.4323181,50.6324095
          -2.4323932,50.6323666
          -2.4324667,50.6323208
          -2.4325461,50.6322778
          -2.4326287,50.6322362
          -2.4327117,50.6321941
          -2.4327934,50.6321521
          -2.4328666,50.6321073
          -2.4329423,50.6320627
          -2.4330146,50.6320195
          -2.4330911,50.6319727
          -2.4331689,50.6319292
          -2.4332489,50.6318863
          -2.4333254,50.6318464
          -2.4334010,50.6318025
          -2.4334792,50.6317613
          -2.4335568,50.6317193
          -2.4336298,50.6316777
          -2.4337046,50.6316332
          -2.4337821,50.6315919
          -2.4338538,50.6315455
          -2.4339274,50.6315009
          -2.4340005,50.6314590
          -2.4340776,50.6314174
          -2.4341530,50.6313751
          -2.4342288,50.6313316
          -2.4343022,50.6312905
          -2.4343682,50.6312444
          -2.4344418,50.6312001
          -2.4345220,50.6311562
          -2.4345947,50.6311110
          -2.4346638,50.6310608
          -2.4347371,50.6310230
          -2.4348078,50.6309804
          -2.4348734,50.6309355
          -2.4349435,50.6308924
          -2.4350143,50.6308526
          -2.4350829,50.6308095
          -2.4351528,50.6307688
          -2.4352207,50.6307266
          -2.4352867,50.6306823
          -2.4353587,50.6306382
          -2.4354341,50.6305973
          -2.4355063,50.6305568
          -2.4355778,50.6305126
          -2.4356492,50.6304673
          -2.4357167,50.6304207
          -2.4357884,50.6303759
          -2.4358606,50.6303325
          -2.4359376,50.6302884
          -2.4360123,50.6302487
          -2.4360839,50.6302050
          -2.4361559,50.6301605
          -2.4362299,50.6301187
          -2.4363024,50.6300750
          -2.4363787,50.6300289
          -2.4364559,50.6299846
          -2.4365312,50.6299403
          -2.4366030,50.6298983
          -2.4366770,50.6298553
          -2.4367524,50.6298146
          -2.4368267,50.6297696
          -2.4368982,50.6297248
          -2.4369694,50.6296807
          -2.4370390,50.6296380
          -2.4371126,50.6295938
          -2.4371874,50.6295523
          -2.4372621,50.6295077
          -2.4373358,50.6294640
          -2.4374106,50.6294186
          -2.4374825,50.6293755
          -2.4375586,50.6293299
          -2.4376326,50.6292863
          -2.4377045,50.6292393
          -2.4377767,50.6291954
          -2.4378463,50.6291504
          -2.4379179,50.6291020
          -2.4379907,50.6290573
          -2.4380600,50.6290103
          -2.4381287,50.6289634
          -2.4382000,50.6289181
          -2.4382740,50.6288737
          -2.4383420,50.6288231
          -2.4384083,50.6287754
          -2.4384782,50.6287268
          -2.4385468,50.6286802
          -2.4386127,50.6286297
          -2.4386772,50.6285825
          -2.4387406,50.6285291
          -2.4388049,50.6284796
          -2.4388733,50.6284305
          -2.4389417,50.6283843
          -2.4390107,50.6283345
          -2.4390794,50.6282883
          -2.4391451,50.6282386
          -2.4392157,50.6281910
          -2.4392804,50.6281417
          -2.4393424,50.6280892
          -2.4393980,50.6280371
          -2.4394567,50.6279818
          -2.4395197,50.6279334
          -2.4395897,50.6278857
          -2.4396560,50.6278383
          -2.4397249,50.6277899
          -2.4397911,50.6277433
          -2.4398535,50.6276930
          -2.4399166,50.6276435
          -2.4399787,50.6275923
          -2.4400432,50.6275435
          -2.4401027,50.6274924
          -2.4401689,50.6274446
          -2.4402319,50.6273929
          -2.4402987,50.6273408
          -2.4403669,50.6272912
          -2.4404406,50.6272469
          -2.4405049,50.6271970
          -2.4405681,50.6271411
          -2.4406277,50.6270888
          -2.4406929,50.6270360
          -2.4407609,50.6269851
          -2.4408234,50.6269364
          -2.4408857,50.6268873
          -2.4409480,50.6268432
          -2.4410041,50.6267978
          -2.4410620,50.6267516
          -2.4411234,50.6267045
          -2.4411946,50.6266597
          -2.4412674,50.6266122
          -2.4413337,50.6265622
          -2.4413716,50.6265307
          -2.4414261,50.6264812
          -2.4415005,50.6264220
          -2.4415649,50.6263707
          -2.4416270,50.6263181
          -2.4416928,50.6262687
          -2.4417626,50.6262172
          -2.4418342,50.6261662
          -2.4419062,50.6261163
          -2.4419706,50.6260625
          -2.4420286,50.6260128
          -2.4420907,50.6259604
          -2.4421535,50.6259095
          -2.4422221,50.6258569
          -2.4422937,50.6258087
          -2.4423631,50.6257581
          -2.4424251,50.6257082
          -2.4424852,50.6256586
          -2.4425470,50.6256050
          -2.4426095,50.6255537
          -2.4426691,50.6255032
          -2.4427349,50.6254535
          -2.4428009,50.6254051
          -2.4428767,50.6253597
          -2.4429426,50.6253086
          -2.4429945,50.6252529
          -2.4430476,50.6251939
          -2.4430977,50.6251378
          -2.4431517,50.6250807
          -2.4432089,50.6250264
          -2.4432617,50.6249709
          -2.4433153,50.6249139
          -2.4433646,50.6248609
          -2.4434151,50.6248050
          -2.4434635,50.6247498
          -2.4435128,50.6246972
          -2.4435604,50.6246443
          -2.4436128,50.6245930
          -2.4436595,50.6245423
          -2.4437083,50.6244879
          -2.4437604,50.6244342
          -2.4438134,50.6243823
          -2.4438799,50.6243308
          -2.4439567,50.6242904
          -2.4440284,50.6242554
          -2.4440810,50.6242066
          -2.4441274,50.6241476
          -2.4441813,50.6240951
          -2.4442346,50.6240431
          -2.4442903,50.6239879
          -2.4443516,50.6239392
          -2.4444096,50.6238862
          -2.4444719,50.6238372
          -2.4445320,50.6237850
          -2.4445926,50.6237353
          -2.4446518,50.6236885
          -2.4447067,50.6236387
          -2.4447714,50.6235857
          -2.4448407,50.6235348
          -2.4449017,50.6234837
          -2.4449626,50.6234326
          -2.4450263,50.6233861
          -2.4450862,50.6233382
          -2.4451435,50.6232881
          -2.4452061,50.6232377
          -2.4452696,50.6231860
          -2.4453296,50.6231347
          -2.4453934,50.6230836
          -2.4454534,50.6230313
          -2.4455106,50.6229830
          -2.4455662,50.6229339
          -2.4456171,50.6228821
          -2.4456750,50.6228277
          -2.4457347,50.6227753
          -2.4457908,50.6227207
          -2.4458539,50.6226689
          -2.4459129,50.6226193
          -2.4459764,50.6225697
          -2.4460356,50.6225186
          -2.4460933,50.6224638
          -2.4461494,50.6224109
          -2.4462080,50.6223563
          -2.4462648,50.6223066
          -2.4463282,50.6222553
          -2.4463817,50.6222014
          -2.4464314,50.6221453
          -2.4464797,50.6220913
          -2.4465286,50.6220341
          -2.4465832,50.6219800
          -2.4466330,50.6219239
          -2.4466850,50.6218742
          -2.4467402,50.6218224
          -2.4467938,50.6217701
          -2.4468445,50.6217193
          -2.4469009,50.6216719
          -2.4469606,50.6216182
          -2.4470188,50.6215591
          -2.4470735,50.6215049
          -2.4471271,50.6214529
          -2.4471847,50.6213984
          -2.4472436,50.6213497
          -2.4473040,50.6212996
          -2.4473599,50.6212455
          -2.4474146,50.6211887
          -2.4474723,50.6211377
          -2.4475346,50.6210830
          -2.4475914,50.6210301
          -2.4476465,50.6209784
          -2.4476960,50.6209243
          -2.4477470,50.6208678
          -2.4477974,50.6208142
          -2.4478514,50.6207626
          -2.4479078,50.6207091
          -2.4479661,50.6206518
          -2.4480195,50.6206010
          -2.4480745,50.6205480
          -2.4481250,50.6204946
          -2.4481812,50.6204399
          -2.4482376,50.6203883
          -2.4482925,50.6203361
          -2.4483489,50.6202841
          -2.4484009,50.6202299
          -2.4484525,50.6201778
          -2.4484981,50.6201220
          -2.4485537,50.6200688
          -2.4486094,50.6200152
          -2.4486606,50.6199624
          -2.4487127,50.6199059
          -2.4487590,50.6198495
          -2.4487941,50.6197891
          -2.4488480,50.6197310
          -2.4489146,50.6196754
          -2.4489770,50.6196190
          -2.4490402,50.6195647
          -2.4490911,50.6195108
          -2.4491404,50.6194512
          -2.4491953,50.6193979
          -2.4492547,50.6193428
          -2.4493136,50.6192879
          -2.4493683,50.6192315
          -2.4494224,50.6191739
          -2.4494763,50.6191189
          -2.4495294,50.6190605
          -2.4495836,50.6190062
          -2.4496350,50.6189485
          -2.4496852,50.6188923
          -2.4497278,50.6188341
          -2.4497653,50.6187720
          -2.4498146,50.6187138
          -2.4498710,50.6186543
          -2.4499127,50.6185978
          -2.4499270,50.6185369
          -2.4499441,50.6184731
          -2.4499713,50.6184075
          -2.4500137,50.6183417
          -2.4500641,50.6182827
          -2.4501158,50.6182231
          -2.4501691,50.6181629
          -2.4502087,50.6180985
          -2.4502500,50.6180372
          -2.4502985,50.6179802
          -2.4503559,50.6179265
          -2.4504100,50.6178719
          -2.4504626,50.6178162
          -2.4505125,50.6177626
          -2.4505619,50.6177080
          -2.4506140,50.6176577
          -2.4506643,50.6176017
          -2.4507175,50.6175492
          -2.4507579,50.6174966
          -2.4507628,50.6174395
          -2.4507766,50.6173796
          -2.4507996,50.6173223
          -2.4508265,50.6172660
          -2.4508534,50.6172118
          -2.4508905,50.6171728
          -2.4509317,50.6171250
          -2.4509974,50.6170726
          -2.4510553,50.6170316
          -2.4510469,50.6169866
          -2.4510285,50.6169392
          -2.4510177,50.6168931
          -2.4510285,50.6168538
          -2.4510322,50.6168069
          -2.4510232,50.6167565
          -2.4510099,50.6167058
          -2.4509958,50.6166536
          -2.4509569,50.6166052
          -2.4509231,50.6165513
          -2.4509083,50.6164923
          -2.4509447,50.6164279
          -2.4509852,50.6163685
          -2.4510236,50.6163113
          -2.4510545,50.6162525
          -2.4510876,50.6161934
          -2.4511195,50.6161328
          -2.4511541,50.6160732
          -2.4511944,50.6160143
          -2.4512230,50.6159558
          -2.4512518,50.6158979
          -2.4512840,50.6158382
          -2.4513202,50.6157816
          -2.4513536,50.6157231
          -2.4513875,50.6156620
          -2.4514183,50.6156003
          -2.4514569,50.6155410
          -2.4514869,50.6154809
          -2.4515166,50.6154193
          -2.4515493,50.6153618
          -2.4515789,50.6153036
          -2.4516011,50.6152439
          -2.4516237,50.6151831
          -2.4516522,50.6151265
          -2.4516800,50.6150648
          -2.4517074,50.6150044
          -2.4517364,50.6149433
          -2.4517640,50.6148846
          -2.4517864,50.6148225
          -2.4518099,50.6147610
          -2.4518345,50.6146983
          -2.4518581,50.6146384
          -2.4518771,50.6145789
          -2.4518985,50.6145205
          -2.4519172,50.6144586
          -2.4519374,50.6143959
          -2.4519565,50.6143299
          -2.4519833,50.6142672
          -2.4519947,50.6142068
          -2.4520141,50.6141458
          -2.4520221,50.6140809
          -2.4520384,50.6140193
          -2.4520510,50.6139611
          -2.4520685,50.6139054
          -2.4520886,50.6138516
          -2.4520921,50.6137924
          -2.4521037,50.6137304
          -2.4521142,50.6136775
          -2.4521240,50.6136194
          -2.4521314,50.6135577
          -2.4521482,50.6134953
          -2.4521612,50.6134341
          -2.4521772,50.6133698
          -2.4521910,50.6133083
          -2.4522026,50.6132431
          -2.4522064,50.6131774
          -2.4522116,50.6131124
          -2.4522212,50.6130494
          -2.4522251,50.6129874
          -2.4522299,50.6129225
          -2.4522318,50.6128576
          -2.4522380,50.6127925
          -2.4522473,50.6127299
          -2.4522539,50.6126645
          -2.4522668,50.6126048
          -2.4522790,50.6125406
          -2.4522798,50.6124717
          -2.4522772,50.6124050
          -2.4522734,50.6123385
          -2.4522675,50.6122748
          -2.4522644,50.6122096
          -2.4522582,50.6121447
          -2.4522562,50.6120834
          -2.4522528,50.6120170
          -2.4522497,50.6119509
          -2.4522425,50.6118856
          -2.4522355,50.6118199
          -2.4522383,50.6117534
          -2.4522316,50.6116921
          -2.4522202,50.6116299
          -2.4522063,50.6115652
          -2.4521884,50.6115044
          -2.4521707,50.6114436
          -2.4521518,50.6113824
          -2.4521342,50.6113230
          -2.4521166,50.6112616
          -2.4520978,50.6112030
          -2.4520805,50.6111418
          -2.4520567,50.6110830
          -2.4520218,50.6110243
          -2.4519907,50.6109642
          -2.4519689,50.6109023
          -2.4519441,50.6108428
          -2.4519118,50.6107849
          -2.4518871,50.6107272
          -2.4518576,50.6106710
          -2.4518249,50.6106119
          -2.4517866,50.6105556
          -2.4517568,50.6104963
          -2.4517293,50.6104382
          -2.4517003,50.6103798
          -2.4516694,50.6103213
          -2.4516404,50.6102624
          -2.4515970,50.6102037
          -2.4515532,50.6101476
          -2.4515069,50.6100924
          -2.4514654,50.6100369
          -2.4514178,50.6099826
          -2.4513746,50.6099249
          -2.4513349,50.6098697
          -2.4512926,50.6098162
          -2.4512448,50.6097649
          -2.4511852,50.6097178
          -2.4511215,50.6096764
          -2.4510600,50.6096297
          -2.4509985,50.6095858
          -2.4509374,50.6095342
          -2.4508785,50.6094877
          -2.4508139,50.6094402
          -2.4507478,50.6093909
          -2.4506809,50.6093382
          -2.4506245,50.6092867
          -2.4505807,50.6092442
          -2.4505259,50.6092001
          -2.4504678,50.6091559
          -2.4504090,50.6091100
          -2.4503520,50.6090636
          -2.4502958,50.6090232
          -2.4502388,50.6089786
          -2.4501932,50.6089329
          -2.4501376,50.6088917
          -2.4500870,50.6088517
          -2.4500462,50.6088145
          -2.4500155,50.6087730
          -2.4499822,50.6087496
          -2.4500126,50.6087038
          -2.4500339,50.6087252
          -2.4500777,50.6087673
          -2.4501272,50.6088136
          -2.4501735,50.6088598
          -2.4502307,50.6089070
          -2.4502896,50.6089691
          -2.4503345,50.6090260
          -2.4503621,50.6090642
          -2.4504074,50.6091142
          -2.4504696,50.6091590
          -2.4505330,50.6092040
          -2.4505926,50.6092509
          -2.4506540,50.6093013
          -2.4507125,50.6093534
          -2.4507723,50.6094031
          -2.4508249,50.6094467
          -2.4508783,50.6094926
          -2.4509233,50.6095437
          -2.4509758,50.6095971
          -2.4510282,50.6096489
          -2.4510797,50.6097048
          -2.4511409,50.6097556
          -2.4512067,50.6098405
          -2.4512351,50.6098825
          -2.4512656,50.6099363
          -2.4512956,50.6099959
          -2.4513375,50.6100536
          -2.4513813,50.6101058
          -2.4514197,50.6101624
          -2.4514542,50.6102209
          -2.4514898,50.6102793
          -2.4515276,50.6103385
          -2.4515563,50.6104007
          -2.4516025,50.6104585
          -2.4516411,50.6105193
          -2.4516830,50.6105751
          -2.4517381,50.6106298
          -2.4517828,50.6106866
          -2.4518203,50.6107470
          -2.4518546,50.6108060
          -2.4518866,50.6108667
          -2.4519135,50.6109302
          -2.4519411,50.6109899
          -2.4519638,50.6110509
          -2.4519834,50.6111111
          -2.4520057,50.6111693
          -2.4520258,50.6112325
          -2.4520552,50.6112959
          -2.4520887,50.6113547
          -2.4521177,50.6114152
          -2.4521525,50.6114762
          -2.4521772,50.6115387
          -2.4521936,50.6116009
          -2.4522116,50.6116638
          -2.4522277,50.6117283
          -2.4522340,50.6117980
          -2.4522390,50.6118638
          -2.4522371,50.6119319
          -2.4522475,50.6119986
          -2.4522575,50.6120627
          -2.4522694,50.6121269
          -2.4522709,50.6121907
          -2.4522661,50.6122536
          -2.4522593,50.6123152
          -2.4522547,50.6123770
          -2.4522532,50.6124388
          -2.4522493,50.6125030
          -2.4522532,50.6125679
          -2.4522551,50.6126328
          -2.4522608,50.6126953
          -2.4522685,50.6127564
          -2.4522671,50.6128181
          -2.4522658,50.6128836
          -2.4522627,50.6129490
          -2.4522648,50.6130122
          -2.4522549,50.6130765
          -2.4522405,50.6131402
          -2.4522203,50.6132007
          -2.4522022,50.6132611
          -2.4522000,50.6133246
          -2.4521970,50.6133887
          -2.4521904,50.6134519
          -2.4521794,50.6135161
          -2.4521715,50.6135809
          -2.4521532,50.6136459
          -2.4521352,50.6137076
          -2.4521257,50.6137723
          -2.4521154,50.6138381
          -2.4521000,50.6139055
          -2.4520852,50.6139685
          -2.4520700,50.6140306
          -2.4520570,50.6140917
          -2.4520417,50.6141525
          -2.4520276,50.6142121
          -2.4520122,50.6142721
          -2.4519938,50.6143328
          -2.4519771,50.6143913
          -2.4519622,50.6144491
          -2.4519477,50.6145102
          -2.4519287,50.6145730
          -2.4518999,50.6146342
          -2.4518804,50.6146919
          -2.4518586,50.6147537
          -2.4518302,50.6148148
          -2.4518042,50.6148767
          -2.4517852,50.6149360
          -2.4517654,50.6149985
          -2.4517452,50.6150617
          -2.4517159,50.6151199
          -2.4516884,50.6151833
          -2.4516665,50.6152466
          -2.4516374,50.6153075
          -2.4516142,50.6153665
          -2.4516003,50.6154243
          -2.4515936,50.6154836
          -2.4515738,50.6155427
          -2.4515438,50.6156020
          -2.4515088,50.6156589
          -2.4514813,50.6157167
          -2.4514541,50.6157729
          -2.4514179,50.6158286
          -2.4513770,50.6158843
          -2.4513337,50.6159381
          -2.4512937,50.6159894
          -2.4512733,50.6160469
          -2.4512515,50.6161069
          -2.4512294,50.6161675
          -2.4512041,50.6162244
          -2.4511818,50.6162782
          -2.4511705,50.6163302
          -2.4511583,50.6163823
          -2.4511500,50.6164295
          -2.4511581,50.6164702
          -2.4511735,50.6165129
          -2.4511749,50.6165598
          -2.4511795,50.6166043
          -2.4511793,50.6166541
          -2.4511532,50.6167086
          -2.4511282,50.6167610
          -2.4511096,50.6168114
          -2.4510884,50.6168591
          -2.4510685,50.6169089
          -2.4510564,50.6169667
          -2.4510430,50.6170248
          -2.4510402,50.6170764
          -2.4510444,50.6171356
          -2.4510439,50.6171994
          -2.4510386,50.6172586
          -2.4510136,50.6173094
          -2.4509643,50.6173649
          -2.4509165,50.6174224
          -2.4508727,50.6174803
          -2.4508215,50.6175383
          -2.4507747,50.6175944
          -2.4507375,50.6176544
          -2.4506825,50.6177130
          -2.4506331,50.6177730
          -2.4505804,50.6178304
          -2.4505305,50.6178864
          -2.4504766,50.6179410
          -2.4504186,50.6179946
          -2.4503649,50.6180517
          -2.4503113,50.6181059
          -2.4502476,50.6181553
          -2.4501896,50.6182053
          -2.4501367,50.6182550
          -2.4500900,50.6183064
          -2.4500518,50.6183633
          -2.4500131,50.6184221
          -2.4499917,50.6184785
          -2.4499862,50.6185345
          -2.4499691,50.6185945
          -2.4499343,50.6186536
          -2.4498747,50.6187164
          -2.4498196,50.6187745
          -2.4497715,50.6188257
          -2.4497218,50.6188744
          -2.4496729,50.6189274
          -2.4496240,50.6189836
          -2.4495731,50.6190417
          -2.4495245,50.6190954
          -2.4494780,50.6191483
          -2.4494312,50.6192020
          -2.4493742,50.6192586
          -2.4493219,50.6193156
          -2.4492674,50.6193697
          -2.4492156,50.6194228
          -2.4491665,50.6194765
          -2.4491140,50.6195316
          -2.4490619,50.6195880
          -2.4490036,50.6196417
          -2.4489557,50.6196988
          -2.4489011,50.6197531
          -2.4488474,50.6198065
          -2.4487902,50.6198573
          -2.4487405,50.6199141
          -2.4486881,50.6199685
          -2.4486364,50.6200263
          -2.4485859,50.6200849
          -2.4485317,50.6201418
          -2.4484701,50.6201879
          -2.4484167,50.6202440
          -2.4483700,50.6203041
          -2.4483177,50.6203614
          -2.4482642,50.6204184
          -2.4482091,50.6204742
          -2.4481507,50.6205285
          -2.4480980,50.6205816
          -2.4480493,50.6206381
          -2.4479889,50.6206935
          -2.4479333,50.6207491
          -2.4478860,50.6208046
          -2.4478364,50.6208589
          -2.4477864,50.6209141
          -2.4477338,50.6209688
          -2.4476767,50.6210240
          -2.4476167,50.6210774
          -2.4475633,50.6211358
          -2.4475066,50.6211907
          -2.4474484,50.6212493
          -2.4473882,50.6213055
          -2.4473288,50.6213586
          -2.4472758,50.6214120
          -2.4472157,50.6214648
          -2.4471611,50.6215215
          -2.4471044,50.6215824
          -2.4470456,50.6216420
          -2.4469862,50.6216936
          -2.4469381,50.6217484
          -2.4468920,50.6218097
          -2.4468418,50.6218681
          -2.4467935,50.6219283
          -2.4467334,50.6219809
          -2.4466762,50.6220390
          -2.4466288,50.6220994
          -2.4465677,50.6221520
          -2.4465093,50.6222043
          -2.4464368,50.6222544
          -2.4463769,50.6223168
          -2.4463190,50.6223734
          -2.4462720,50.6224314
          -2.4462197,50.6224913
          -2.4461501,50.6225448
          -2.4460830,50.6225961
          -2.4460275,50.6226486
          -2.4459364,50.6226791
          -2.4458732,50.6227261
          -2.4458239,50.6227840
          -2.4457767,50.6228455
          -2.4457190,50.6229023
          -2.4456542,50.6229606
          -2.4455872,50.6230127
          -2.4455250,50.6230658
          -2.4454620,50.6231165
          -2.4454008,50.6231646
          -2.4453386,50.6232169
          -2.4452817,50.6232680
          -2.4452215,50.6233195
          -2.4451581,50.6233727
          -2.4450909,50.6234236
          -2.4450199,50.6234752
          -2.4449535,50.6235274
          -2.4448890,50.6235800
          -2.4448256,50.6236325
          -2.4447631,50.6236828
          -2.4447063,50.6237315
          -2.4446469,50.6237829
          -2.4445859,50.6238404
          -2.4445257,50.6238974
          -2.4444578,50.6239504
          -2.4443942,50.6240041
          -2.4443332,50.6240593
          -2.4442751,50.6241127
          -2.4442117,50.6241637
          -2.4441584,50.6242175
          -2.4440911,50.6242636
          -2.4440088,50.6243063
          -2.4439367,50.6243477
          -2.4438779,50.6243934
          -2.4438284,50.6244465
          -2.4437761,50.6245019
          -2.4437181,50.6245561
          -2.4436593,50.6246110
          -2.4436111,50.6246682
          -2.4435612,50.6247257
          -2.4435089,50.6247831
          -2.4434547,50.6248386
          -2.4434069,50.6248991
          -2.4433604,50.6249566
          -2.4433094,50.6250116
          -2.4432603,50.6250686
          -2.4432149,50.6251261
          -2.4431690,50.6251808
          -2.4431093,50.6252344
          -2.4430419,50.6252866
          -2.4429746,50.6253350
          -2.4429095,50.6253889
          -2.4428500,50.6254421
          -2.4427853,50.6254939
          -2.4427185,50.6255410
          -2.4426539,50.6255902
          -2.4425868,50.6256386
          -2.4425203,50.6256816
          -2.4424500,50.6257296
          -2.4423852,50.6257802
          -2.4423219,50.6258297
          -2.4422595,50.6258822
          -2.4422004,50.6259341
          -2.4421433,50.6259833
          -2.4420792,50.6260294
          -2.4420093,50.6260770
          -2.4419461,50.6261258
          -2.4418810,50.6261751
          -2.4418172,50.6262227
          -2.4417507,50.6262737
          -2.4416849,50.6263212
          -2.4416197,50.6263706
          -2.4415599,50.6264186
          -2.4414959,50.6264678
          -2.4414306,50.6265195
          -2.4413755,50.6265722
          -2.4413190,50.6266225
          -2.4412584,50.6266731
          -2.4411934,50.6267237
          -2.4411218,50.6267715
          -2.4410462,50.6268159
          -2.4409802,50.6268656
          -2.4409226,50.6269129
          -2.4408594,50.6269588
          -2.4407890,50.6270060
          -2.4407277,50.6270550
          -2.4406652,50.6271037
          -2.4406033,50.6271504
          -2.4405418,50.6271957
          -2.4404807,50.6272415
          -2.4404205,50.6272890
          -2.4403554,50.6273398
          -2.4402904,50.6273879
          -2.4402242,50.6274364
          -2.4401594,50.6274877
          -2.4401003,50.6275402
          -2.4400500,50.6275957
          -2.4399945,50.6276482
          -2.4399292,50.6276987
          -2.4398553,50.6277472
          -2.4397844,50.6277930
          -2.4397177,50.6278379
          -2.4396519,50.6278849
          -2.4395865,50.6279350
          -2.4395205,50.6279850
          -2.4394543,50.6280319
          -2.4393896,50.6280775
          -2.4393269,50.6281272
          -2.4392666,50.6281777
          -2.4392011,50.6282259
          -2.4391359,50.6282719
          -2.4390674,50.6283202
          -2.4389992,50.6283693
          -2.4389311,50.6284194
          -2.4388659,50.6284687
          -2.4388020,50.6285170
          -2.4387421,50.6285657
          -2.4386761,50.6286153
          -2.4386066,50.6286628
          -2.4385458,50.6287082
          -2.4384797,50.6287549
          -2.4384119,50.6288030
          -2.4383428,50.6288493
          -2.4382759,50.6288925
          -2.4382094,50.6289371
          -2.4381438,50.6289863
          -2.4380757,50.6290373
          -2.4380096,50.6290889
          -2.4379442,50.6291405
          -2.4378732,50.6291845
          -2.4377948,50.6292269
          -2.4377202,50.6292720
          -2.4376453,50.6293193
          -2.4375688,50.6293677
          -2.4374951,50.6294125
          -2.4374146,50.6294558
          -2.4373397,50.6295000
          -2.4372655,50.6295440
          -2.4371897,50.6295879
          -2.4371168,50.6296328
          -2.4370422,50.6296808
          -2.4369664,50.6297280
          -2.4368918,50.6297739
          -2.4368111,50.6298193
          -2.4367357,50.6298664
          -2.4366614,50.6299123
          -2.4365875,50.6299589
          -2.4365087,50.6300036
          -2.4364246,50.6300500
          -2.4363481,50.6300973
          -2.4362762,50.6301432
          -2.4362029,50.6301889
          -2.4361244,50.6302333
          -2.4360427,50.6302787
          -2.4359685,50.6303233
          -2.4358951,50.6303674
          -2.4358211,50.6304141
          -2.4357425,50.6304629
          -2.4356616,50.6305077
          -2.4355838,50.6305515
          -2.4355071,50.6305965
          -2.4354285,50.6306441
          -2.4353519,50.6306903
          -2.4352777,50.6307343
          -2.4352000,50.6307827
          -2.4351227,50.6308293
          -2.4350459,50.6308717
          -2.4349677,50.6309143
          -2.4348920,50.6309603
          -2.4348184,50.6310095
          -2.4347439,50.6310586
          -2.4346647,50.6311063
          -2.4345878,50.6311490
          -2.4345124,50.6311899
          -2.4344382,50.6312322
          -2.4343654,50.6312764
          -2.4342930,50.6313214
          -2.4342155,50.6313625
          -2.4341367,50.6314052
          -2.4340629,50.6314487
          -2.4339899,50.6314906
          -2.4339195,50.6315354
          -2.4338403,50.6315805
          -2.4337635,50.6316213
          -2.4336821,50.6316611
          -2.4336058,50.6317054
          -2.4335314,50.6317484
          -2.4334566,50.6317908
          -2.4333840,50.6318284
          -2.4333137,50.6318729
          -2.4332409,50.6319229
          -2.4331648,50.6319672
          -2.4330897,50.6320096
          -2.4330126,50.6320509
          -2.4329360,50.6320958
          -2.4328544,50.6321382
          -2.4327767,50.6321813
          -2.4327073,50.6322278
          -2.4326355,50.6322723
          -2.4325626,50.6323183
          -2.4324859,50.6323637
          -2.4324027,50.6324052
          -2.4323283,50.6324489
          -2.4322577,50.6324903
          -2.4321867,50.6325309
          -2.4321096,50.6325689
          -2.4320326,50.6326098
          -2.4319569,50.6326533
          -2.4318800,50.6326958
          -2.4318054,50.6327369
          -2.4317326,50.6327818
          -2.4316631,50.6328289
          -2.4315846,50.6328693
          -2.4315134,50.6329115
          -2.4314509,50.6329519
          -2.4313835,50.6329923
          -2.4313092,50.6330330
          -2.4312424,50.6330763
          -2.4311890,50.6331232
          -2.4311514,50.6331565
          -2.4311255,50.6332029
          -2.4311139,50.6332611
          -2.4311202,50.6333203
          -2.4311246,50.6333805
          -2.4310953,50.6334189
          -2.4311299,50.6334964
          -2.4311270,50.6334850
          -2.4311361,50.6334231
          -2.4311212,50.6333432
          -2.4310835,50.6332817
          -2.4310543,50.6332233
          -2.4310406,50.6331749
          -2.4310249,50.6331395
          -2.4310272,50.6331858
          -2.4309963,50.6332459
          -2.4309538,50.6333053
          -2.4309125,50.6333633
          -2.4308764,50.6334186
          -2.4308488,50.6334776
          -2.4308160,50.6335367
          -2.4307901,50.6335921
          -2.4307604,50.6336476
          -2.4307200,50.6337041
          -2.4306937,50.6337592
          -2.4306629,50.6338128
          -2.4306257,50.6338658
          -2.4305910,50.6339194
          -2.4305618,50.6339757
          -2.4305306,50.6340255
          -2.4305009,50.6340751
          -2.4304775,50.6341250
          -2.4304482,50.6341809
          -2.4304211,50.6342405
          -2.4304044,50.6342994
          -2.4303786,50.6343595
          -2.4303394,50.6344189
          -2.4302971,50.6344796
          -2.4302669,50.6345398
          -2.4302454,50.6345968
          -2.4302177,50.6346497
          -2.4301888,50.6347053
          -2.4301599,50.6347624
          -2.4301367,50.6348189
          -2.4301007,50.6348766
          -2.4300638,50.6349335
          -2.4300247,50.6349867
          -2.4300017,50.6350411
          -2.4299790,50.6350985
          -2.4299526,50.6351541
          -2.4299183,50.6352091
          -2.4298864,50.6352619
          -2.4298686,50.6353156
          -2.4298444,50.6353707
          -2.4298121,50.6354234
          -2.4297829,50.6354773
          -2.4297523,50.6355264
          -2.4297037,50.6355431
          -2.4296402,50.6355467
          -2.4295931,50.6355476
          -2.4295446,50.6355235
          -2.4294778,50.6355034
          -2.4294045,50.6355065
          -2.4293389,50.6355112
          -2.4292760,50.6355158
          -2.4292087,50.6355200
          -2.4291345,50.6355203
          -2.4290593,50.6355143
          -2.4289786,50.6355062
          -2.4289011,50.6355039
          -2.4288263,50.6355008
          -2.4287568,50.6354997
          -2.4286867,50.6355078
          -2.4286194,50.6355311
          -2.4285444,50.6355585
          -2.4284685,50.6355855
          -2.4283891,50.6356056
          -2.4283321,50.6356207
          -2.4282384,50.6356402
          -2.4281437,50.6356551
          -2.4280613,50.6356730
          -2.4279795,50.6356798
          -2.4278948,50.6356911
          -2.4278045,50.6357130
          -2.4277250,50.6357446
          -2.4276512,50.6357789
          -2.4275793,50.6358147
          -2.4275073,50.6358500
          -2.4274348,50.6358873
          -2.4273606,50.6359264
          -2.4272816,50.6359623
          -2.4272036,50.6359966
          -2.4271270,50.6360349
          -2.4270455,50.6360708
          -2.4269584,50.6361026
          -2.4268664,50.6361343
          -2.4267774,50.6361608
          -2.4266811,50.6361872
          -2.4265897,50.6362130
          -2.4264979,50.6362388
          -2.4264150,50.6362651
          -2.4263291,50.6362882
          -2.4262394,50.6363170
          -2.4261522,50.6363443
          -2.4260643,50.6363677
          -2.4259695,50.6363915
          -2.4258730,50.6364098
          -2.4257750,50.6364285
          -2.4256743,50.6364471
          -2.4255757,50.6364655
          -2.4254798,50.6364858
          -2.4253904,50.6365032
          -2.4253007,50.6365223
          -2.4252103,50.6365399
          -2.4251154,50.6365559
          -2.4250144,50.6365655
          -2.4249156,50.6365824
          -2.4248201,50.6366054
          -2.4247289,50.6366344
          -2.4246420,50.6366601
          -2.4245476,50.6366813
          -2.4244583,50.6367005
          -2.4243684,50.6367181
          -2.4242769,50.6367399
          -2.4241753,50.6367586
          -2.4240802,50.6367811
          -2.4239921,50.6368088
          -2.4239221,50.6368397
          -2.4238327,50.6368617
          -2.4237299,50.6368800
          -2.4236242,50.6368960
          -2.4235295,50.6369138
          -2.4234349,50.6369374
          -2.4233410,50.6369635
          -2.4232446,50.6369878
          -2.4231479,50.6370156
          -2.4230554,50.6370484
          -2.4229612,50.6370805
          -2.4228714,50.6371105
          -2.4227836,50.6371415
          -2.4226991,50.6371721
          -2.4226175,50.6371975
        </coordinates>
      </LineString>
    </Placemark>
  </Document>
</kml>
