<?xml version="1.0" encoding="UTF-8"?>
<kml xmlns="http://www.opengis.net/kml/2.2" xmlns:xsi="http://www.w3.org/2001/XMLSchema-instance" xsi:schemaLocation="http://www.opengis.net/kml/2.2 http://schemas.opengis.net/kml/2.2.0/ogckml22.xsd">
  <Document>
    <name>GPS Wizard</name>
    <open>1</open>
    <Style id="wizard">
      <LineStyle>
        <color>a00000ff</color>
        <width>2</width>
      </LineStyle>
    </Style>
    <Placemark>
      <name>TBC</name>
      <styleUrl>#wizard</styleUrl>
      <LineString>
        <extrude>1</extrude>
        <tessellate>1</tessellate>
        <coordinates>
          -2.4327426,50.6343690
          -2.4327215,50.6343190
          -2.4326742,50.6342688
          -2.4326275,50.6342294
          -2.4325643,50.6341917
          -2.4324678,50.6341784
          -2.4323628,50.6341921
          -2.4322965,50.6342012
          -2.4322178,50.6342289
          -2.4321257,50.6342500
          -2.4320278,50.6342633
          -2.4319370,50.6342726
          -2.4318453,50.6342842
          -2.4317482,50.6342945
          -2.4316491,50.6343015
          -2.4315795,50.6342714
          -2.4315524,50.6342047
          -2.4315252,50.6341301
          -2.4315117,50.6340588
          -2.4315189,50.6339918
          -2.4315113,50.6339269
          -2.4314973,50.6338652
          -2.4314820,50.6338015
          -2.4314599,50.6337366
          -2.4314314,50.6336707
          -2.4313968,50.6336167
          -2.4313428,50.6336166
          -2.4312468,50.6335951
          -2.4312131,50.6335384
          -2.4312002,50.6334756
          -2.4311489,50.6334202
          -2.4310994,50.6333710
          -2.4310644,50.6333461
          -2.4310466,50.6333124
          -2.4310399,50.6332637
          -2.4310575,50.6332029
          -2.4310259,50.6331931
          -2.4309686,50.6332347
          -2.4308967,50.6332670
          -2.4308346,50.6332889
          -2.4307650,50.6333155
          -2.4306945,50.6333499
          -2.4306198,50.6333818
          -2.4305328,50.6334028
          -2.4304589,50.6334110
          -2.4303920,50.6334362
          -2.4303229,50.6334678
          -2.4302498,50.6335032
          -2.4301708,50.6335395
          -2.4300781,50.6335567
          -2.4300071,50.6335611
          -2.4299531,50.6335794
          -2.4298888,50.6336002
          -2.4298136,50.6336228
          -2.4297454,50.6336436
          -2.4296826,50.6336697
          -2.4296189,50.6336911
          -2.4295521,50.6337102
          -2.4294788,50.6337398
          -2.4294132,50.6337672
          -2.4293443,50.6337880
          -2.4292671,50.6338100
          -2.4291843,50.6338286
          -2.4291076,50.6338516
          -2.4290351,50.6338798
          -2.4289594,50.6339061
          -2.4288862,50.6339346
          -2.4288204,50.6339639
          -2.4287525,50.6339915
          -2.4286811,50.6340167
          -2.4286129,50.6340442
          -2.4285476,50.6340726
          -2.4284807,50.6341003
          -2.4284140,50.6341278
          -2.4283584,50.6341576
          -2.4283049,50.6341793
          -2.4282452,50.6341915
          -2.4281788,50.6342067
          -2.4281084,50.6342269
          -2.4280432,50.6342453
          -2.4279816,50.6342721
          -2.4279105,50.6342996
          -2.4278412,50.6343233
          -2.4277734,50.6343495
          -2.4276973,50.6343761
          -2.4276181,50.6344009
          -2.4275498,50.6344266
          -2.4274902,50.6344591
          -2.4274233,50.6344803
          -2.4273542,50.6344998
          -2.4272920,50.6345259
          -2.4272252,50.6345531
          -2.4271528,50.6345746
          -2.4270945,50.6345965
          -2.4270301,50.6346205
          -2.4269608,50.6346419
          -2.4268957,50.6346608
          -2.4268353,50.6346790
          -2.4267747,50.6347043
          -2.4267145,50.6347294
          -2.4266600,50.6347554
          -2.4265989,50.6347831
          -2.4265393,50.6347971
          -2.4264742,50.6348248
          -2.4264052,50.6348590
          -2.4263368,50.6348903
          -2.4262706,50.6349211
          -2.4262042,50.6349533
          -2.4261337,50.6349794
          -2.4260614,50.6350007
          -2.4259879,50.6350215
          -2.4259196,50.6350431
          -2.4258466,50.6350655
          -2.4257741,50.6350889
          -2.4257008,50.6351128
          -2.4256261,50.6351354
          -2.4255506,50.6351612
          -2.4254728,50.6351823
          -2.4253955,50.6352058
          -2.4253137,50.6352278
          -2.4252361,50.6352521
          -2.4251659,50.6352728
          -2.4250952,50.6352912
          -2.4250218,50.6353149
          -2.4249569,50.6353394
          -2.4248850,50.6353625
          -2.4248113,50.6353886
          -2.4247325,50.6354217
          -2.4246560,50.6354503
          -2.4245847,50.6354749
          -2.4245085,50.6354996
          -2.4244279,50.6355209
          -2.4243528,50.6355399
          -2.4242777,50.6355609
          -2.4241938,50.6355810
          -2.4241174,50.6356065
          -2.4240474,50.6356331
          -2.4239810,50.6356562
          -2.4239054,50.6356747
          -2.4238302,50.6356958
          -2.4237542,50.6357205
          -2.4236800,50.6357463
          -2.4236054,50.6357694
          -2.4235317,50.6357951
          -2.4234601,50.6358179
          -2.4233862,50.6358365
          -2.4233163,50.6358544
          -2.4232401,50.6358726
          -2.4231647,50.6358944
          -2.4230935,50.6359199
          -2.4230242,50.6359436
          -2.4229472,50.6359669
          -2.4228741,50.6359852
          -2.4228161,50.6360067
          -2.4227596,50.6360340
          -2.4226938,50.6360616
          -2.4226297,50.6360835
          -2.4225670,50.6361048
          -2.4225033,50.6361243
          -2.4224262,50.6361484
          -2.4223448,50.6361623
          -2.4222688,50.6361780
          -2.4221972,50.6362001
          -2.4221255,50.6362250
          -2.4220515,50.6362509
          -2.4219821,50.6362755
          -2.4219116,50.6363001
          -2.4218467,50.6363216
          -2.4217952,50.6363388
          -2.4217358,50.6363569
          -2.4217054,50.6364034
          -2.4216911,50.6364664
          -2.4216944,50.6365221
          -2.4216956,50.6365741
          -2.4216478,50.6365895
          -2.4215613,50.6365826
          -2.4214717,50.6365648
          -2.4214561,50.6365621
          -2.4215433,50.6365757
          -2.4216263,50.6365925
          -2.4216823,50.6366342
          -2.4217422,50.6366855
          -2.4217788,50.6367404
          -2.4217980,50.6367970
          -2.4217835,50.6368594
          -2.4217486,50.6369221
          -2.4217053,50.6369809
          -2.4216467,50.6370336
          -2.4215685,50.6370803
          -2.4214791,50.6371073
          -2.4213957,50.6371343
          -2.4213354,50.6371804
          -2.4212961,50.6372386
          -2.4212575,50.6372920
          -2.4211919,50.6373162
          -2.4210935,50.6372939
          -2.4210085,50.6372610
          -2.4209329,50.6372278
          -2.4208562,50.6372004
          -2.4207771,50.6371788
          -2.4207068,50.6371552
          -2.4206387,50.6371304
          -2.4205711,50.6370994
          -2.4205114,50.6370419
          -2.4204327,50.6369829
          -2.4203596,50.6369374
          -2.4202859,50.6369038
          -2.4201989,50.6368848
          -2.4201205,50.6368526
          -2.4200512,50.6368297
          -2.4200046,50.6368041
          -2.4200417,50.6367600
          -2.4201257,50.6367160
          -2.4202079,50.6366912
          -2.4202847,50.6366665
          -2.4203497,50.6366410
          -2.4203942,50.6366065
          -2.4204051,50.6365653
          -2.4204172,50.6365290
          -2.4204394,50.6365194
          -2.4204427,50.6365491
          -2.4204444,50.6365948
          -2.4204132,50.6366443
          -2.4203462,50.6366810
          -2.4202626,50.6367107
          -2.4201785,50.6367399
          -2.4200920,50.6367606
          -2.4200050,50.6367781
          -2.4199069,50.6367791
          -2.4198164,50.6367539
          -2.4197382,50.6367290
          -2.4196539,50.6367131
          -2.4195706,50.6366904
          -2.4194923,50.6366650
          -2.4194193,50.6366445
          -2.4193435,50.6366206
          -2.4192929,50.6365775
          -2.4192365,50.6365303
          -2.4191818,50.6364817
          -2.4191359,50.6364283
          -2.4190940,50.6363772
          -2.4190627,50.6363311
          -2.4190402,50.6362922
          -2.4190218,50.6362556
          -2.4190279,50.6362074
          -2.4190504,50.6361607
          -2.4190308,50.6361095
          -2.4189879,50.6360641
          -2.4189472,50.6360190
          -2.4189054,50.6359729
          -2.4188490,50.6359329
          -2.4188005,50.6358955
          -2.4187426,50.6358660
          -2.4186664,50.6358398
          -2.4186076,50.6358181
          -2.4185636,50.6358090
          -2.4185007,50.6358054
          -2.4184211,50.6358028
          -2.4183401,50.6357971
          -2.4182650,50.6357923
          -2.4181843,50.6357881
          -2.4181002,50.6357812
          -2.4180205,50.6357740
          -2.4179457,50.6357664
          -2.4178675,50.6357601
          -2.4177846,50.6357554
          -2.4177016,50.6357515
          -2.4176254,50.6357471
          -2.4175748,50.6357357
          -2.4175082,50.6357280
          -2.4174221,50.6357212
          -2.4173344,50.6357163
          -2.4172429,50.6357103
          -2.4171582,50.6357039
          -2.4171106,50.6357274
          -2.4170986,50.6357724
          -2.4170983,50.6358286
          -2.4170797,50.6358855
          -2.4170332,50.6359303
          -2.4169932,50.6359782
          -2.4169760,50.6360339
          -2.4169665,50.6360919
          -2.4169546,50.6361470
          -2.4169271,50.6361893
          -2.4169162,50.6362361
          -2.4169123,50.6362837
          -2.4168784,50.6363250
          -2.4168220,50.6363483
          -2.4167543,50.6363598
          -2.4166833,50.6363695
          -2.4166125,50.6363755
          -2.4165391,50.6363806
          -2.4164692,50.6363844
          -2.4163963,50.6363884
          -2.4163207,50.6363969
          -2.4162478,50.6364011
          -2.4161858,50.6364001
          -2.4160978,50.6364104
          -2.4160163,50.6364212
          -2.4159380,50.6364295
          -2.4158602,50.6364353
          -2.4157804,50.6364410
          -2.4156992,50.6364479
          -2.4156177,50.6364550
          -2.4155343,50.6364605
          -2.4154547,50.6364674
          -2.4153729,50.6364764
          -2.4152877,50.6364881
          -2.4152065,50.6364978
          -2.4151235,50.6365027
          -2.4150379,50.6365061
          -2.4149514,50.6365073
          -2.4148658,50.6365056
          -2.4147784,50.6364954
          -2.4146890,50.6364931
          -2.4145971,50.6364962
          -2.4145092,50.6364936
          -2.4144263,50.6364826
          -2.4143378,50.6364746
          -2.4142465,50.6364676
          -2.4141559,50.6364673
          -2.4140686,50.6364560
          -2.4139803,50.6364415
          -2.4138929,50.6364321
          -2.4138071,50.6364227
          -2.4137240,50.6364055
          -2.4136385,50.6363905
          -2.4135518,50.6363754
          -2.4134616,50.6363612
          -2.4133648,50.6363439
          -2.4132663,50.6363267
          -2.4131757,50.6363075
          -2.4130822,50.6362865
          -2.4129882,50.6362625
          -2.4128998,50.6362417
          -2.4128129,50.6362191
          -2.4127294,50.6361889
          -2.4126572,50.6361597
          -2.4125917,50.6361268
          -2.4125340,50.6360901
          -2.4124759,50.6360501
          -2.4124166,50.6360071
          -2.4123383,50.6359720
          -2.4122552,50.6359401
          -2.4121687,50.6359078
          -2.4120823,50.6358748
          -2.4119950,50.6358458
          -2.4119100,50.6358184
          -2.4118254,50.6357921
          -2.4117372,50.6357666
          -2.4116540,50.6357402
          -2.4115764,50.6357091
          -2.4114976,50.6356762
          -2.4114145,50.6356443
          -2.4113354,50.6356130
          -2.4112542,50.6355819
          -2.4111752,50.6355550
          -2.4110918,50.6355281
          -2.4110102,50.6355003
          -2.4109251,50.6354713
          -2.4108431,50.6354411
          -2.4107654,50.6354135
          -2.4106841,50.6353898
          -2.4106017,50.6353685
          -2.4105201,50.6353488
          -2.4104512,50.6353232
          -2.4103960,50.6353045
          -2.4103642,50.6352904
          -2.4103218,50.6352764
          -2.4102816,50.6352650
          -2.4102689,50.6352587
          -2.4102401,50.6352566
          -2.4101856,50.6352451
          -2.4101184,50.6352242
          -2.4100413,50.6352100
          -2.4099553,50.6351954
          -2.4098705,50.6351792
          -2.4097885,50.6351629
          -2.4097085,50.6351522
          -2.4096268,50.6351402
          -2.4095422,50.6351248
          -2.4094604,50.6351122
          -2.4093832,50.6351066
          -2.4093037,50.6351045
          -2.4092234,50.6351052
          -2.4091443,50.6351053
          -2.4090630,50.6351028
          -2.4089887,50.6351092
          -2.4089138,50.6351178
          -2.4088375,50.6351242
          -2.4087630,50.6351353
          -2.4086950,50.6351485
          -2.4086235,50.6351638
          -2.4085504,50.6351840
          -2.4084715,50.6352058
          -2.4083912,50.6352288
          -2.4083140,50.6352485
          -2.4082300,50.6352645
          -2.4081398,50.6352781
          -2.4080488,50.6352954
          -2.4079606,50.6353089
          -2.4078695,50.6353240
          -2.4077881,50.6353412
          -2.4077136,50.6353619
          -2.4076390,50.6353842
          -2.4075672,50.6354040
          -2.4074960,50.6354209
          -2.4074206,50.6354279
          -2.4073525,50.6354366
          -2.4072982,50.6354467
          -2.4072483,50.6354604
          -2.4071885,50.6354709
          -2.4071205,50.6354762
          -2.4070515,50.6354769
          -2.4069856,50.6354758
          -2.4069175,50.6354819
          -2.4068523,50.6354860
          -2.4068043,50.6354883
          -2.4067623,50.6354901
          -2.4067157,50.6354909
          -2.4066659,50.6354843
          -2.4066188,50.6354672
          -2.4065805,50.6354593
          -2.4065536,50.6354618
          -2.4065062,50.6354757
          -2.4064398,50.6354822
          -2.4063740,50.6354941
          -2.4063038,50.6355025
          -2.4062468,50.6355084
          -2.4061828,50.6355086
          -2.4061252,50.6355077
          -2.4060818,50.6355185
          -2.4060344,50.6355324
          -2.4059799,50.6355414
          -2.4059215,50.6355453
          -2.4058623,50.6355478
          -2.4058101,50.6355507
          -2.4057646,50.6355545
          -2.4057267,50.6355638
          -2.4056804,50.6355692
          -2.4056331,50.6355761
          -2.4055999,50.6355997
          -2.4055813,50.6356350
          -2.4055704,50.6356793
          -2.4055762,50.6357282
          -2.4055910,50.6357756
          -2.4055998,50.6358173
          -2.4055900,50.6358494
          -2.4055737,50.6358793
          -2.4055594,50.6359054
          -2.4055524,50.6358870
          -2.4055528,50.6358458
          -2.4055533,50.6358048
          -2.4055449,50.6357598
          -2.4055393,50.6357113
          -2.4055446,50.6356614
          -2.4055606,50.6356122
          -2.4056188,50.6355661
          -2.4056714,50.6355594
          -2.4057101,50.6355530
          -2.4057561,50.6355421
          -2.4058081,50.6355350
          -2.4058657,50.6355360
          -2.4059312,50.6355359
          -2.4059904,50.6355297
          -2.4060516,50.6355161
          -2.4061194,50.6355058
          -2.4062209,50.6355099
          -2.4062758,50.6355073
          -2.4063390,50.6354972
          -2.4064057,50.6354832
          -2.4064728,50.6354757
          -2.4065427,50.6354670
          -2.4066151,50.6354618
          -2.4066467,50.6354629
          -2.4066863,50.6354557
          -2.4067337,50.6354547
          -2.4067685,50.6354682
          -2.4068110,50.6354977
          -2.4068729,50.6355143
          -2.4069181,50.6355272
          -2.4069700,50.6355624
          -2.4069956,50.6355889
          -2.4070392,50.6356259
          -2.4070981,50.6356699
          -2.4071551,50.6357150
          -2.4072044,50.6357606
          -2.4072487,50.6358034
          -2.4072759,50.6358451
          -2.4072929,50.6358836
          -2.4073116,50.6359312
          -2.4073179,50.6359829
          -2.4073171,50.6360377
          -2.4073109,50.6360958
          -2.4073064,50.6361546
          -2.4072987,50.6362074
          -2.4072831,50.6362662
          -2.4072316,50.6363231
          -2.4071586,50.6363697
          -2.4070843,50.6364035
          -2.4070084,50.6364372
          -2.4069320,50.6364747
          -2.4068495,50.6365037
          -2.4067594,50.6365329
          -2.4066708,50.6365633
          -2.4065880,50.6365947
          -2.4065033,50.6366249
          -2.4064196,50.6366531
          -2.4063380,50.6366845
          -2.4062623,50.6367182
          -2.4061846,50.6367505
          -2.4061085,50.6367791
          -2.4060316,50.6368084
          -2.4059577,50.6368422
          -2.4058741,50.6368668
          -2.4057944,50.6368903
          -2.4057125,50.6369102
          -2.4056311,50.6369299
          -2.4055521,50.6369488
          -2.4054791,50.6369663
          -2.4053932,50.6369894
          -2.4053130,50.6370084
          -2.4052352,50.6370250
          -2.4051534,50.6370470
          -2.4050666,50.6370693
          -2.4049834,50.6370923
          -2.4049007,50.6371138
          -2.4048218,50.6371325
          -2.4047381,50.6371523
          -2.4046473,50.6371785
          -2.4045602,50.6371990
          -2.4044799,50.6372186
          -2.4043902,50.6372405
          -2.4043162,50.6372623
          -2.4042293,50.6372871
          -2.4041406,50.6373073
          -2.4040486,50.6373294
          -2.4039606,50.6373517
          -2.4038697,50.6373710
          -2.4037874,50.6373936
          -2.4037068,50.6374195
          -2.4036352,50.6374459
          -2.4035654,50.6374716
          -2.4035053,50.6374938
          -2.4034798,50.6374993
          -2.4034542,50.6374832
          -2.4033885,50.6374573
          -2.4033100,50.6374396
          -2.4032342,50.6374244
          -2.4031691,50.6374211
          -2.4031561,50.6374245
          -2.4031339,50.6374206
          -2.4031791,50.6374144
          -2.4032610,50.6374156
          -2.4033288,50.6374311
          -2.4033876,50.6374443
          -2.4034280,50.6374696
          -2.4034148,50.6375068
          -2.4033798,50.6375506
          -2.4033718,50.6375969
          -2.4033492,50.6376307
          -2.4033310,50.6376577
          -2.4033022,50.6376831
          -2.4033133,50.6376580
          -2.4033439,50.6376104
          -2.4033812,50.6375668
          -2.4034363,50.6375314
          -2.4035001,50.6375004
          -2.4035664,50.6374720
          -2.4036409,50.6374444
          -2.4037186,50.6374154
          -2.4037953,50.6373873
          -2.4038660,50.6373639
          -2.4039448,50.6373434
          -2.4040227,50.6373239
          -2.4040996,50.6373063
          -2.4041654,50.6372987
          -2.4042335,50.6372846
          -2.4043110,50.6372615
          -2.4043900,50.6372432
          -2.4044664,50.6372226
          -2.4045470,50.6372002
          -2.4046245,50.6371761
          -2.4047055,50.6371550
          -2.4047873,50.6371331
          -2.4048721,50.6371044
          -2.4049594,50.6370818
          -2.4050468,50.6370588
          -2.4051341,50.6370393
          -2.4052173,50.6370204
          -2.4052971,50.6370004
          -2.4053803,50.6369806
          -2.4054753,50.6369599
          -2.4055620,50.6369395
          -2.4056434,50.6369181
          -2.4057240,50.6368968
          -2.4058046,50.6368817
          -2.4058663,50.6368590
          -2.4059151,50.6368429
          -2.4059888,50.6368222
          -2.4060574,50.6367934
          -2.4061230,50.6367570
          -2.4061924,50.6367182
          -2.4062577,50.6366782
          -2.4063285,50.6366423
          -2.4064155,50.6366155
          -2.4065050,50.6365967
          -2.4066021,50.6365775
          -2.4066949,50.6365578
          -2.4067840,50.6365358
          -2.4068713,50.6365195
          -2.4069549,50.6365107
          -2.4070362,50.6364949
          -2.4071228,50.6364791
          -2.4072108,50.6364688
          -2.4072942,50.6364599
          -2.4073733,50.6364491
          -2.4074572,50.6364333
          -2.4075405,50.6364223
          -2.4076164,50.6364176
          -2.4076993,50.6364162
          -2.4077822,50.6364114
          -2.4078599,50.6364006
          -2.4079341,50.6363899
          -2.4080073,50.6363795
          -2.4080809,50.6363670
          -2.4081568,50.6363426
          -2.4082258,50.6363169
          -2.4082977,50.6362839
          -2.4083710,50.6362463
          -2.4084355,50.6362118
          -2.4084901,50.6361754
          -2.4085418,50.6361356
          -2.4086003,50.6360985
          -2.4086571,50.6360605
          -2.4087143,50.6360239
          -2.4087775,50.6359886
          -2.4088432,50.6359538
          -2.4089109,50.6359171
          -2.4089815,50.6358808
          -2.4090513,50.6358432
          -2.4091140,50.6358025
          -2.4091726,50.6357579
          -2.4092383,50.6357168
          -2.4093074,50.6356772
          -2.4093730,50.6356391
          -2.4094384,50.6356005
          -2.4095088,50.6355661
          -2.4095808,50.6355324
          -2.4096572,50.6354993
          -2.4097239,50.6354632
          -2.4097898,50.6354212
          -2.4098594,50.6353829
          -2.4099302,50.6353480
          -2.4100009,50.6353117
          -2.4100739,50.6352749
          -2.4101394,50.6352449
          -2.4101935,50.6352263
          -2.4102232,50.6352271
          -2.4102567,50.6352385
          -2.4103101,50.6352594
          -2.4103630,50.6352770
          -2.4104437,50.6352869
          -2.4105297,50.6353216
          -2.4105987,50.6353559
          -2.4106571,50.6353863
          -2.4107201,50.6354074
          -2.4107833,50.6354261
          -2.4108506,50.6354348
          -2.4109179,50.6354511
          -2.4109802,50.6354813
          -2.4110513,50.6355126
          -2.4111258,50.6355402
          -2.4112010,50.6355648
          -2.4112670,50.6355927
          -2.4113358,50.6356179
          -2.4114107,50.6356421
          -2.4114944,50.6356673
          -2.4115710,50.6356924
          -2.4116481,50.6357158
          -2.4117250,50.6357472
          -2.4118084,50.6357721
          -2.4118928,50.6357952
          -2.4119750,50.6358242
          -2.4120556,50.6358564
          -2.4121402,50.6358825
          -2.4122254,50.6359109
          -2.4123056,50.6359484
          -2.4123836,50.6359815
          -2.4124599,50.6360110
          -2.4125375,50.6360444
          -2.4126175,50.6360794
          -2.4126827,50.6361188
          -2.4127427,50.6361632
          -2.4128045,50.6362004
          -2.4128827,50.6362264
          -2.4129692,50.6362502
          -2.4130533,50.6362749
          -2.4131396,50.6362949
          -2.4132266,50.6363089
          -2.4133171,50.6363198
          -2.4134070,50.6363364
          -2.4134943,50.6363529
          -2.4135830,50.6363688
          -2.4136678,50.6363874
          -2.4137515,50.6364075
          -2.4138404,50.6364252
          -2.4139385,50.6364303
          -2.4140394,50.6364357
          -2.4141291,50.6364451
          -2.4142133,50.6364519
          -2.4143047,50.6364571
          -2.4143987,50.6364610
          -2.4144900,50.6364601
          -2.4145847,50.6364656
          -2.4146850,50.6364730
          -2.4147709,50.6364714
          -2.4148472,50.6364583
          -2.4148873,50.6364565
          -2.4149633,50.6364782
          -2.4150509,50.6364823
          -2.4151374,50.6364808
          -2.4152218,50.6364762
          -2.4153042,50.6364718
          -2.4153794,50.6364726
          -2.4154484,50.6364645
          -2.4155244,50.6364572
          -2.4156037,50.6364493
          -2.4156786,50.6364401
          -2.4157603,50.6364296
          -2.4158388,50.6364231
          -2.4159170,50.6364194
          -2.4159640,50.6364167
          -2.4160508,50.6364104
          -2.4161281,50.6364029
          -2.4161952,50.6363979
          -2.4162625,50.6363897
          -2.4163275,50.6363856
          -2.4163920,50.6363820
          -2.4164588,50.6363756
          -2.4165319,50.6363698
          -2.4166034,50.6363649
          -2.4166710,50.6363584
          -2.4167399,50.6363451
          -2.4168081,50.6363279
          -2.4168660,50.6363029
          -2.4168875,50.6362614
          -2.4168676,50.6362366
          -2.4168615,50.6362122
          -2.4168849,50.6361900
          -2.4169014,50.6361763
          -2.4169195,50.6361492
          -2.4169264,50.6361289
          -2.4169350,50.6360934
          -2.4169401,50.6360425
          -2.4169520,50.6359941
          -2.4169834,50.6359714
          -2.4170158,50.6359178
          -2.4170507,50.6358607
          -2.4170661,50.6358065
          -2.4170671,50.6357572
          -2.4170849,50.6357158
          -2.4171333,50.6356925
          -2.4172028,50.6356889
          -2.4172801,50.6356920
          -2.4173626,50.6356956
          -2.4174486,50.6357011
          -2.4175374,50.6357111
          -2.4176257,50.6357184
          -2.4177053,50.6357263
          -2.4177853,50.6357338
          -2.4178561,50.6357384
          -2.4179272,50.6357415
          -2.4180090,50.6357443
          -2.4180927,50.6357553
          -2.4181745,50.6357669
          -2.4182517,50.6357712
          -2.4183337,50.6357738
          -2.4184200,50.6357849
          -2.4185063,50.6357958
          -2.4185915,50.6358015
          -2.4186671,50.6358172
          -2.4187335,50.6358477
          -2.4187979,50.6358760
          -2.4188529,50.6359152
          -2.4189044,50.6359595
          -2.4189448,50.6360005
          -2.4189948,50.6360442
          -2.4190324,50.6360933
          -2.4190476,50.6361456
          -2.4190184,50.6361912
          -2.4190187,50.6362527
          -2.4190601,50.6363117
          -2.4191116,50.6363664
          -2.4191608,50.6364218
          -2.4192012,50.6364793
          -2.4192551,50.6365269
          -2.4193163,50.6365754
          -2.4193782,50.6366163
          -2.4194669,50.6366372
          -2.4195574,50.6366636
          -2.4196424,50.6366899
          -2.4197306,50.6367052
          -2.4198192,50.6367220
          -2.4199055,50.6367490
          -2.4199860,50.6367757
          -2.4200611,50.6368074
          -2.4201359,50.6368361
          -2.4202108,50.6368642
          -2.4202886,50.6368896
          -2.4203689,50.6369268
          -2.4204444,50.6369664
          -2.4205135,50.6370153
          -2.4205546,50.6370698
          -2.4206079,50.6371067
          -2.4206834,50.6371333
          -2.4207744,50.6371577
          -2.4208667,50.6371776
          -2.4209537,50.6372066
          -2.4210392,50.6372376
          -2.4211215,50.6372719
          -2.4211959,50.6373003
          -2.4212401,50.6372764
          -2.4212687,50.6372133
          -2.4213086,50.6371548
          -2.4213506,50.6371032
          -2.4214015,50.6370607
          -2.4214683,50.6370290
          -2.4215344,50.6369844
          -2.4215848,50.6369342
          -2.4216149,50.6368797
          -2.4216550,50.6368204
          -2.4216967,50.6367770
          -2.4217028,50.6367307
          -2.4216870,50.6366764
          -2.4216597,50.6366232
          -2.4216403,50.6365686
          -2.4216457,50.6365335
          -2.4216423,50.6365070
          -2.4216510,50.6364769
          -2.4216737,50.6364305
          -2.4217219,50.6363812
          -2.4217795,50.6363440
          -2.4218406,50.6363224
          -2.4218960,50.6363039
          -2.4219530,50.6362834
          -2.4220215,50.6362706
          -2.4220919,50.6362503
          -2.4221537,50.6362266
          -2.4222193,50.6362053
          -2.4222949,50.6361915
          -2.4223702,50.6361770
          -2.4224419,50.6361599
          -2.4225088,50.6361358
          -2.4225839,50.6361151
          -2.4226584,50.6360877
          -2.4227228,50.6360546
          -2.4227830,50.6360349
          -2.4228470,50.6360137
          -2.4229087,50.6359914
          -2.4229697,50.6359681
          -2.4230319,50.6359468
          -2.4230823,50.6359230
          -2.4231132,50.6358880
          -2.4231449,50.6358522
          -2.4231909,50.6358082
          -2.4232460,50.6357716
          -2.4233025,50.6357399
          -2.4233614,50.6357073
          -2.4234212,50.6356713
          -2.4234773,50.6356404
          -2.4234507,50.6356226
          -2.4234026,50.6355872
          -2.4234429,50.6355746
          -2.4235253,50.6355604
          -2.4236049,50.6355499
          -2.4236887,50.6355324
          -2.4237696,50.6355076
          -2.4238441,50.6354775
          -2.4239172,50.6354467
          -2.4239939,50.6354205
          -2.4240762,50.6353936
          -2.4241586,50.6353713
          -2.4242461,50.6353485
          -2.4243262,50.6353249
          -2.4244080,50.6352953
          -2.4244911,50.6352627
          -2.4245740,50.6352318
          -2.4246567,50.6352025
          -2.4247423,50.6351798
          -2.4248252,50.6351641
          -2.4249060,50.6351401
          -2.4249902,50.6351106
          -2.4250709,50.6350815
          -2.4251516,50.6350473
          -2.4252346,50.6350200
          -2.4253194,50.6349953
          -2.4253949,50.6349697
          -2.4254712,50.6349457
          -2.4255506,50.6349168
          -2.4256188,50.6348856
          -2.4256960,50.6348611
          -2.4257577,50.6348345
          -2.4258214,50.6348054
          -2.4258927,50.6347848
          -2.4259670,50.6347621
          -2.4260338,50.6347460
          -2.4261097,50.6347309
          -2.4261811,50.6347248
          -2.4262534,50.6347116
          -2.4263353,50.6346878
          -2.4264063,50.6346588
          -2.4264784,50.6346305
          -2.4265520,50.6346026
          -2.4266232,50.6345784
          -2.4266968,50.6345536
          -2.4267703,50.6345264
          -2.4268429,50.6345024
          -2.4269115,50.6344708
          -2.4269876,50.6344412
          -2.4270546,50.6344102
          -2.4271141,50.6343777
          -2.4271682,50.6343441
          -2.4272346,50.6343180
          -2.4273129,50.6343005
          -2.4273837,50.6342918
          -2.4274557,50.6342788
          -2.4275337,50.6342599
          -2.4276134,50.6342363
          -2.4276818,50.6342067
          -2.4277558,50.6341844
          -2.4278290,50.6341913
          -2.4278877,50.6342061
          -2.4279518,50.6342097
          -2.4280043,50.6342177
          -2.4280623,50.6342312
          -2.4281406,50.6342201
          -2.4282120,50.6341868
          -2.4282796,50.6341585
          -2.4283472,50.6341260
          -2.4284197,50.6340950
          -2.4284892,50.6340641
          -2.4285669,50.6340319
          -2.4286497,50.6340009
          -2.4287262,50.6339780
          -2.4288018,50.6339530
          -2.4288754,50.6339236
          -2.4289590,50.6339021
          -2.4290411,50.6338845
          -2.4291155,50.6338627
          -2.4291933,50.6338401
          -2.4292786,50.6338158
          -2.4293654,50.6337930
          -2.4294651,50.6337779
          -2.4295621,50.6337684
          -2.4296536,50.6337550
          -2.4297261,50.6337243
          -2.4297980,50.6336918
          -2.4298781,50.6336627
          -2.4299533,50.6336303
          -2.4300215,50.6335989
          -2.4301053,50.6335805
          -2.4301918,50.6335604
          -2.4302843,50.6335605
          -2.4303556,50.6335445
          -2.4304349,50.6335120
          -2.4305368,50.6335015
          -2.4306333,50.6335048
          -2.4307219,50.6335245
          -2.4307831,50.6335099
          -2.4308079,50.6334581
          -2.4308594,50.6334133
          -2.4309389,50.6334086
          -2.4310431,50.6334145
          -2.4311175,50.6334295
          -2.4311577,50.6336042
          -2.4311999,50.6335082
          -2.4312551,50.6334599
          -2.4313261,50.6335251
          -2.4313708,50.6335197
          -2.4312794,50.6334797
          -2.4311412,50.6334998
          -2.4310675,50.6335251
          -2.4310255,50.6335227
          -2.4309111,50.6334980
          -2.4308291,50.6335287
          -2.4307463,50.6335466
          -2.4306506,50.6335322
          -2.4305842,50.6335157
          -2.4304814,50.6335275
          -2.4303852,50.6335531
          -2.4303037,50.6335441
          -2.4302116,50.6335473
          -2.4301210,50.6335466
          -2.4300884,50.6335386
          -2.4300960,50.6335060
          -2.4301388,50.6334888
          -2.4302063,50.6334773
          -2.4302882,50.6334561
          -2.4303550,50.6334282
          -2.4304172,50.6334029
          -2.4304974,50.6333852
          -2.4305707,50.6333659
          -2.4306415,50.6333309
          -2.4307125,50.6332952
          -2.4307651,50.6332697
          -2.4308227,50.6332418
          -2.4308740,50.6332052
          -2.4309153,50.6331588
          -2.4309798,50.6331255
          -2.4310419,50.6330912
          -2.4310949,50.6330522
          -2.4311501,50.6330178
          -2.4312118,50.6329903
          -2.4312770,50.6329536
          -2.4313454,50.6329219
          -2.4314145,50.6328959
          -2.4314882,50.6328728
          -2.4315550,50.6328376
          -2.4316220,50.6328030
          -2.4316860,50.6327659
          -2.4317555,50.6327294
          -2.4318283,50.6326946
          -2.4318988,50.6326552
          -2.4319656,50.6326153
          -2.4320335,50.6325753
          -2.4320932,50.6325372
          -2.4321696,50.6325043
          -2.4322364,50.6324632
          -2.4323085,50.6324206
          -2.4323880,50.6323854
          -2.4324626,50.6323460
          -2.4325342,50.6323057
          -2.4325986,50.6322629
          -2.4326691,50.6322205
          -2.4327376,50.6321786
          -2.4328050,50.6321358
          -2.4328758,50.6320954
          -2.4329497,50.6320602
          -2.4330226,50.6320246
          -2.4330977,50.6319881
          -2.4331657,50.6319476
          -2.4332342,50.6319032
          -2.4333068,50.6318609
          -2.4333848,50.6318198
          -2.4334527,50.6317760
          -2.4335146,50.6317333
          -2.4335905,50.6316972
          -2.4336651,50.6316571
          -2.4337421,50.6316114
          -2.4338088,50.6315660
          -2.4338811,50.6315240
          -2.4339574,50.6314844
          -2.4340334,50.6314419
          -2.4341059,50.6313960
          -2.4341849,50.6313526
          -2.4342568,50.6313107
          -2.4343312,50.6312670
          -2.4343939,50.6312236
          -2.4344678,50.6311831
          -2.4345413,50.6311417
          -2.4346165,50.6311005
          -2.4346882,50.6310605
          -2.4347700,50.6310198
          -2.4348473,50.6309753
          -2.4349137,50.6309330
          -2.4349758,50.6308888
          -2.4350456,50.6308459
          -2.4351218,50.6308043
          -2.4351970,50.6307639
          -2.4352638,50.6307193
          -2.4353372,50.6306751
          -2.4354101,50.6306317
          -2.4354838,50.6305851
          -2.4355553,50.6305403
          -2.4356367,50.6304961
          -2.4357218,50.6304563
          -2.4357938,50.6304158
          -2.4358621,50.6303711
          -2.4359371,50.6303306
          -2.4360031,50.6302824
          -2.4360717,50.6302390
          -2.4361396,50.6301930
          -2.4362119,50.6301462
          -2.4362909,50.6301008
          -2.4363763,50.6300612
          -2.4364574,50.6300193
          -2.4365250,50.6299686
          -2.4365949,50.6299210
          -2.4366611,50.6298785
          -2.4367257,50.6298327
          -2.4367909,50.6297830
          -2.4368581,50.6297361
          -2.4369358,50.6296900
          -2.4370123,50.6296455
          -2.4370868,50.6296009
          -2.4371637,50.6295573
          -2.4372462,50.6295168
          -2.4373254,50.6294700
          -2.4373992,50.6294209
          -2.4374717,50.6293774
          -2.4375426,50.6293313
          -2.4376171,50.6292852
          -2.4376907,50.6292430
          -2.4377648,50.6292010
          -2.4378353,50.6291583
          -2.4379036,50.6291117
          -2.4379729,50.6290615
          -2.4380507,50.6290186
          -2.4381290,50.6289767
          -2.4382029,50.6289302
          -2.4382682,50.6288800
          -2.4383310,50.6288273
          -2.4383981,50.6287762
          -2.4384680,50.6287311
          -2.4385298,50.6286817
          -2.4385941,50.6286351
          -2.4386635,50.6285892
          -2.4387390,50.6285397
          -2.4388091,50.6284936
          -2.4388716,50.6284444
          -2.4389346,50.6283980
          -2.4389969,50.6283492
          -2.4390592,50.6283032
          -2.4391214,50.6282553
          -2.4391798,50.6282056
          -2.4392395,50.6281541
          -2.4393010,50.6281057
          -2.4393659,50.6280590
          -2.4394333,50.6280092
          -2.4394979,50.6279593
          -2.4395638,50.6279077
          -2.4396356,50.6278619
          -2.4396982,50.6278135
          -2.4397603,50.6277681
          -2.4398186,50.6277187
          -2.4398895,50.6276716
          -2.4399501,50.6276214
          -2.4400136,50.6275762
          -2.4400734,50.6275278
          -2.4401363,50.6274810
          -2.4402011,50.6274339
          -2.4402597,50.6273845
          -2.4403213,50.6273382
          -2.4403834,50.6272945
          -2.4404576,50.6272524
          -2.4405254,50.6272078
          -2.4405881,50.6271606
          -2.4406661,50.6271132
          -2.4407222,50.6270608
          -2.4407765,50.6270049
          -2.4408359,50.6269537
          -2.4408949,50.6269060
          -2.4409599,50.6268556
          -2.4410341,50.6268054
          -2.4411044,50.6267607
          -2.4411690,50.6267157
          -2.4412342,50.6266706
          -2.4413055,50.6266265
          -2.4413527,50.6265721
          -2.4414085,50.6265211
          -2.4414615,50.6264702
          -2.4415076,50.6264178
          -2.4415292,50.6263652
          -2.4415694,50.6263489
          -2.4416457,50.6263279
          -2.4417180,50.6262915
          -2.4417754,50.6262582
          -2.4418118,50.6262212
          -2.4418572,50.6261785
          -2.4419083,50.6261346
          -2.4419530,50.6260870
          -2.4420059,50.6260449
          -2.4420659,50.6260060
          -2.4421030,50.6259549
          -2.4421529,50.6258995
          -2.4422086,50.6258449
          -2.4422592,50.6257915
          -2.4423212,50.6257456
          -2.4423957,50.6257052
          -2.4424786,50.6256698
          -2.4425471,50.6256234
          -2.4426128,50.6255728
          -2.4426713,50.6255209
          -2.4427430,50.6254734
          -2.4428057,50.6254253
          -2.4428573,50.6253810
          -2.4429065,50.6253377
          -2.4429724,50.6252943
          -2.4430426,50.6252509
          -2.4431117,50.6252110
          -2.4431474,50.6251585
          -2.4431690,50.6250979
          -2.4432137,50.6250415
          -2.4432604,50.6249841
          -2.4433042,50.6249259
          -2.4433556,50.6248676
          -2.4434074,50.6248146
          -2.4434551,50.6247599
          -2.4435052,50.6247044
          -2.4435587,50.6246499
          -2.4436166,50.6246037
          -2.4436659,50.6245598
          -2.4436896,50.6245024
          -2.4437426,50.6244496
          -2.4437932,50.6243990
          -2.4438389,50.6243517
          -2.4438919,50.6243003
          -2.4439421,50.6242550
          -2.4439943,50.6242137
          -2.4440352,50.6241637
          -2.4440809,50.6241158
          -2.4441232,50.6240753
          -2.4441312,50.6240388
          -2.4441005,50.6240231
          -2.4441154,50.6240452
          -2.4441099,50.6240916
          -2.4440767,50.6241403
          -2.4440384,50.6241916
          -2.4440025,50.6242449
          -2.4439639,50.6242929
          -2.4439234,50.6243434
          -2.4438741,50.6243921
          -2.4438326,50.6244365
          -2.4437910,50.6244853
          -2.4437291,50.6245382
          -2.4436597,50.6245868
          -2.4436189,50.6246364
          -2.4435721,50.6246879
          -2.4435249,50.6247376
          -2.4434790,50.6247931
          -2.4434320,50.6248472
          -2.4433845,50.6249006
          -2.4433377,50.6249543
          -2.4432789,50.6250061
          -2.4432234,50.6250555
          -2.4431814,50.6251144
          -2.4431541,50.6251746
          -2.4431067,50.6252279
          -2.4430462,50.6252714
          -2.4429825,50.6253203
          -2.4429212,50.6253740
          -2.4428526,50.6254245
          -2.4427909,50.6254748
          -2.4427254,50.6255218
          -2.4426638,50.6255719
          -2.4425989,50.6256224
          -2.4425382,50.6256760
          -2.4424719,50.6257278
          -2.4424122,50.6257728
          -2.4423523,50.6258166
          -2.4422929,50.6258665
          -2.4422267,50.6259150
          -2.4421581,50.6259622
          -2.4420951,50.6260140
          -2.4420302,50.6260625
          -2.4419615,50.6261041
          -2.4418888,50.6261447
          -2.4418239,50.6261887
          -2.4417604,50.6262385
          -2.4416966,50.6262901
          -2.4416309,50.6263444
          -2.4415742,50.6263968
          -2.4415157,50.6264500
          -2.4414526,50.6265024
          -2.4413850,50.6265506
          -2.4413177,50.6265999
          -2.4412544,50.6266492
          -2.4411899,50.6266998
          -2.4411251,50.6267516
          -2.4410586,50.6268031
          -2.4409882,50.6268534
          -2.4409147,50.6269051
          -2.4408402,50.6269528
          -2.4407715,50.6270001
          -2.4407107,50.6270525
          -2.4406449,50.6271047
          -2.4405718,50.6271509
          -2.4405119,50.6272023
          -2.4404568,50.6272577
          -2.4403975,50.6273135
          -2.4403288,50.6273657
          -2.4402605,50.6274161
          -2.4401925,50.6274639
          -2.4401210,50.6275112
          -2.4400438,50.6275565
          -2.4399713,50.6276014
          -2.4399061,50.6276495
          -2.4398524,50.6277019
          -2.4398026,50.6277585
          -2.4397419,50.6278138
          -2.4396748,50.6278692
          -2.4396122,50.6279202
          -2.4395448,50.6279671
          -2.4394756,50.6280177
          -2.4394096,50.6280687
          -2.4393455,50.6281174
          -2.4392860,50.6281630
          -2.4392195,50.6282073
          -2.4391522,50.6282561
          -2.4390873,50.6283061
          -2.4390178,50.6283635
          -2.4389496,50.6284186
          -2.4388833,50.6284728
          -2.4388099,50.6285257
          -2.4387365,50.6285801
          -2.4386714,50.6286323
          -2.4386069,50.6286825
          -2.4385371,50.6287285
          -2.4384616,50.6287745
          -2.4383914,50.6288229
          -2.4383194,50.6288699
          -2.4382446,50.6289178
          -2.4381772,50.6289682
          -2.4381101,50.6290184
          -2.4380365,50.6290666
          -2.4379592,50.6291151
          -2.4378844,50.6291630
          -2.4378138,50.6292087
          -2.4377349,50.6292508
          -2.4376605,50.6292961
          -2.4375926,50.6293456
          -2.4375157,50.6293937
          -2.4374372,50.6294370
          -2.4373587,50.6294810
          -2.4372819,50.6295248
          -2.4372101,50.6295693
          -2.4371338,50.6296092
          -2.4370559,50.6296537
          -2.4369767,50.6296996
          -2.4369033,50.6297483
          -2.4368332,50.6297934
          -2.4367540,50.6298359
          -2.4366706,50.6298724
          -2.4365957,50.6299161
          -2.4365167,50.6299559
          -2.4364344,50.6299979
          -2.4363594,50.6300446
          -2.4362877,50.6300910
          -2.4362189,50.6301374
          -2.4361533,50.6301868
          -2.4360849,50.6302383
          -2.4360124,50.6302886
          -2.4359350,50.6303360
          -2.4358647,50.6303823
          -2.4357905,50.6304269
          -2.4357155,50.6304692
          -2.4356407,50.6305087
          -2.4355667,50.6305556
          -2.4354860,50.6306019
          -2.4354131,50.6306473
          -2.4353376,50.6306854
          -2.4352512,50.6307175
          -2.4351762,50.6307630
          -2.4351098,50.6308126
          -2.4350394,50.6308553
          -2.4349703,50.6308936
          -2.4348982,50.6309369
          -2.4348239,50.6309822
          -2.4347526,50.6310295
          -2.4346738,50.6310699
          -2.4345983,50.6311093
          -2.4345472,50.6311515
          -2.4344659,50.6311805
          -2.4343908,50.6312177
          -2.4343211,50.6312592
          -2.4342551,50.6313022
          -2.4341957,50.6313511
          -2.4341207,50.6313953
          -2.4340462,50.6314369
          -2.4339691,50.6314794
          -2.4338950,50.6315213
          -2.4338238,50.6315627
          -2.4337537,50.6316066
          -2.4336775,50.6316503
          -2.4336141,50.6316916
          -2.4335477,50.6317323
          -2.4334839,50.6317761
          -2.4334159,50.6318188
          -2.4333403,50.6318592
          -2.4332721,50.6318964
          -2.4332074,50.6319364
          -2.4331409,50.6319768
          -2.4330740,50.6320198
          -2.4330039,50.6320598
          -2.4329366,50.6320954
          -2.4328690,50.6321303
          -2.4327910,50.6321712
          -2.4327153,50.6322140
          -2.4326432,50.6322575
          -2.4325721,50.6323011
          -2.4325061,50.6323451
          -2.4324307,50.6323829
          -2.4323561,50.6324248
          -2.4322817,50.6324670
          -2.4322117,50.6325103
          -2.4321380,50.6325525
          -2.4320634,50.6325957
          -2.4319978,50.6326331
          -2.4319377,50.6326626
          -2.4318629,50.6326987
          -2.4317926,50.6327404
          -2.4317174,50.6327528
          -2.4316572,50.6327902
          -2.4315972,50.6328421
          -2.4315278,50.6328887
          -2.4314596,50.6329328
          -2.4313850,50.6329745
          -2.4313033,50.6330178
          -2.4312279,50.6330651
          -2.4311753,50.6331176
          -2.4311425,50.6331717
          -2.4311417,50.6332285
          -2.4311280,50.6332682
          -2.4311315,50.6333103
          -2.4311696,50.6333775
          -2.4312088,50.6334436
          -2.4312393,50.6335150
          -2.4312642,50.6335797
          -2.4313074,50.6336147
          -2.4313975,50.6336101
          -2.4314628,50.6336477
          -2.4315011,50.6337102
          -2.4315278,50.6337812
          -2.4315459,50.6338537
          -2.4315656,50.6339190
          -2.4315731,50.6339845
          -2.4315739,50.6340488
          -2.4315850,50.6341136
          -2.4316130,50.6341844
          -2.4316504,50.6342481
          -2.4317148,50.6342734
          -2.4318069,50.6342708
          -2.4319062,50.6342579
          -2.4320085,50.6342430
          -2.4321183,50.6342321
          -2.4322111,50.6342094
          -2.4322970,50.6341813
          -2.4323854,50.6341540
          -2.4324831,50.6341543
          -2.4325749,50.6341918
          -2.4326394,50.6342532
          -2.4326912,50.6343203
          -2.4327401,50.6343788
          -2.4327825,50.6344354
          -2.4328186,50.6344932
          -2.4328526,50.6345492
          -2.4328980,50.6346000
          -2.4329497,50.6346455
          -2.4329985,50.6346947
        </coordinates>
      </LineString>
    </Placemark>
  </Document>
</kml>
