<?xml version="1.0" encoding="UTF-8"?>
<kml xmlns="http://www.opengis.net/kml/2.2" xmlns:xsi="http://www.w3.org/2001/XMLSchema-instance" xsi:schemaLocation="http://www.opengis.net/kml/2.2 http://schemas.opengis.net/kml/2.2.0/ogckml22.xsd">
  <Document>
    <name>GPS Wizard</name>
    <open>1</open>
    <Style id="wizard">
      <LineStyle>
        <color>a00000ff</color>
        <width>2</width>
      </LineStyle>
    </Style>
    <Placemark>
      <name>TBC</name>
      <styleUrl>#wizard</styleUrl>
      <LineString>
        <extrude>1</extrude>
        <tessellate>1</tessellate>
        <coordinates>
          -2.7212849,50.6968078
          -2.7212647,50.6967653
          -2.7212435,50.6967194
          -2.7212862,50.6966790
          -2.7213374,50.6966959
          -2.7213384,50.6967052
          -2.7213427,50.6966914
          -2.7213673,50.6966452
          -2.7213785,50.6965953
          -2.7213964,50.6965470
          -2.7213980,50.6964910
          -2.7213928,50.6964401
          -2.7213701,50.6963838
          -2.7213660,50.6963251
          -2.7213479,50.6962698
          -2.7212930,50.6962349
          -2.7212262,50.6962111
          -2.7211608,50.6961862
          -2.7210813,50.6961619
          -2.7209980,50.6961406
          -2.7209213,50.6961240
          -2.7208397,50.6961076
          -2.7207625,50.6960926
          -2.7206868,50.6960846
          -2.7206068,50.6960776
          -2.7205292,50.6960728
          -2.7204538,50.6960635
          -2.7203864,50.6960513
          -2.7203290,50.6960443
          -2.7202714,50.6960413
          -2.7202060,50.6960384
          -2.7201351,50.6960326
          -2.7200634,50.6960289
          -2.7199894,50.6960225
          -2.7199189,50.6960163
          -2.7198501,50.6960142
          -2.7197731,50.6960101
          -2.7196973,50.6960014
          -2.7196420,50.6959869
          -2.7195828,50.6959729
          -2.7195164,50.6959510
          -2.7194549,50.6959337
          -2.7193762,50.6959217
          -2.7193027,50.6959008
          -2.7192352,50.6958798
          -2.7191598,50.6958629
          -2.7190787,50.6958474
          -2.7190219,50.6958176
          -2.7189571,50.6958055
          -2.7188668,50.6957846
          -2.7187814,50.6957587
          -2.7186957,50.6957329
          -2.7186241,50.6956934
          -2.7185607,50.6956542
          -2.7185180,50.6956112
          -2.7184729,50.6955654
          -2.7184050,50.6955311
          -2.7183381,50.6954952
          -2.7182621,50.6954671
          -2.7181869,50.6954409
          -2.7181104,50.6954170
          -2.7180401,50.6953833
          -2.7179816,50.6953460
          -2.7179210,50.6953133
          -2.7178677,50.6952800
          -2.7178132,50.6952497
          -2.7177418,50.6952243
          -2.7176563,50.6952032
          -2.7175749,50.6951783
          -2.7174967,50.6951452
          -2.7174092,50.6951193
          -2.7173292,50.6950941
          -2.7172593,50.6950616
          -2.7171854,50.6950299
          -2.7171114,50.6949989
          -2.7170236,50.6949698
          -2.7169483,50.6949401
          -2.7168681,50.6949123
          -2.7167851,50.6948860
          -2.7167049,50.6948572
          -2.7166204,50.6948338
          -2.7165479,50.6948073
          -2.7165063,50.6947824
          -2.7164374,50.6947553
          -2.7163485,50.6947347
          -2.7162833,50.6946989
          -2.7162163,50.6946555
          -2.7161656,50.6946061
          -2.7161416,50.6945537
          -2.7161396,50.6945109
          -2.7161116,50.6944772
          -2.7160497,50.6944479
          -2.7159886,50.6944175
          -2.7159123,50.6943818
          -2.7158347,50.6943490
          -2.7157717,50.6943182
          -2.7157088,50.6942990
          -2.7156180,50.6942762
          -2.7155239,50.6942559
          -2.7154309,50.6942328
          -2.7153444,50.6942060
          -2.7152616,50.6941755
          -2.7151814,50.6941378
          -2.7151227,50.6940947
          -2.7150618,50.6940520
          -2.7149968,50.6940212
          -2.7149093,50.6939906
          -2.7148227,50.6939598
          -2.7147426,50.6939351
          -2.7146555,50.6939099
          -2.7145753,50.6938800
          -2.7144977,50.6938508
          -2.7144174,50.6938213
          -2.7143292,50.6937945
          -2.7142914,50.6937809
          -2.7142521,50.6937676
          -2.7141952,50.6937559
          -2.7141302,50.6937377
          -2.7140639,50.6937095
          -2.7139970,50.6936742
          -2.7139329,50.6936380
          -2.7138782,50.6936026
          -2.7138140,50.6935759
          -2.7137598,50.6935516
          -2.7136880,50.6935371
          -2.7136093,50.6935200
          -2.7135311,50.6935079
          -2.7134708,50.6934984
          -2.7134166,50.6934901
          -2.7133549,50.6934695
          -2.7132797,50.6934491
          -2.7132149,50.6934436
          -2.7131563,50.6934296
          -2.7130876,50.6934062
          -2.7130107,50.6933826
          -2.7129326,50.6933546
          -2.7128638,50.6933246
          -2.7128048,50.6932904
          -2.7127400,50.6932544
          -2.7126754,50.6932154
          -2.7126130,50.6931690
          -2.7125528,50.6931231
          -2.7124959,50.6930784
          -2.7124361,50.6930349
          -2.7123743,50.6929916
          -2.7123135,50.6929522
          -2.7122371,50.6929143
          -2.7121640,50.6928808
          -2.7120898,50.6928508
          -2.7120162,50.6928232
          -2.7119818,50.6928112
          -2.7119421,50.6927946
          -2.7118694,50.6927613
          -2.7117855,50.6927308
          -2.7117020,50.6927056
          -2.7116225,50.6926772
          -2.7115380,50.6926482
          -2.7114376,50.6926296
          -2.7113496,50.6926094
          -2.7112575,50.6925876
          -2.7111671,50.6925663
          -2.7110742,50.6925446
          -2.7109861,50.6925212
          -2.7109021,50.6924945
          -2.7108178,50.6924646
          -2.7107415,50.6924311
          -2.7106664,50.6923991
          -2.7105959,50.6923694
          -2.7105143,50.6923348
          -2.7104280,50.6923085
          -2.7103454,50.6922814
          -2.7102619,50.6922531
          -2.7101798,50.6922175
          -2.7101109,50.6921783
          -2.7100524,50.6921320
          -2.7100001,50.6920858
          -2.7099230,50.6920519
          -2.7098467,50.6920252
          -2.7097649,50.6920048
          -2.7096790,50.6919807
          -2.7095962,50.6919573
          -2.7095076,50.6919445
          -2.7094142,50.6919385
          -2.7093251,50.6919294
          -2.7092315,50.6919152
          -2.7091407,50.6919005
          -2.7090485,50.6918878
          -2.7089570,50.6918785
          -2.7088594,50.6918683
          -2.7087777,50.6918498
          -2.7086970,50.6918336
          -2.7086132,50.6918147
          -2.7085291,50.6917962
          -2.7084464,50.6917776
          -2.7083602,50.6917541
          -2.7082757,50.6917336
          -2.7081969,50.6917097
          -2.7081127,50.6916929
          -2.7080251,50.6916795
          -2.7079452,50.6916545
          -2.7078824,50.6916305
          -2.7078045,50.6916217
          -2.7077229,50.6916126
          -2.7076385,50.6916000
          -2.7075547,50.6915785
          -2.7074772,50.6915476
          -2.7073950,50.6915209
          -2.7073160,50.6914961
          -2.7072380,50.6914725
          -2.7071557,50.6914557
          -2.7070739,50.6914344
          -2.7069998,50.6914060
          -2.7069379,50.6913737
          -2.7068777,50.6913319
          -2.7068342,50.6912889
          -2.7067865,50.6912549
          -2.7067222,50.6912286
          -2.7066555,50.6912082
          -2.7065877,50.6911900
          -2.7065163,50.6911751
          -2.7064404,50.6911591
          -2.7063603,50.6911431
          -2.7062736,50.6911340
          -2.7061839,50.6911179
          -2.7061100,50.6910962
          -2.7060407,50.6910853
          -2.7059850,50.6910682
          -2.7059235,50.6910441
          -2.7058550,50.6910221
          -2.7057897,50.6910003
          -2.7057242,50.6909805
          -2.7056644,50.6909650
          -2.7056046,50.6909468
          -2.7055400,50.6909279
          -2.7054685,50.6909129
          -2.7053946,50.6909121
          -2.7053180,50.6909157
          -2.7052308,50.6909047
          -2.7051507,50.6908773
          -2.7050743,50.6908438
          -2.7049975,50.6908173
          -2.7049160,50.6907906
          -2.7048363,50.6907564
          -2.7047579,50.6907281
          -2.7046797,50.6906996
          -2.7045946,50.6906733
          -2.7045050,50.6906466
          -2.7044139,50.6906166
          -2.7043301,50.6905895
          -2.7042530,50.6905583
          -2.7041726,50.6905264
          -2.7040891,50.6904999
          -2.7040077,50.6904736
          -2.7039414,50.6904462
          -2.7038789,50.6904270
          -2.7038083,50.6903951
          -2.7037418,50.6903627
          -2.7036835,50.6903288
          -2.7036161,50.6902985
          -2.7035348,50.6902757
          -2.7034547,50.6902575
          -2.7033721,50.6902520
          -2.7032940,50.6902474
          -2.7032225,50.6902197
          -2.7031480,50.6901913
          -2.7030712,50.6901773
          -2.7030019,50.6901539
          -2.7029270,50.6901285
          -2.7028517,50.6901031
          -2.7027749,50.6900729
          -2.7026984,50.6900393
          -2.7026268,50.6900053
          -2.7025524,50.6899741
          -2.7024705,50.6899456
          -2.7023884,50.6899157
          -2.7023107,50.6898802
          -2.7022377,50.6898489
          -2.7021638,50.6898238
          -2.7020888,50.6897950
          -2.7020196,50.6897653
          -2.7019603,50.6897335
          -2.7019015,50.6897128
          -2.7018373,50.6897134
          -2.7017602,50.6897161
          -2.7016927,50.6896930
          -2.7016401,50.6896607
          -2.7016088,50.6896168
          -2.7015806,50.6895773
          -2.7015599,50.6895503
          -2.7015912,50.6895738
          -2.7016282,50.6896106
          -2.7016580,50.6896498
          -2.7017109,50.6896895
          -2.7017818,50.6897228
          -2.7018562,50.6897545
          -2.7019274,50.6897828
          -2.7020022,50.6898074
          -2.7020841,50.6898281
          -2.7021648,50.6898508
          -2.7022620,50.6898738
          -2.7023460,50.6899066
          -2.7024226,50.6899366
          -2.7025062,50.6899592
          -2.7025930,50.6899756
          -2.7026765,50.6899958
          -2.7027581,50.6900206
          -2.7028361,50.6900481
          -2.7029082,50.6900799
          -2.7029836,50.6901097
          -2.7030672,50.6901421
          -2.7031543,50.6901715
          -2.7032307,50.6902035
          -2.7033142,50.6902253
          -2.7034081,50.6902285
          -2.7034944,50.6902300
          -2.7035775,50.6902514
          -2.7036612,50.6902759
          -2.7037368,50.6903075
          -2.7038124,50.6903444
          -2.7038901,50.6903813
          -2.7039711,50.6904177
          -2.7040500,50.6904484
          -2.7041369,50.6904720
          -2.7042251,50.6904949
          -2.7043080,50.6905188
          -2.7043958,50.6905455
          -2.7044804,50.6905717
          -2.7045674,50.6905971
          -2.7046542,50.6906260
          -2.7047315,50.6906527
          -2.7048189,50.6906759
          -2.7049030,50.6907032
          -2.7049723,50.6907401
          -2.7050427,50.6907756
          -2.7051183,50.6908088
          -2.7051955,50.6908377
          -2.7052805,50.6908640
          -2.7053615,50.6908904
          -2.7054278,50.6909221
          -2.7055032,50.6909519
          -2.7055727,50.6909800
          -2.7056491,50.6910041
          -2.7057368,50.6910279
          -2.7058223,50.6910509
          -2.7059047,50.6910749
          -2.7059938,50.6910921
          -2.7060793,50.6911100
          -2.7061566,50.6911282
          -2.7062391,50.6911361
          -2.7063207,50.6911467
          -2.7064057,50.6911560
          -2.7064931,50.6911683
          -2.7065760,50.6911725
          -2.7066449,50.6911766
          -2.7067209,50.6911949
          -2.7067920,50.6912159
          -2.7068547,50.6912457
          -2.7069112,50.6912851
          -2.7069630,50.6913252
          -2.7070197,50.6913699
          -2.7070995,50.6914110
          -2.7071890,50.6914329
          -2.7072814,50.6914541
          -2.7073646,50.6914787
          -2.7074479,50.6915053
          -2.7075115,50.6915278
          -2.7075792,50.6915516
          -2.7076577,50.6915799
          -2.7077391,50.6916009
          -2.7078221,50.6916223
          -2.7078902,50.6916402
          -2.7079504,50.6916638
          -2.7080154,50.6916826
          -2.7080904,50.6916996
          -2.7081741,50.6917060
          -2.7082647,50.6917192
          -2.7083509,50.6917388
          -2.7084481,50.6917538
          -2.7085289,50.6917730
          -2.7086080,50.6917957
          -2.7086748,50.6918193
          -2.7087229,50.6918336
          -2.7088090,50.6918383
          -2.7089017,50.6918484
          -2.7089845,50.6918711
          -2.7090692,50.6918885
          -2.7091607,50.6919016
          -2.7092512,50.6919117
          -2.7093434,50.6919217
          -2.7094385,50.6919359
          -2.7095390,50.6919458
          -2.7096356,50.6919516
          -2.7097323,50.6919634
          -2.7098191,50.6919846
          -2.7098958,50.6920113
          -2.7099646,50.6920405
          -2.7100317,50.6920746
          -2.7100928,50.6921133
          -2.7101487,50.6921565
          -2.7102062,50.6921908
          -2.7102702,50.6922239
          -2.7103430,50.6922596
          -2.7104137,50.6922869
          -2.7104846,50.6923151
          -2.7105547,50.6923462
          -2.7106297,50.6923786
          -2.7107106,50.6924033
          -2.7107975,50.6924210
          -2.7108812,50.6924453
          -2.7109651,50.6924685
          -2.7110559,50.6924868
          -2.7111440,50.6925087
          -2.7112274,50.6925334
          -2.7113195,50.6925586
          -2.7114062,50.6925795
          -2.7114952,50.6925991
          -2.7115790,50.6926233
          -2.7116644,50.6926461
          -2.7117520,50.6926709
          -2.7118380,50.6926954
          -2.7119181,50.6927188
          -2.7119924,50.6927497
          -2.7120690,50.6927839
          -2.7121491,50.6928153
          -2.7122288,50.6928457
          -2.7123080,50.6928796
          -2.7123841,50.6929231
          -2.7124568,50.6929616
          -2.7125193,50.6930016
          -2.7125692,50.6930505
          -2.7126192,50.6930921
          -2.7126725,50.6931317
          -2.7127256,50.6931683
          -2.7127780,50.6932045
          -2.7128362,50.6932360
          -2.7129101,50.6932672
          -2.7129916,50.6932947
          -2.7130703,50.6933204
          -2.7131506,50.6933415
          -2.7132288,50.6933656
          -2.7133092,50.6933879
          -2.7133886,50.6934084
          -2.7134703,50.6934332
          -2.7135505,50.6934563
          -2.7136401,50.6934711
          -2.7137324,50.6934915
          -2.7138147,50.6935169
          -2.7138803,50.6935467
          -2.7139509,50.6935825
          -2.7140015,50.6936169
          -2.7140522,50.6936463
          -2.7141234,50.6936761
          -2.7141965,50.6936991
          -2.7142672,50.6937231
          -2.7143436,50.6937428
          -2.7144153,50.6937638
          -2.7144931,50.6937951
          -2.7145720,50.6938269
          -2.7146578,50.6938487
          -2.7147425,50.6938738
          -2.7148243,50.6938985
          -2.7149103,50.6939220
          -2.7149819,50.6939464
          -2.7150491,50.6939650
          -2.7151201,50.6939898
          -2.7151843,50.6940226
          -2.7152387,50.6940618
          -2.7152933,50.6941036
          -2.7153653,50.6941368
          -2.7154381,50.6941639
          -2.7155138,50.6941891
          -2.7156015,50.6942088
          -2.7156892,50.6942290
          -2.7157702,50.6942535
          -2.7158541,50.6942766
          -2.7159297,50.6943069
          -2.7160040,50.6943369
          -2.7160761,50.6943711
          -2.7161442,50.6944017
          -2.7162012,50.6944426
          -2.7162152,50.6944999
          -2.7162260,50.6945599
          -2.7162613,50.6946078
          -2.7163080,50.6946441
          -2.7163742,50.6946753
          -2.7164561,50.6946946
          -2.7165360,50.6947176
          -2.7166073,50.6947539
          -2.7166847,50.6947806
          -2.7167572,50.6948087
          -2.7168238,50.6948394
          -2.7168922,50.6948726
          -2.7169654,50.6949054
          -2.7170483,50.6949340
          -2.7171357,50.6949545
          -2.7172191,50.6949834
          -2.7172900,50.6950171
          -2.7173643,50.6950452
          -2.7174459,50.6950670
          -2.7175252,50.6950932
          -2.7175896,50.6950949
          -2.7176466,50.6950856
          -2.7177267,50.6950965
          -2.7178052,50.6951310
          -2.7178681,50.6951681
          -2.7179211,50.6952073
          -2.7179834,50.6952355
          -2.7180461,50.6952454
          -2.7181274,50.6952359
          -2.7182069,50.6952449
          -2.7182889,50.6952621
          -2.7183582,50.6952857
          -2.7184095,50.6953149
          -2.7184089,50.6953538
          -2.7183825,50.6954019
          -2.7183967,50.6954517
          -2.7184504,50.6954953
          -2.7185064,50.6955444
          -2.7185512,50.6955913
          -2.7186021,50.6956364
          -2.7186630,50.6956762
          -2.7187373,50.6957122
          -2.7188213,50.6957415
          -2.7189104,50.6957645
          -2.7189984,50.6957876
          -2.7190790,50.6958043
          -2.7191241,50.6958213
          -2.7191973,50.6958346
          -2.7192745,50.6958537
          -2.7193528,50.6958728
          -2.7194375,50.6958881
          -2.7195115,50.6958990
          -2.7195774,50.6959178
          -2.7196400,50.6959340
          -2.7197134,50.6959484
          -2.7197921,50.6959529
          -2.7198630,50.6959596
          -2.7199355,50.6959694
          -2.7200139,50.6959773
          -2.7200873,50.6959867
          -2.7201632,50.6959938
          -2.7202351,50.6960036
          -2.7203066,50.6960147
          -2.7203883,50.6960196
          -2.7204707,50.6960199
          -2.7205455,50.6960268
          -2.7206339,50.6960420
          -2.7207144,50.6960498
          -2.7207923,50.6960597
          -2.7208840,50.6960708
          -2.7209663,50.6960852
          -2.7210428,50.6960999
          -2.7211233,50.6961259
          -2.7212032,50.6961530
          -2.7212823,50.6961867
          -2.7213446,50.6962233
          -2.7214145,50.6962528
          -2.7214969,50.6962823
          -2.7215724,50.6963180
          -2.7216535,50.6963512
          -2.7217296,50.6963840
          -2.7218007,50.6964172
          -2.7218684,50.6964545
          -2.7219386,50.6964931
          -2.7220051,50.6965346
          -2.7220576,50.6965841
          -2.7220575,50.6966403
          -2.7220470,50.6967016
          -2.7220439,50.6967605
          -2.7220395,50.6968266
          -2.7219941,50.6968875
          -2.7219369,50.6969394
          -2.7219047,50.6969841
          -2.7219478,50.6970267
          -2.7220082,50.6970406
          -2.7220741,50.6969858
          -2.7221316,50.6968775
          -2.7221897,50.6967974
          -2.7222365,50.6967792
          -2.7219389,50.6969529
          -2.7218749,50.6969340
          -2.7218659,50.6968845
          -2.7218797,50.6968604
          -2.7218481,50.6969065
          -2.7217944,50.6969604
          -2.7217684,50.6970000
          -2.7217719,50.6970539
          -2.7218236,50.6970865
          -2.7219068,50.6971056
          -2.7219882,50.6971209
          -2.7220705,50.6971338
          -2.7221488,50.6971471
          -2.7221884,50.6971787
          -2.7222119,50.6972170
          -2.7222759,50.6972346
          -2.7223610,50.6972399
          -2.7224257,50.6972704
          -2.7224826,50.6973137
          -2.7225181,50.6973631
          -2.7225556,50.6974131
          -2.7225905,50.6974661
          -2.7226146,50.6975235
          -2.7226277,50.6975841
          -2.7226449,50.6976441
          -2.7226744,50.6977015
          -2.7227100,50.6977563
          -2.7227483,50.6978045
          -2.7227809,50.6978609
          -2.7228210,50.6979147
          -2.7228709,50.6979616
          -2.7229315,50.6980064
          -2.7229944,50.6980275
          -2.7230638,50.6980322
          -2.7231068,50.6980430
          -2.7231469,50.6980608
          -2.7231860,50.6980883
          -2.7232475,50.6981225
          -2.7233168,50.6981529
          -2.7233908,50.6981873
          -2.7234731,50.6982201
          -2.7235488,50.6982569
          -2.7236286,50.6982936
          -2.7237000,50.6983332
          -2.7237688,50.6983658
          -2.7238475,50.6983960
          -2.7239337,50.6984244
          -2.7240109,50.6984525
          -2.7240905,50.6984833
          -2.7241664,50.6985151
          -2.7242394,50.6985469
          -2.7243201,50.6985782
          -2.7243603,50.6985748
          -2.7244204,50.6985519
          -2.7245126,50.6985201
          -2.7246119,50.6984937
          -2.7247022,50.6984726
          -2.7247820,50.6984528
          -2.7248644,50.6984340
          -2.7249576,50.6984148
          -2.7250475,50.6984007
          -2.7251324,50.6983841
          -2.7252213,50.6983648
          -2.7253105,50.6983479
          -2.7254015,50.6983317
          -2.7254928,50.6983145
          -2.7255865,50.6982976
          -2.7256767,50.6982846
          -2.7257440,50.6982840
          -2.7257851,50.6982802
          -2.7258678,50.6982689
          -2.7259660,50.6982555
          -2.7260558,50.6982375
          -2.7261471,50.6982239
          -2.7262471,50.6982068
          -2.7263418,50.6981901
          -2.7264379,50.6981746
          -2.7265301,50.6981598
          -2.7266197,50.6981478
          -2.7267144,50.6981321
          -2.7268092,50.6981220
          -2.7269048,50.6981106
          -2.7269934,50.6981015
          -2.7270842,50.6981022
          -2.7271678,50.6980971
          -2.7272786,50.6980917
          -2.7273775,50.6980893
          -2.7274510,50.6980907
          -2.7274736,50.6980932
          -2.7275256,50.6980975
          -2.7276188,50.6981099
          -2.7277120,50.6981383
          -2.7277961,50.6981595
          -2.7278798,50.6981709
          -2.7279658,50.6981869
          -2.7280543,50.6982077
          -2.7281480,50.6982246
          -2.7282411,50.6982331
          -2.7283263,50.6982523
          -2.7284146,50.6982702
          -2.7285035,50.6982869
          -2.7285956,50.6983038
          -2.7286852,50.6983266
          -2.7287753,50.6983406
          -2.7288591,50.6983562
          -2.7289417,50.6983848
          -2.7290257,50.6984185
          -2.7291159,50.6984487
          -2.7292072,50.6984724
          -2.7292919,50.6985020
          -2.7293739,50.6985368
          -2.7294555,50.6985682
          -2.7295385,50.6986002
          -2.7296247,50.6986286
          -2.7297065,50.6986615
          -2.7297759,50.6987026
          -2.7298455,50.6987440
          -2.7299249,50.6987749
          -2.7300178,50.6987969
          -2.7301022,50.6988177
          -2.7301867,50.6988441
          -2.7302735,50.6988710
          -2.7303577,50.6989018
          -2.7304410,50.6989322
          -2.7305294,50.6989630
          -2.7306140,50.6989992
          -2.7306942,50.6990403
          -2.7307795,50.6990747
          -2.7308616,50.6991039
          -2.7309533,50.6991363
          -2.7310347,50.6991756
          -2.7311221,50.6992059
          -2.7312108,50.6992404
          -2.7312965,50.6992696
          -2.7313738,50.6992922
          -2.7314441,50.6993189
          -2.7315200,50.6993507
          -2.7316091,50.6993871
          -2.7316837,50.6994194
          -2.7317625,50.6994550
          -2.7318410,50.6994916
          -2.7319172,50.6995280
          -2.7320015,50.6995669
          -2.7320918,50.6996012
          -2.7321731,50.6996364
          -2.7322554,50.6996710
          -2.7323389,50.6997044
          -2.7324239,50.6997356
          -2.7325036,50.6997684
          -2.7325874,50.6998012
          -2.7326688,50.6998293
          -2.7327521,50.6998588
          -2.7328341,50.6998918
          -2.7329179,50.6999216
          -2.7330014,50.6999545
          -2.7330888,50.6999891
          -2.7331704,50.7000225
          -2.7332504,50.7000541
          -2.7333355,50.7000872
          -2.7334209,50.7001276
          -2.7334982,50.7001640
          -2.7335859,50.7001937
          -2.7336651,50.7002228
          -2.7337354,50.7002567
          -2.7338215,50.7002891
          -2.7339034,50.7003212
          -2.7339834,50.7003541
          -2.7340642,50.7003852
          -2.7341414,50.7004175
          -2.7342151,50.7004489
          -2.7342581,50.7004654
          -2.7343424,50.7004899
          -2.7344301,50.7005280
          -2.7345088,50.7005644
          -2.7345913,50.7005976
          -2.7346726,50.7006290
          -2.7347482,50.7006642
          -2.7348238,50.7006941
          -2.7348892,50.7007217
          -2.7349464,50.7007548
          -2.7349977,50.7007936
          -2.7350539,50.7008353
          -2.7351168,50.7008754
          -2.7351764,50.7009157
          -2.7352381,50.7009592
          -2.7352976,50.7010004
          -2.7353655,50.7010393
          -2.7354324,50.7010814
          -2.7354924,50.7011215
          -2.7355377,50.7011569
          -2.7355944,50.7011897
          -2.7356566,50.7012295
          -2.7357138,50.7012665
          -2.7357776,50.7013012
          -2.7358384,50.7013440
          -2.7358936,50.7013873
          -2.7359586,50.7014299
          -2.7360213,50.7014701
          -2.7360867,50.7015114
          -2.7361484,50.7015500
          -2.7362103,50.7015945
          -2.7362808,50.7016355
          -2.7363453,50.7016757
          -2.7363898,50.7017069
          -2.7364321,50.7017192
          -2.7365059,50.7017103
          -2.7365688,50.7017174
          -2.7366098,50.7017432
          -2.7366603,50.7017721
          -2.7367151,50.7018009
          -2.7367750,50.7018298
          -2.7368434,50.7018571
          -2.7368954,50.7018874
          -2.7368635,50.7018791
          -2.7368159,50.7018480
          -2.7367646,50.7018123
          -2.7367081,50.7017800
          -2.7366514,50.7017377
          -2.7365834,50.7016993
          -2.7365151,50.7016622
          -2.7364556,50.7016230
          -2.7364011,50.7015836
          -2.7363409,50.7015434
          -2.7362804,50.7014986
          -2.7362212,50.7014574
          -2.7361622,50.7014162
          -2.7360951,50.7013788
          -2.7360348,50.7013414
          -2.7359698,50.7012939
          -2.7359043,50.7012501
          -2.7358369,50.7012078
          -2.7357705,50.7011667
          -2.7357039,50.7011275
          -2.7356434,50.7010873
          -2.7355868,50.7010472
          -2.7355248,50.7010139
          -2.7354528,50.7009762
          -2.7353832,50.7009359
          -2.7353133,50.7008891
          -2.7352437,50.7008668
          -2.7351510,50.7008440
          -2.7350676,50.7008125
          -2.7349858,50.7007776
          -2.7349127,50.7007493
          -2.7348419,50.7007167
          -2.7347745,50.7006839
          -2.7346892,50.7006508
          -2.7346154,50.7006219
          -2.7345332,50.7005923
          -2.7344504,50.7005607
          -2.7343659,50.7005257
          -2.7342878,50.7004965
          -2.7342026,50.7004612
          -2.7341230,50.7004253
          -2.7340385,50.7003870
          -2.7339606,50.7003515
          -2.7338774,50.7003155
          -2.7337966,50.7002843
          -2.7337050,50.7002512
          -2.7336446,50.7002364
          -2.7335970,50.7002250
          -2.7335170,50.7001960
          -2.7334339,50.7001645
          -2.7333566,50.7001321
          -2.7332794,50.7000991
          -2.7331976,50.7000675
          -2.7331231,50.7000350
          -2.7330515,50.7000033
          -2.7329759,50.6999765
          -2.7328985,50.6999456
          -2.7328272,50.6999169
          -2.7327524,50.6998827
          -2.7326723,50.6998539
          -2.7325856,50.6998289
          -2.7325040,50.6997979
          -2.7324232,50.6997602
          -2.7323416,50.6997239
          -2.7322678,50.6996908
          -2.7322009,50.6996612
          -2.7321317,50.6996260
          -2.7320793,50.6996017
          -2.7320196,50.6995764
          -2.7319494,50.6995444
          -2.7318803,50.6995124
          -2.7318010,50.6994830
          -2.7317178,50.6994509
          -2.7316373,50.6994160
          -2.7315586,50.6993804
          -2.7314868,50.6993516
          -2.7314090,50.6993238
          -2.7313307,50.6992920
          -2.7312514,50.6992552
          -2.7311636,50.6992199
          -2.7310811,50.6991895
          -2.7310049,50.6991634
          -2.7309372,50.6991384
          -2.7308666,50.6991128
          -2.7307961,50.6990847
          -2.7307189,50.6990568
          -2.7306457,50.6990273
          -2.7305754,50.6989969
          -2.7304977,50.6989685
          -2.7304216,50.6989393
          -2.7303506,50.6989103
          -2.7302767,50.6988839
          -2.7302042,50.6988576
          -2.7301315,50.6988351
          -2.7300549,50.6988118
          -2.7299747,50.6987915
          -2.7299010,50.6987728
          -2.7298287,50.6987484
          -2.7297502,50.6987206
          -2.7296762,50.6986953
          -2.7295990,50.6986695
          -2.7295192,50.6986467
          -2.7294390,50.6986259
          -2.7293578,50.6986032
          -2.7292765,50.6985835
          -2.7291934,50.6985576
          -2.7291091,50.6985294
          -2.7290307,50.6985067
          -2.7289544,50.6984840
          -2.7288748,50.6984598
          -2.7287926,50.6984378
          -2.7287153,50.6984169
          -2.7286260,50.6983972
          -2.7285419,50.6983753
          -2.7284521,50.6983582
          -2.7283538,50.6983459
          -2.7282647,50.6983310
          -2.7281724,50.6983173
          -2.7280799,50.6983033
          -2.7279883,50.6982910
          -2.7278950,50.6982722
          -2.7278057,50.6982550
          -2.7277220,50.6982401
          -2.7276389,50.6982176
          -2.7275768,50.6981769
          -2.7275218,50.6981344
          -2.7274591,50.6981108
          -2.7273948,50.6981084
          -2.7273008,50.6981117
          -2.7272298,50.6981144
          -2.7271640,50.6981192
          -2.7270926,50.6981206
          -2.7270287,50.6981101
          -2.7269504,50.6981089
          -2.7268608,50.6981285
          -2.7267678,50.6981505
          -2.7266717,50.6981639
          -2.7265781,50.6981797
          -2.7264860,50.6981935
          -2.7263905,50.6982067
          -2.7262958,50.6982225
          -2.7261991,50.6982368
          -2.7261058,50.6982515
          -2.7260118,50.6982658
          -2.7259170,50.6982799
          -2.7258258,50.6982950
          -2.7257339,50.6983104
          -2.7256364,50.6983261
          -2.7255404,50.6983437
          -2.7254417,50.6983577
          -2.7253495,50.6983727
          -2.7252591,50.6983918
          -2.7251690,50.6984113
          -2.7250770,50.6984287
          -2.7249861,50.6984468
          -2.7248994,50.6984658
          -2.7248112,50.6984918
          -2.7247206,50.6985127
          -2.7246307,50.6985313
          -2.7245446,50.6985543
          -2.7244557,50.6985753
          -2.7243754,50.6985976
          -2.7243055,50.6986110
          -2.7242376,50.6986072
          -2.7241559,50.6985787
          -2.7240724,50.6985442
          -2.7239902,50.6985043
          -2.7239086,50.6984673
          -2.7238199,50.6984323
          -2.7237352,50.6983953
          -2.7236500,50.6983504
          -2.7235683,50.6983102
          -2.7235036,50.6982743
          -2.7234279,50.6982375
          -2.7233511,50.6982007
          -2.7232700,50.6981710
          -2.7231879,50.6981398
          -2.7231202,50.6980928
          -2.7230780,50.6980529
          -2.7230171,50.6980310
          -2.7229653,50.6980358
          -2.7229047,50.6980291
          -2.7228433,50.6979925
          -2.7227877,50.6979433
          -2.7227395,50.6978936
          -2.7226896,50.6978415
          -2.7226390,50.6977901
          -2.7225996,50.6977337
          -2.7225592,50.6976772
          -2.7225183,50.6976196
          -2.7224652,50.6975620
          -2.7224003,50.6975099
          -2.7223345,50.6974613
          -2.7222572,50.6974230
          -2.7221786,50.6973915
          -2.7220940,50.6973693
          -2.7220077,50.6973509
          -2.7219207,50.6973326
          -2.7218359,50.6973132
          -2.7217465,50.6973091
          -2.7216584,50.6973104
          -2.7215807,50.6972890
          -2.7215352,50.6972429
          -2.7215305,50.6971892
          -2.7214981,50.6971424
          -2.7214258,50.6971064
          -2.7213607,50.6970722
          -2.7213370,50.6970254
          -2.7213737,50.6969820
          -2.7214201,50.6969526
          -2.7214968,50.6969508
          -2.7215703,50.6969750
        </coordinates>
      </LineString>
    </Placemark>
  </Document>
</kml>
