<?xml version="1.0" encoding="UTF-8"?>
<kml xmlns="http://www.opengis.net/kml/2.2" xmlns:xsi="http://www.w3.org/2001/XMLSchema-instance" xsi:schemaLocation="http://www.opengis.net/kml/2.2 http://schemas.opengis.net/kml/2.2.0/ogckml22.xsd">
  <Document>
    <name>GPS Wizard</name>
    <open>1</open>
    <Style id="wizard">
      <LineStyle>
        <color>a00000ff</color>
        <width>2</width>
      </LineStyle>
    </Style>
    <Placemark>
      <name>TBC</name>
      <styleUrl>#wizard</styleUrl>
      <LineString>
        <extrude>1</extrude>
        <tessellate>1</tessellate>
        <coordinates>
          -3.0677374,50.7045462
          -3.0677892,50.7045207
          -3.0678287,50.7044986
          -3.0678561,50.7044764
          -3.0677747,50.7044557
          -3.0677263,50.7044171
          -3.0676909,50.7043725
          -3.0676225,50.7043505
          -3.0675443,50.7043521
          -3.0674596,50.7043681
          -3.0673739,50.7043824
          -3.0672881,50.7043871
          -3.0672011,50.7043666
          -3.0671503,50.7043378
          -3.0671167,50.7043048
          -3.0671410,50.7042516
          -3.0671465,50.7041925
          -3.0671540,50.7041304
          -3.0671628,50.7040667
          -3.0671514,50.7040038
          -3.0671399,50.7039578
          -3.0671391,50.7039089
          -3.0671369,50.7038451
          -3.0671369,50.7037773
          -3.0671120,50.7037217
          -3.0670568,50.7036810
          -3.0670141,50.7036238
          -3.0669786,50.7035879
          -3.0669191,50.7035758
          -3.0668533,50.7035668
          -3.0668583,50.7035158
          -3.0668631,50.7035174
          -3.0668188,50.7035358
          -3.0667796,50.7035511
          -3.0667511,50.7035549
          -3.0666773,50.7035518
          -3.0665873,50.7035521
          -3.0664957,50.7035454
          -3.0664023,50.7035363
          -3.0663083,50.7035318
          -3.0662124,50.7035344
          -3.0661149,50.7035444
          -3.0660154,50.7035446
          -3.0659214,50.7035432
          -3.0658338,50.7035385
          -3.0657415,50.7035330
          -3.0656432,50.7035295
          -3.0655496,50.7035289
          -3.0654561,50.7035284
          -3.0653674,50.7035283
          -3.0652696,50.7035287
          -3.0651806,50.7035240
          -3.0650847,50.7035224
          -3.0649944,50.7035223
          -3.0649079,50.7035207
          -3.0648198,50.7035205
          -3.0647276,50.7035215
          -3.0646356,50.7035192
          -3.0645402,50.7035187
          -3.0644490,50.7035144
          -3.0643585,50.7035124
          -3.0642661,50.7035110
          -3.0641682,50.7035155
          -3.0640704,50.7035163
          -3.0639718,50.7035123
          -3.0638735,50.7034962
          -3.0637791,50.7034712
          -3.0636864,50.7034677
          -3.0636035,50.7034855
          -3.0635062,50.7034899
          -3.0634053,50.7034860
          -3.0633103,50.7034803
          -3.0632152,50.7034798
          -3.0631209,50.7034786
          -3.0630250,50.7034758
          -3.0629251,50.7034748
          -3.0628250,50.7034714
          -3.0627306,50.7034692
          -3.0626426,50.7034662
          -3.0625524,50.7034520
          -3.0624568,50.7034461
          -3.0623585,50.7034463
          -3.0622568,50.7034438
          -3.0621598,50.7034388
          -3.0620606,50.7034376
          -3.0619620,50.7034390
          -3.0618632,50.7034364
          -3.0617637,50.7034334
          -3.0616636,50.7034257
          -3.0615646,50.7034224
          -3.0614663,50.7034188
          -3.0613679,50.7034144
          -3.0612737,50.7034100
          -3.0611766,50.7034028
          -3.0610782,50.7033974
          -3.0609977,50.7034012
          -3.0609278,50.7034025
          -3.0609095,50.7034003
          -3.0609358,50.7034015
          -3.0609998,50.7034235
          -3.0610088,50.7034771
          -3.0609933,50.7035258
          -3.0609200,50.7035490
          -3.0608980,50.7036012
          -3.0609164,50.7036611
          -3.0609385,50.7037159
          -3.0609586,50.7037701
          -3.0609670,50.7038315
          -3.0609742,50.7038941
          -3.0609808,50.7039514
          -3.0609909,50.7040142
          -3.0610063,50.7040725
          -3.0610233,50.7041311
          -3.0610306,50.7041909
          -3.0610374,50.7042464
          -3.0610425,50.7042953
          -3.0610290,50.7043464
          -3.0609836,50.7043967
          -3.0608923,50.7044377
          -3.0607929,50.7044537
          -3.0607032,50.7044640
          -3.0606111,50.7044744
          -3.0605137,50.7044847
          -3.0604163,50.7044941
          -3.0603215,50.7044990
          -3.0602313,50.7045082
          -3.0601412,50.7045186
          -3.0600810,50.7045296
          -3.0600083,50.7045473
          -3.0599500,50.7045611
          -3.0598959,50.7045702
          -3.0598236,50.7045978
          -3.0597407,50.7046122
          -3.0596580,50.7046129
          -3.0595636,50.7046246
          -3.0594673,50.7046463
          -3.0593701,50.7046612
          -3.0592813,50.7046666
          -3.0591997,50.7046745
          -3.0591258,50.7046888
          -3.0590463,50.7047078
          -3.0589639,50.7047289
          -3.0588824,50.7047446
          -3.0588095,50.7047720
          -3.0587658,50.7048142
          -3.0587524,50.7048536
          -3.0587488,50.7049055
          -3.0587447,50.7049613
          -3.0587405,50.7050112
          -3.0587565,50.7050652
          -3.0587767,50.7051250
          -3.0587463,50.7051900
          -3.0586980,50.7052508
          -3.0586558,50.7053098
          -3.0586166,50.7053710
          -3.0585769,50.7054315
          -3.0585425,50.7054923
          -3.0585089,50.7055473
          -3.0584881,50.7055888
          -3.0585537,50.7056128
          -3.0585643,50.7056588
          -3.0585340,50.7057148
          -3.0585094,50.7057688
          -3.0584894,50.7058191
          -3.0584737,50.7058704
          -3.0584365,50.7059162
          -3.0584084,50.7059617
          -3.0584121,50.7059959
          -3.0584064,50.7059828
          -3.0584094,50.7059307
          -3.0584247,50.7058681
          -3.0583971,50.7058242
          -3.0583288,50.7057918
          -3.0582688,50.7057773
          -3.0582071,50.7057766
          -3.0581453,50.7057690
          -3.0580808,50.7057633
          -3.0580111,50.7057601
          -3.0579439,50.7057614
          -3.0578850,50.7057622
          -3.0578227,50.7057575
          -3.0577619,50.7057493
          -3.0576979,50.7057461
          -3.0576484,50.7057424
          -3.0575799,50.7057362
          -3.0575139,50.7057332
          -3.0574542,50.7057295
          -3.0573923,50.7057243
          -3.0573377,50.7057147
          -3.0572848,50.7057009
          -3.0572321,50.7056957
          -3.0571750,50.7056875
          -3.0571206,50.7056811
          -3.0570655,50.7056740
          -3.0570151,50.7056692
          -3.0569557,50.7056603
          -3.0569002,50.7056522
          -3.0568440,50.7056481
          -3.0567872,50.7056416
          -3.0567297,50.7056333
          -3.0566678,50.7056253
          -3.0565949,50.7056166
          -3.0565446,50.7056075
          -3.0564980,50.7056033
          -3.0564478,50.7056087
          -3.0563846,50.7056180
          -3.0563027,50.7056239
          -3.0562126,50.7056204
          -3.0561386,50.7056144
          -3.0560650,50.7056155
          -3.0559846,50.7056141
          -3.0559113,50.7056113
          -3.0558345,50.7056227
          -3.0557634,50.7056293
          -3.0556837,50.7056357
          -3.0556028,50.7056494
          -3.0555252,50.7056671
          -3.0554591,50.7056803
          -3.0553801,50.7056953
          -3.0552806,50.7057138
          -3.0551889,50.7057245
          -3.0551108,50.7057280
          -3.0550320,50.7057300
          -3.0549518,50.7057352
          -3.0548676,50.7057449
          -3.0547850,50.7057579
          -3.0547069,50.7057668
          -3.0546383,50.7057716
          -3.0545645,50.7057881
          -3.0544852,50.7058029
          -3.0544167,50.7058128
          -3.0543501,50.7058186
          -3.0542860,50.7058214
          -3.0542200,50.7058364
          -3.0541582,50.7058544
          -3.0540773,50.7058790
          -3.0539924,50.7059030
          -3.0539004,50.7059139
          -3.0538115,50.7059260
          -3.0537381,50.7059402
          -3.0536653,50.7059566
          -3.0535936,50.7059709
          -3.0535144,50.7059796
          -3.0534480,50.7059881
          -3.0533947,50.7060017
          -3.0533420,50.7060125
          -3.0532951,50.7060094
          -3.0532470,50.7060126
          -3.0531951,50.7060333
          -3.0531333,50.7060562
          -3.0530713,50.7060733
          -3.0530076,50.7060783
          -3.0529405,50.7060711
          -3.0528895,50.7060741
          -3.0528289,50.7060902
          -3.0527606,50.7061083
          -3.0526885,50.7061128
          -3.0526108,50.7061221
          -3.0525353,50.7061351
          -3.0524638,50.7061483
          -3.0523920,50.7061641
          -3.0523296,50.7061775
          -3.0522810,50.7061921
          -3.0522156,50.7062145
          -3.0521410,50.7062356
          -3.0520701,50.7062549
          -3.0519973,50.7062732
          -3.0519293,50.7062881
          -3.0518636,50.7063162
          -3.0517996,50.7063454
          -3.0517282,50.7063665
          -3.0516598,50.7063898
          -3.0515927,50.7064106
          -3.0515225,50.7064290
          -3.0514479,50.7064527
          -3.0513724,50.7064818
          -3.0513000,50.7065060
          -3.0512236,50.7065270
          -3.0511496,50.7065499
          -3.0510755,50.7065725
          -3.0510014,50.7065995
          -3.0509273,50.7066203
          -3.0508555,50.7066348
          -3.0507744,50.7066492
          -3.0506950,50.7066526
          -3.0506135,50.7066580
          -3.0505326,50.7066825
          -3.0504564,50.7067013
          -3.0503818,50.7067244
          -3.0503038,50.7067460
          -3.0502243,50.7067672
          -3.0501415,50.7067842
          -3.0500576,50.7068028
          -3.0499728,50.7068194
          -3.0498918,50.7068412
          -3.0498255,50.7068639
          -3.0497657,50.7068815
          -3.0497146,50.7068944
          -3.0496474,50.7069071
          -3.0495699,50.7069253
          -3.0494883,50.7069460
          -3.0494044,50.7069619
          -3.0493215,50.7069799
          -3.0492366,50.7069990
          -3.0491495,50.7070109
          -3.0490616,50.7070188
          -3.0489807,50.7070313
          -3.0489248,50.7070427
          -3.0488625,50.7070545
          -3.0487859,50.7070668
          -3.0487138,50.7070781
          -3.0486420,50.7070863
          -3.0485685,50.7070967
          -3.0484943,50.7071103
          -3.0484151,50.7071214
          -3.0483320,50.7071376
          -3.0482504,50.7071456
          -3.0481735,50.7071507
          -3.0480961,50.7071534
          -3.0480110,50.7071532
          -3.0479299,50.7071483
          -3.0478508,50.7071463
          -3.0477768,50.7071485
          -3.0477028,50.7071424
          -3.0476173,50.7071352
          -3.0475256,50.7071295
          -3.0474386,50.7071254
          -3.0473484,50.7071225
          -3.0472593,50.7071176
          -3.0471714,50.7071150
          -3.0470828,50.7071093
          -3.0469920,50.7071020
          -3.0468978,50.7070968
          -3.0468072,50.7070959
          -3.0467144,50.7070947
          -3.0466190,50.7070903
          -3.0465299,50.7070879
          -3.0464398,50.7070906
          -3.0463486,50.7070914
          -3.0462517,50.7070955
          -3.0461576,50.7071037
          -3.0460673,50.7071061
          -3.0459741,50.7071108
          -3.0458803,50.7071174
          -3.0457836,50.7071248
          -3.0456846,50.7071306
          -3.0455835,50.7071359
          -3.0454815,50.7071387
          -3.0453754,50.7071420
          -3.0452696,50.7071445
          -3.0451701,50.7071470
          -3.0450677,50.7071484
          -3.0449696,50.7071516
          -3.0448749,50.7071539
          -3.0447833,50.7071571
          -3.0447210,50.7071191
          -3.0447047,50.7070712
          -3.0446839,50.7070238
          -3.0446631,50.7069776
          -3.0446409,50.7069347
          -3.0446091,50.7068876
          -3.0445756,50.7068479
          -3.0445392,50.7068028
          -3.0444994,50.7067461
          -3.0444612,50.7066864
          -3.0444231,50.7066283
          -3.0443985,50.7065749
          -3.0443775,50.7065313
          -3.0443439,50.7064813
          -3.0443157,50.7064270
          -3.0442941,50.7063796
          -3.0442673,50.7063275
          -3.0442384,50.7062630
          -3.0442113,50.7062066
          -3.0441617,50.7061509
          -3.0441217,50.7060965
          -3.0440935,50.7060393
          -3.0440655,50.7059830
          -3.0440430,50.7059320
          -3.0440157,50.7058921
          -3.0439890,50.7058398
          -3.0439565,50.7057790
          -3.0439352,50.7057217
          -3.0439096,50.7056574
          -3.0438896,50.7056024
          -3.0438570,50.7055524
          -3.0438219,50.7054969
          -3.0437945,50.7054404
          -3.0437554,50.7053809
          -3.0436928,50.7053304
          -3.0436245,50.7052806
          -3.0435669,50.7052304
          -3.0435278,50.7051712
          -3.0434961,50.7051158
          -3.0434746,50.7050610
          -3.0434539,50.7050074
          -3.0434319,50.7049533
          -3.0434033,50.7048986
          -3.0433700,50.7048387
          -3.0433540,50.7047734
          -3.0433360,50.7047124
          -3.0433172,50.7046543
          -3.0432982,50.7045951
          -3.0432789,50.7045340
          -3.0432605,50.7044722
          -3.0432396,50.7044117
          -3.0432160,50.7043507
          -3.0432007,50.7042910
          -3.0431867,50.7042322
          -3.0431753,50.7041691
          -3.0431554,50.7041076
          -3.0431313,50.7040498
          -3.0431117,50.7039890
          -3.0430867,50.7039298
          -3.0430577,50.7038706
          -3.0430339,50.7038135
          -3.0430121,50.7037562
          -3.0429826,50.7037019
          -3.0429463,50.7036455
          -3.0429204,50.7035943
          -3.0428868,50.7035477
          -3.0428275,50.7035201
          -3.0427547,50.7035236
          -3.0426778,50.7035130
          -3.0426003,50.7034727
          -3.0425189,50.7034306
          -3.0424418,50.7033940
          -3.0423662,50.7033562
          -3.0422911,50.7033177
          -3.0422177,50.7032771
          -3.0421430,50.7032395
          -3.0420706,50.7032029
          -3.0419984,50.7031667
          -3.0419233,50.7031317
          -3.0418447,50.7030927
          -3.0417674,50.7030550
          -3.0416911,50.7030175
          -3.0416179,50.7029799
          -3.0415406,50.7029426
          -3.0414660,50.7029079
          -3.0413904,50.7028710
          -3.0413232,50.7028366
          -3.0412587,50.7028012
          -3.0411904,50.7027657
          -3.0411167,50.7027332
          -3.0410414,50.7027034
          -3.0409670,50.7026744
          -3.0409095,50.7026486
          -3.0408285,50.7026217
          -3.0407487,50.7026064
          -3.0406739,50.7025876
          -3.0405963,50.7025722
          -3.0405067,50.7025640
          -3.0404267,50.7025634
          -3.0403630,50.7025634
          -3.0403103,50.7025634
          -3.0402482,50.7025526
          -3.0401861,50.7025479
          -3.0401258,50.7025291
          -3.0400631,50.7025164
          -3.0400030,50.7025080
          -3.0399657,50.7024688
          -3.0399084,50.7024344
          -3.0398323,50.7024043
          -3.0397693,50.7023733
          -3.0397274,50.7023322
          -3.0396663,50.7023070
          -3.0396005,50.7022977
          -3.0395314,50.7022935
          -3.0394692,50.7023036
          -3.0394100,50.7023067
          -3.0393444,50.7022963
          -3.0392675,50.7022739
          -3.0391862,50.7022614
          -3.0391275,50.7022424
          -3.0390717,50.7022168
          -3.0390229,50.7021905
          -3.0389789,50.7021667
          -3.0389237,50.7021458
          -3.0388744,50.7021177
          -3.0388293,50.7020941
          -3.0387703,50.7020691
          -3.0386916,50.7020440
          -3.0386090,50.7020195
          -3.0385420,50.7019894
          -3.0384832,50.7019563
          -3.0384040,50.7019391
          -3.0383236,50.7019244
          -3.0382363,50.7019132
          -3.0381609,50.7018929
          -3.0381086,50.7018774
          -3.0380656,50.7018724
          -3.0380166,50.7018623
          -3.0379584,50.7018501
          -3.0379001,50.7018323
          -3.0378568,50.7018100
          -3.0378084,50.7017957
          -3.0377487,50.7017942
          -3.0376719,50.7017843
          -3.0376080,50.7017683
          -3.0375529,50.7017560
          -3.0374942,50.7017491
          -3.0374203,50.7017426
          -3.0373529,50.7017493
          -3.0372834,50.7017541
          -3.0372337,50.7017530
          -3.0372070,50.7017517
          -3.0371637,50.7017506
          -3.0370791,50.7017471
          -3.0369981,50.7017412
          -3.0369184,50.7017360
          -3.0368327,50.7017358
          -3.0367540,50.7017361
          -3.0366770,50.7017412
          -3.0366162,50.7017463
          -3.0365738,50.7017614
          -3.0364909,50.7017560
          -3.0364168,50.7017402
          -3.0363407,50.7017196
          -3.0362677,50.7017050
          -3.0362051,50.7016957
          -3.0361358,50.7017033
          -3.0360563,50.7017025
          -3.0359876,50.7016977
          -3.0359165,50.7016783
          -3.0358444,50.7016600
          -3.0357683,50.7016693
          -3.0356938,50.7016733
          -3.0356227,50.7016586
          -3.0355554,50.7016550
          -3.0354794,50.7016603
          -3.0354066,50.7016583
          -3.0353410,50.7016579
          -3.0352678,50.7016465
          -3.0351965,50.7016450
          -3.0351352,50.7016481
          -3.0350529,50.7016422
          -3.0349701,50.7016300
          -3.0348947,50.7016288
          -3.0348193,50.7016282
          -3.0347353,50.7016220
          -3.0346532,50.7016063
          -3.0345915,50.7015922
          -3.0345364,50.7015997
          -3.0344693,50.7016113
          -3.0344066,50.7016265
          -3.0343428,50.7016341
          -3.0342605,50.7016299
          -3.0341728,50.7016190
          -3.0340935,50.7016094
          -3.0340164,50.7015988
          -3.0339464,50.7015892
          -3.0338573,50.7015797
          -3.0337692,50.7015701
          -3.0336796,50.7015673
          -3.0335923,50.7015646
          -3.0335047,50.7015598
          -3.0334142,50.7015562
          -3.0333295,50.7015509
          -3.0332541,50.7015605
          -3.0331725,50.7015834
          -3.0330875,50.7016017
          -3.0330034,50.7016190
          -3.0329235,50.7016372
          -3.0328442,50.7016526
          -3.0327665,50.7016779
          -3.0327152,50.7017181
          -3.0326690,50.7017406
          -3.0325659,50.7017493
          -3.0325017,50.7017118
          -3.0324381,50.7016505
          -3.0323670,50.7016108
          -3.0322789,50.7016006
          -3.0321779,50.7015983
          -3.0320848,50.7016010
          -3.0319925,50.7016016
          -3.0318995,50.7015979
          -3.0318096,50.7015897
          -3.0317174,50.7015735
          -3.0316234,50.7015568
          -3.0315279,50.7015431
          -3.0314421,50.7015353
          -3.0313504,50.7015281
          -3.0312571,50.7015164
          -3.0311611,50.7015018
          -3.0310635,50.7014848
          -3.0309697,50.7014709
          -3.0308758,50.7014582
          -3.0307793,50.7014426
          -3.0306827,50.7014317
          -3.0305876,50.7014184
          -3.0304915,50.7014038
          -3.0303913,50.7013922
          -3.0302926,50.7013825
          -3.0302003,50.7013839
          -3.0301116,50.7013926
          -3.0300216,50.7014010
          -3.0299438,50.7014179
          -3.0298781,50.7014538
          -3.0298213,50.7014887
          -3.0297593,50.7015262
          -3.0296926,50.7015605
          -3.0296289,50.7015956
          -3.0295680,50.7016330
          -3.0295135,50.7016736
          -3.0294812,50.7017221
          -3.0294281,50.7017387
          -3.0294646,50.7017532
          -3.0295076,50.7017968
          -3.0295009,50.7018315
          -3.0294566,50.7018811
          -3.0293943,50.7018928
          -3.0293551,50.7018959
          -3.0293155,50.7018999
          -3.0292729,50.7019030
          -3.0292338,50.7018944
          -3.0291869,50.7018848
          -3.0291225,50.7018952
          -3.0290434,50.7019070
          -3.0290093,50.7019090
          -3.0289779,50.7018887
          -3.0289116,50.7018905
          -3.0288395,50.7019013
          -3.0286767,50.7018743
          -3.0286037,50.7018438
          -3.0285840,50.7018128
          -3.0285820,50.7017760
          -3.0285861,50.7017304
          -3.0286252,50.7016874
          -3.0286504,50.7016584
          -3.0286499,50.7016381
          -3.0286461,50.7016108
          -3.0286272,50.7015800
          -3.0286073,50.7015502
          -3.0285606,50.7015388
          -3.0285106,50.7015532
          -3.0284700,50.7015795
          -3.0284006,50.7015919
          -3.0283263,50.7015868
          -3.0282530,50.7015999
          -3.0281861,50.7016155
          -3.0281459,50.7016105
          -3.0281148,50.7015883
          -3.0280619,50.7015761
          -3.0280236,50.7015614
          -3.0279960,50.7015370
          -3.0279781,50.7015101
          -3.0279676,50.7014738
          -3.0279730,50.7014405
          -3.0279810,50.7014136
          -3.0279813,50.7013930
          -3.0279817,50.7013688
          -3.0279911,50.7013361
          -3.0279944,50.7012988
          -3.0279896,50.7012583
          -3.0279794,50.7012156
          -3.0279455,50.7011889
          -3.0278634,50.7011876
          -3.0278261,50.7011819
          -3.0277579,50.7011622
          -3.0276792,50.7011400
          -3.0275987,50.7011171
          -3.0275262,50.7010855
          -3.0274620,50.7010565
          -3.0273978,50.7010295
          -3.0273626,50.7009985
          -3.0273144,50.7009788
          -3.0272454,50.7009478
          -3.0271770,50.7009119
          -3.0271046,50.7008826
          -3.0270243,50.7008666
          -3.0269353,50.7008495
          -3.0268414,50.7008408
          -3.0267468,50.7008338
          -3.0266544,50.7008270
          -3.0265790,50.7008231
          -3.0265202,50.7008182
          -3.0264337,50.7008340
          -3.0263514,50.7008536
          -3.0262731,50.7008700
          -3.0262042,50.7008897
          -3.0261260,50.7008971
          -3.0260488,50.7009168
          -3.0259744,50.7009409
          -3.0259054,50.7009638
          -3.0258340,50.7009847
          -3.0257556,50.7009925
          -3.0256914,50.7010004
          -3.0256292,50.7010151
          -3.0255627,50.7010414
          -3.0254860,50.7010750
          -3.0254109,50.7011125
          -3.0253393,50.7011420
          -3.0252535,50.7011553
          -3.0251628,50.7011569
          -3.0250861,50.7011474
          -3.0250300,50.7011367
          -3.0249762,50.7011309
          -3.0249133,50.7011295
          -3.0248415,50.7011320
          -3.0247753,50.7011360
          -3.0247090,50.7011279
          -3.0246913,50.7010925
          -3.0246902,50.7010542
          -3.0246581,50.7010224
          -3.0246264,50.7009907
          -3.0245963,50.7009586
          -3.0245785,50.7009257
          -3.0245710,50.7008941
          -3.0245607,50.7008614
          -3.0245560,50.7008170
          -3.0245614,50.7007781
          -3.0245809,50.7007342
          -3.0246170,50.7006990
          -3.0246481,50.7006566
          -3.0246586,50.7006234
          -3.0246383,50.7005885
          -3.0246099,50.7005520
          -3.0245725,50.7005147
          -3.0245179,50.7004900
          -3.0244617,50.7004819
          -3.0243814,50.7004844
          -3.0242996,50.7004899
          -3.0242231,50.7004915
          -3.0241348,50.7004966
          -3.0240747,50.7004981
          -3.0240172,50.7004954
          -3.0239493,50.7004818
          -3.0238707,50.7004621
          -3.0238032,50.7004302
          -3.0237238,50.7003885
          -3.0236540,50.7003583
          -3.0235972,50.7003467
          -3.0235344,50.7003175
          -3.0234575,50.7002870
          -3.0233791,50.7002675
          -3.0233365,50.7002524
          -3.0233087,50.7002263
          -3.0232931,50.7001963
          -3.0232843,50.7001751
          -3.0232708,50.7001381
          -3.0232500,50.7000792
          -3.0232182,50.7000609
          -3.0231801,50.7000503
          -3.0230999,50.7000387
          -3.0230107,50.7000198
          -3.0229574,50.6999931
          -3.0229440,50.6999590
          -3.0229247,50.6999204
          -3.0228999,50.6998874
          -3.0228599,50.6998535
          -3.0228294,50.6998141
          -3.0228143,50.6997519
          -3.0228119,50.6997150
          -3.0228351,50.6996848
          -3.0228875,50.6996621
          -3.0229092,50.6996317
          -3.0229280,50.6996029
          -3.0229566,50.6995783
          -3.0229421,50.6995309
          -3.0229073,50.6995201
          -3.0228415,50.6995018
          -3.0227736,50.6994530
          -3.0227429,50.6994246
          -3.0227206,50.6994051
          -3.0226633,50.6993858
          -3.0225877,50.6993973
          -3.0225315,50.6994281
          -3.0224752,50.6994416
          -3.0224137,50.6994476
          -3.0223603,50.6994683
          -3.0223174,50.6995064
          -3.0222697,50.6995412
          -3.0222038,50.6995789
          -3.0221282,50.6996019
          -3.0220523,50.6996106
          -3.0219923,50.6996217
          -3.0219329,50.6996243
          -3.0218669,50.6996296
          -3.0218034,50.6996359
          -3.0217355,50.6996408
          -3.0216493,50.6996428
          -3.0215592,50.6996560
          -3.0214862,50.6996848
          -3.0214163,50.6997042
          -3.0213518,50.6997115
          -3.0212770,50.6997207
          -3.0212026,50.6997446
          -3.0211360,50.6997700
          -3.0210971,50.6998069
          -3.0210755,50.6998519
          -3.0210487,50.6998856
          -3.0209889,50.6999134
          -3.0209211,50.6999371
          -3.0208713,50.6999675
          -3.0208159,50.6999935
          -3.0207860,50.7000125
          -3.0207478,50.7000448
          -3.0206970,50.7000868
          -3.0206318,50.7001199
          -3.0205512,50.7001547
          -3.0204937,50.7001899
          -3.0204489,50.7002292
          -3.0203955,50.7002680
          -3.0203305,50.7002907
          -3.0202525,50.7003007
          -3.0201740,50.7003047
          -3.0200862,50.7003171
          -3.0200121,50.7003425
          -3.0199492,50.7003602
          -3.0198856,50.7003669
          -3.0198285,50.7003802
          -3.0197654,50.7003939
          -3.0197035,50.7004008
          -3.0196333,50.7004136
          -3.0195579,50.7004348
          -3.0194712,50.7004555
          -3.0193883,50.7004726
          -3.0193235,50.7004733
          -3.0192339,50.7004703
          -3.0191178,50.7004829
          -3.0190278,50.7005083
          -3.0189492,50.7005328
          -3.0188830,50.7005572
          -3.0188253,50.7005635
          -3.0187585,50.7005587
          -3.0187041,50.7005686
          -3.0186550,50.7005817
          -3.0185936,50.7005967
          -3.0185430,50.7006170
          -3.0184741,50.7006276
          -3.0184020,50.7006327
          -3.0183305,50.7006428
          -3.0182528,50.7006586
          -3.0181759,50.7006680
          -3.0181147,50.7006815
          -3.0180414,50.7006981
          -3.0179753,50.7007205
          -3.0179213,50.7007392
          -3.0178752,50.7007519
          -3.0178249,50.7007687
          -3.0177458,50.7007955
          -3.0176638,50.7008115
          -3.0175986,50.7008107
          -3.0175324,50.7007981
          -3.0174659,50.7007979
          -3.0173935,50.7007836
          -3.0173256,50.7007662
          -3.0172642,50.7007553
          -3.0172141,50.7007465
          -3.0171701,50.7007291
          -3.0170993,50.7007050
          -3.0170116,50.7006785
          -3.0169413,50.7006498
          -3.0168770,50.7006222
          -3.0168097,50.7006061
          -3.0167414,50.7005918
          -3.0166780,50.7005819
          -3.0166035,50.7005851
          -3.0165298,50.7005974
          -3.0164610,50.7006098
          -3.0163824,50.7006287
          -3.0163115,50.7006396
          -3.0162570,50.7006566
          -3.0161986,50.7006770
          -3.0161311,50.7007079
          -3.0160647,50.7007307
          -3.0159845,50.7007378
          -3.0159148,50.7007532
          -3.0158464,50.7007660
          -3.0157773,50.7007732
          -3.0157007,50.7007761
          -3.0156306,50.7007735
          -3.0155685,50.7007646
          -3.0154977,50.7007504
          -3.0154074,50.7007470
          -3.0153332,50.7007455
          -3.0152670,50.7007449
          -3.0151926,50.7007494
          -3.0151170,50.7007615
          -3.0150665,50.7007509
          -3.0150485,50.7007215
          -3.0150144,50.7006792
          -3.0149888,50.7006385
          -3.0149661,50.7006009
          -3.0149298,50.7005603
          -3.0148974,50.7005193
          -3.0148847,50.7004708
          -3.0149439,50.7004122
          -3.0149256,50.7004049
          -3.0148899,50.7004098
          -3.0148891,50.7004153
          -3.0149542,50.7004147
          -3.0149947,50.7004344
          -3.0150154,50.7004637
          -3.0150449,50.7005101
          -3.0150828,50.7005665
          -3.0150948,50.7006067
          -3.0150952,50.7006393
          -3.0151085,50.7006771
          -3.0150976,50.7007109
          -3.0150370,50.7007291
          -3.0149698,50.7007417
          -3.0148966,50.7007539
          -3.0148012,50.7007636
          -3.0147175,50.7007766
          -3.0146555,50.7007789
          -3.0145889,50.7007751
          -3.0145231,50.7007782
          -3.0144651,50.7007754
          -3.0143913,50.7007820
          -3.0143201,50.7007957
          -3.0142589,50.7008097
          -3.0142046,50.7008145
          -3.0141512,50.7008103
          -3.0140962,50.7008101
          -3.0140173,50.7008125
          -3.0139394,50.7008178
          -3.0138627,50.7008288
          -3.0137826,50.7008457
          -3.0137117,50.7008737
          -3.0136368,50.7008922
          -3.0135405,50.7008999
          -3.0134576,50.7009115
          -3.0133750,50.7009306
          -3.0132786,50.7009570
          -3.0132029,50.7009766
          -3.0131447,50.7009842
          -3.0130851,50.7009961
          -3.0130319,50.7010169
          -3.0129621,50.7010455
          -3.0128857,50.7010652
          -3.0128118,50.7010860
          -3.0127525,50.7011014
          -3.0126920,50.7011135
          -3.0126122,50.7011296
          -3.0125089,50.7011440
          -3.0124117,50.7011643
          -3.0123270,50.7011895
          -3.0122506,50.7012111
          -3.0121783,50.7012252
          -3.0121180,50.7012354
          -3.0120575,50.7012544
          -3.0119927,50.7012762
          -3.0119279,50.7012973
          -3.0118419,50.7013086
          -3.0117689,50.7013155
          -3.0117103,50.7013253
          -3.0116431,50.7013429
          -3.0115575,50.7013589
          -3.0114800,50.7013751
          -3.0114151,50.7013957
          -3.0113570,50.7014247
          -3.0112915,50.7014432
          -3.0112154,50.7014607
          -3.0111540,50.7014798
          -3.0110830,50.7015032
          -3.0110079,50.7015366
          -3.0109395,50.7015686
          -3.0108764,50.7015971
          -3.0108136,50.7016165
          -3.0107470,50.7016297
          -3.0106776,50.7016479
          -3.0106071,50.7016745
          -3.0105373,50.7017115
          -3.0104764,50.7017474
          -3.0104215,50.7017794
          -3.0103869,50.7018190
          -3.0103620,50.7018442
          -3.0103427,50.7018584
          -3.0103134,50.7018830
          -3.0102899,50.7019051
          -3.0102516,50.7019451
          -3.0102141,50.7019843
          -3.0101740,50.7020330
          -3.0101210,50.7020832
          -3.0100621,50.7021157
          -3.0099967,50.7021450
          -3.0099559,50.7021739
          -3.0099203,50.7022081
          -3.0098768,50.7022336
          -3.0098312,50.7022640
          -3.0097745,50.7022951
          -3.0097186,50.7023368
          -3.0096368,50.7023502
          -3.0095731,50.7023842
          -3.0095031,50.7024301
          -3.0094292,50.7024661
          -3.0093577,50.7024997
          -3.0092986,50.7025336
          -3.0092244,50.7025613
          -3.0091524,50.7025939
          -3.0090907,50.7026156
          -3.0090258,50.7026393
          -3.0089541,50.7026518
          -3.0088992,50.7026633
          -3.0088421,50.7026797
          -3.0087827,50.7026930
          -3.0087240,50.7027095
          -3.0086569,50.7027296
          -3.0085880,50.7027556
          -3.0085274,50.7027933
          -3.0084728,50.7028173
          -3.0084214,50.7028357
          -3.0083841,50.7028478
          -3.0083502,50.7028670
          -3.0083306,50.7028956
          -3.0082974,50.7029281
          -3.0082702,50.7029616
          -3.0082389,50.7029966
          -3.0082078,50.7030219
          -3.0081661,50.7030504
          -3.0081201,50.7030827
          -3.0080843,50.7031218
          -3.0080122,50.7031560
          -3.0079575,50.7031840
          -3.0078979,50.7032014
          -3.0078257,50.7032144
          -3.0077631,50.7032522
          -3.0076905,50.7032708
          -3.0076289,50.7032937
          -3.0075626,50.7033176
          -3.0074979,50.7033360
          -3.0074393,50.7033363
          -3.0073546,50.7033386
          -3.0072720,50.7033376
          -3.0072093,50.7033427
          -3.0071602,50.7033468
          -3.0070959,50.7033512
          -3.0070223,50.7033544
          -3.0069494,50.7033494
          -3.0068820,50.7033508
          -3.0068349,50.7033557
          -3.0067845,50.7033642
          -3.0067345,50.7033727
          -3.0066709,50.7033739
          -3.0065854,50.7033684
          -3.0065064,50.7033656
          -3.0064450,50.7033603
          -3.0063714,50.7033629
          -3.0063007,50.7033679
          -3.0062407,50.7033797
          -3.0061658,50.7033750
          -3.0060806,50.7033558
          -3.0060192,50.7033497
          -3.0059643,50.7033548
          -3.0059031,50.7033701
          -3.0058612,50.7033874
          -3.0057957,50.7034009
          -3.0057139,50.7034131
          -3.0056853,50.7034490
          -3.0056528,50.7034870
          -3.0055742,50.7035170
          -3.0054903,50.7035591
          -3.0054186,50.7035934
          -3.0053439,50.7036051
          -3.0052733,50.7036124
          -3.0052130,50.7035993
          -3.0051533,50.7035778
          -3.0050969,50.7035594
          -3.0050199,50.7035594
          -3.0049658,50.7035569
          -3.0049038,50.7035516
          -3.0048568,50.7035458
          -3.0048286,50.7035363
          -3.0047926,50.7035176
          -3.0047371,50.7035071
          -3.0046920,50.7035253
          -3.0046470,50.7035475
          -3.0045909,50.7035584
          -3.0045287,50.7035580
          -3.0044934,50.7035540
          -3.0044685,50.7035531
          -3.0044102,50.7035580
          -3.0043523,50.7035786
          -3.0043025,50.7036015
          -3.0042549,50.7036243
          -3.0042276,50.7036360
          -3.0041510,50.7036321
          -3.0040779,50.7036186
          -3.0040096,50.7036336
          -3.0039842,50.7036616
          -3.0039619,50.7036875
          -3.0038964,50.7036989
          -3.0037982,50.7037100
          -3.0037174,50.7037093
          -3.0036713,50.7037125
          -3.0036258,50.7037129
          -3.0035723,50.7036950
          -3.0035211,50.7036687
          -3.0034299,50.7036701
          -3.0033414,50.7036789
          -3.0032515,50.7036943
          -3.0032013,50.7037167
          -3.0031638,50.7037396
          -3.0031220,50.7037590
          -3.0030658,50.7037667
          -3.0029925,50.7037639
          -3.0029233,50.7037575
          -3.0028806,50.7037500
          -3.0028431,50.7037452
          -3.0027965,50.7037287
          -3.0027266,50.7037204
          -3.0026656,50.7037338
          -3.0026045,50.7037656
          -3.0025218,50.7037519
          -3.0024671,50.7037297
          -3.0024136,50.7037331
          -3.0023946,50.7037665
          -3.0023753,50.7037888
          -3.0023103,50.7038089
          -3.0022520,50.7038465
          -3.0021945,50.7038773
          -3.0021637,50.7039118
          -3.0021285,50.7039307
          -3.0020727,50.7039728
          -3.0020179,50.7040164
          -3.0020040,50.7040522
          -3.0020132,50.7040882
          -3.0020075,50.7041123
          -3.0019994,50.7041246
          -3.0019895,50.7041580
          -3.0019595,50.7041932
          -3.0019124,50.7042217
          -3.0018710,50.7042684
          -3.0018614,50.7043205
          -3.0018557,50.7043514
          -3.0018090,50.7043744
          -3.0017543,50.7044134
          -3.0016951,50.7044577
          -3.0016309,50.7044914
          -3.0015708,50.7045125
          -3.0015326,50.7045368
          -3.0014906,50.7045754
          -3.0014725,50.7046165
          -3.0014257,50.7046363
          -3.0013340,50.7046646
          -3.0012367,50.7047076
          -3.0011657,50.7047559
          -3.0011343,50.7047996
          -3.0011036,50.7048437
          -3.0010369,50.7048810
          -3.0009467,50.7048964
          -3.0008761,50.7049060
          -3.0008513,50.7049410
          -3.0008432,50.7049869
          -3.0008390,50.7050112
          -3.0008153,50.7050465
          -3.0007433,50.7050900
          -3.0006743,50.7051209
          -3.0006203,50.7051494
          -3.0005535,50.7051854
          -3.0004750,50.7052194
          -3.0004080,50.7052430
          -3.0003363,50.7052715
          -3.0002676,50.7052931
          -3.0002320,50.7053192
          -3.0002281,50.7053489
          -3.0002024,50.7053850
          -3.0001703,50.7054206
          -3.0001546,50.7054466
          -3.0001162,50.7054683
          -3.0000862,50.7055057
          -3.0000421,50.7055365
          -3.0000036,50.7055795
          -2.9999750,50.7056161
          -2.9999473,50.7056367
          -2.9998947,50.7056319
          -2.9998297,50.7056215
          -2.9997636,50.7056448
          -2.9997303,50.7056720
          -2.9996852,50.7056872
          -2.9996352,50.7057041
          -2.9995853,50.7057150
          -2.9995243,50.7057181
          -2.9994407,50.7057248
          -2.9993730,50.7057475
          -2.9993405,50.7057663
          -2.9992974,50.7057662
          -2.9992353,50.7057517
          -2.9991727,50.7057318
          -2.9991090,50.7057161
          -2.9990945,50.7057153
          -2.9990629,50.7057096
          -2.9990312,50.7056997
          -2.9989768,50.7057081
          -2.9989170,50.7057207
          -2.9988515,50.7057238
          -2.9987970,50.7057323
          -2.9987637,50.7057659
          -2.9987298,50.7057852
          -2.9986862,50.7058039
          -2.9986495,50.7058257
          -2.9986000,50.7058428
          -2.9985577,50.7058452
          -2.9985244,50.7058583
          -2.9985026,50.7058932
          -2.9984865,50.7059286
          -2.9984400,50.7059421
          -2.9983770,50.7059512
          -2.9983218,50.7059736
          -2.9982830,50.7059932
          -2.9982460,50.7060004
          -2.9981996,50.7059939
          -2.9981483,50.7059793
          -2.9980997,50.7059542
          -2.9980377,50.7059305
          -2.9979605,50.7059231
          -2.9978677,50.7059054
          -2.9977891,50.7058773
          -2.9977253,50.7058614
          -2.9976583,50.7058623
          -2.9975875,50.7058839
          -2.9975173,50.7059051
          -2.9974536,50.7059201
          -2.9973783,50.7059413
          -2.9973221,50.7059574
          -2.9972571,50.7059624
          -2.9971809,50.7059698
          -2.9971213,50.7059877
          -2.9970665,50.7060169
          -2.9970078,50.7060437
          -2.9969273,50.7060585
          -2.9968513,50.7060794
          -2.9967989,50.7061008
          -2.9967178,50.7061151
          -2.9966414,50.7061469
          -2.9965813,50.7061785
          -2.9965487,50.7062075
          -2.9965262,50.7062431
          -2.9964932,50.7062822
          -2.9964753,50.7063272
          -2.9964694,50.7063622
          -2.9964617,50.7064009
          -2.9964621,50.7064397
          -2.9964484,50.7064716
          -2.9964016,50.7065037
          -2.9963354,50.7065303
          -2.9962505,50.7065476
          -2.9961618,50.7065668
          -2.9960802,50.7065815
          -2.9960314,50.7065844
          -2.9960309,50.7066057
          -2.9959701,50.7066170
          -2.9958844,50.7066409
          -2.9958112,50.7066626
          -2.9957755,50.7066741
          -2.9957676,50.7066904
          -2.9957569,50.7067192
          -2.9957396,50.7067498
          -2.9957167,50.7067800
          -2.9957019,50.7068137
          -2.9956905,50.7068432
          -2.9956614,50.7068698
          -2.9956393,50.7068949
          -2.9956159,50.7069247
          -2.9955790,50.7069592
          -2.9955346,50.7069936
          -2.9954867,50.7070119
          -2.9954318,50.7070209
          -2.9953710,50.7070352
          -2.9953231,50.7070510
          -2.9952809,50.7070612
          -2.9952457,50.7070843
          -2.9952239,50.7071156
          -2.9952014,50.7071314
          -2.9951470,50.7071394
          -2.9950941,50.7071464
          -2.9950483,50.7071568
          -2.9950224,50.7071652
          -2.9949864,50.7071780
          -2.9949379,50.7071741
          -2.9948263,50.7071988
          -2.9947756,50.7072124
          -2.9947217,50.7072154
          -2.9946432,50.7072354
          -2.9945690,50.7072467
          -2.9945108,50.7072537
          -2.9944554,50.7072483
          -2.9944604,50.7072247
          -2.9943999,50.7072352
          -2.9943515,50.7072571
          -2.9942936,50.7072659
          -2.9942317,50.7072729
          -2.9941634,50.7072884
          -2.9941135,50.7073013
          -2.9940560,50.7073145
          -2.9939939,50.7073236
          -2.9939438,50.7073257
          -2.9939042,50.7073274
          -2.9938510,50.7073351
          -2.9937822,50.7073500
          -2.9937302,50.7073578
          -2.9936755,50.7073508
          -2.9936065,50.7073379
          -2.9935512,50.7073220
          -2.9935048,50.7073104
          -2.9934378,50.7072941
          -2.9933569,50.7072787
          -2.9932879,50.7072840
          -2.9932480,50.7072846
          -2.9931995,50.7073022
          -2.9931668,50.7073454
          -2.9931314,50.7073769
          -2.9930757,50.7074016
          -2.9930420,50.7074305
          -2.9930041,50.7074498
          -2.9929490,50.7074660
          -2.9928861,50.7074726
          -2.9928357,50.7074772
          -2.9927955,50.7074918
          -2.9927123,50.7075484
          -2.9926488,50.7075695
          -2.9925918,50.7075686
          -2.9925440,50.7075591
          -2.9924918,50.7075550
          -2.9924290,50.7075607
          -2.9923587,50.7075712
          -2.9923008,50.7076054
          -2.9922286,50.7076318
          -2.9921618,50.7076559
          -2.9921085,50.7076590
          -2.9920312,50.7076544
          -2.9919452,50.7076592
          -2.9918883,50.7076844
          -2.9918324,50.7077048
          -2.9917957,50.7077161
          -2.9917638,50.7077358
          -2.9917125,50.7077629
          -2.9916713,50.7077865
          -2.9916281,50.7077865
          -2.9915706,50.7077826
          -2.9915188,50.7077907
          -2.9914711,50.7077981
          -2.9914222,50.7077970
          -2.9913795,50.7077898
          -2.9913293,50.7077667
          -2.9912796,50.7077360
          -2.9912293,50.7077393
          -2.9911821,50.7077606
          -2.9911215,50.7077689
          -2.9911184,50.7077579
          -2.9910728,50.7077473
          -2.9910263,50.7077323
          -2.9909889,50.7077059
          -2.9909518,50.7076810
          -2.9909044,50.7076725
          -2.9908353,50.7076630
          -2.9907891,50.7076671
          -2.9907573,50.7076880
          -2.9907361,50.7077166
          -2.9907169,50.7077487
          -2.9906996,50.7077790
          -2.9906325,50.7078042
          -2.9905600,50.7078178
          -2.9905016,50.7078298
          -2.9904388,50.7078240
          -2.9903612,50.7078081
          -2.9902944,50.7078057
          -2.9902341,50.7078031
          -2.9901717,50.7078041
          -2.9901148,50.7077977
          -2.9900716,50.7077983
          -2.9900223,50.7078269
          -2.9899824,50.7078575
          -2.9899304,50.7078659
          -2.9898651,50.7078702
          -2.9897876,50.7078787
          -2.9897083,50.7078839
          -2.9896311,50.7078901
          -2.9895649,50.7079031
          -2.9894957,50.7079030
          -2.9894309,50.7079124
          -2.9893809,50.7079334
          -2.9893417,50.7079538
          -2.9892844,50.7079732
          -2.9892077,50.7079958
          -2.9891302,50.7080068
          -2.9890811,50.7080128
          -2.9890468,50.7080355
          -2.9889982,50.7080647
          -2.9889579,50.7080797
          -2.9889134,50.7080957
          -2.9888852,50.7081287
          -2.9888425,50.7081429
          -2.9887993,50.7081528
          -2.9887646,50.7081833
          -2.9887164,50.7082118
          -2.9886420,50.7082336
          -2.9885625,50.7082514
          -2.9884817,50.7082683
          -2.9884139,50.7082899
          -2.9883610,50.7083159
          -2.9883209,50.7083395
          -2.9882852,50.7083484
          -2.9882356,50.7083604
          -2.9881821,50.7083808
          -2.9881177,50.7083954
          -2.9880531,50.7084062
          -2.9879806,50.7084240
          -2.9879059,50.7084307
          -2.9878427,50.7084335
          -2.9877834,50.7084354
          -2.9877269,50.7084365
          -2.9876666,50.7084378
          -2.9876112,50.7084486
          -2.9875545,50.7084522
          -2.9874859,50.7084511
          -2.9874185,50.7084653
          -2.9873558,50.7084689
          -2.9872895,50.7084624
          -2.9872044,50.7084691
          -2.9871178,50.7084790
          -2.9870310,50.7084645
          -2.9869724,50.7084878
          -2.9869221,50.7085115
          -2.9868479,50.7085169
          -2.9867811,50.7085143
          -2.9867285,50.7085252
          -2.9866890,50.7085510
          -2.9866378,50.7085742
          -2.9865822,50.7085955
          -2.9865154,50.7086000
          -2.9864276,50.7086142
          -2.9863592,50.7086430
          -2.9862968,50.7086661
          -2.9861931,50.7086602
          -2.9861020,50.7086630
          -2.9860389,50.7086747
          -2.9859989,50.7086749
          -2.9859595,50.7086705
          -2.9859160,50.7086675
          -2.9858539,50.7086606
          -2.9857881,50.7086580
          -2.9857469,50.7086797
          -2.9856909,50.7087096
          -2.9856456,50.7087334
          -2.9855884,50.7087516
          -2.9855316,50.7087662
          -2.9854680,50.7087678
          -2.9853988,50.7087638
          -2.9853225,50.7087585
          -2.9852493,50.7087713
          -2.9851898,50.7087809
          -2.9851261,50.7087827
          -2.9851045,50.7087857
          -2.9850727,50.7087986
          -2.9850085,50.7088105
          -2.9849427,50.7088108
          -2.9848825,50.7088142
          -2.9848114,50.7088105
          -2.9847206,50.7088027
          -2.9846438,50.7088073
          -2.9845648,50.7088069
          -2.9844987,50.7088018
          -2.9844270,50.7088026
          -2.9843621,50.7087995
          -2.9843014,50.7087961
          -2.9842413,50.7088004
          -2.9841859,50.7088024
          -2.9841289,50.7088116
          -2.9840652,50.7088232
          -2.9839890,50.7088267
          -2.9839145,50.7088358
          -2.9838549,50.7088267
          -2.9837886,50.7088182
          -2.9837177,50.7088066
          -2.9836609,50.7088002
          -2.9836033,50.7087922
          -2.9835472,50.7087690
          -2.9834935,50.7087438
          -2.9834433,50.7087305
          -2.9833993,50.7087177
          -2.9833302,50.7086997
          -2.9832866,50.7087027
          -2.9832365,50.7087068
          -2.9831869,50.7087168
          -2.9831343,50.7087213
          -2.9830765,50.7087291
          -2.9830157,50.7087300
          -2.9829667,50.7087298
          -2.9829219,50.7087283
          -2.9828707,50.7087217
          -2.9828169,50.7087220
          -2.9827588,50.7087228
          -2.9826968,50.7087179
          -2.9826520,50.7087200
          -2.9825925,50.7087188
          -2.9825474,50.7087339
          -2.9825068,50.7087670
          -2.9824858,50.7087913
          -2.9824774,50.7088230
          -2.9824750,50.7088707
          -2.9824461,50.7089207
          -2.9824150,50.7089547
          -2.9823873,50.7089979
          -2.9823593,50.7090289
          -2.9823133,50.7090498
          -2.9822731,50.7090762
          -2.9822343,50.7091074
          -2.9822091,50.7091387
          -2.9822247,50.7091604
          -2.9822376,50.7091835
          -2.9822270,50.7092250
          -2.9821957,50.7092698
          -2.9821762,50.7092892
          -2.9821399,50.7093103
          -2.9821068,50.7093400
          -2.9820798,50.7093813
          -2.9820528,50.7094217
          -2.9820144,50.7094555
          -2.9819514,50.7094971
          -2.9819040,50.7095584
          -2.9818696,50.7096034
          -2.9818089,50.7096477
          -2.9817365,50.7096941
          -2.9816338,50.7096880
          -2.9815344,50.7096734
          -2.9814604,50.7096863
          -2.9814280,50.7097161
          -2.9813956,50.7097571
          -2.9813440,50.7097943
          -2.9812770,50.7098414
          -2.9812105,50.7098746
          -2.9811669,50.7098980
          -2.9810954,50.7099142
          -2.9810095,50.7099305
          -2.9809304,50.7099232
          -2.9808719,50.7098978
          -2.9808148,50.7098751
          -2.9807615,50.7098561
          -2.9806913,50.7098383
          -2.9806173,50.7098339
          -2.9805697,50.7098506
          -2.9805381,50.7098855
          -2.9805059,50.7099053
          -2.9804396,50.7098967
          -2.9803673,50.7099018
          -2.9802847,50.7099201
          -2.9801875,50.7099205
          -2.9801113,50.7099368
          -2.9800372,50.7099495
          -2.9799663,50.7099689
          -2.9799181,50.7099940
          -2.9799451,50.7100197
          -2.9799253,50.7100216
          -2.9798449,50.7100229
          -2.9797501,50.7100257
          -2.9796482,50.7100316
          -2.9795529,50.7100362
          -2.9794639,50.7100369
          -2.9793877,50.7100361
          -2.9793103,50.7100264
          -2.9792121,50.7100070
          -2.9791275,50.7099910
          -2.9790442,50.7099934
          -2.9789589,50.7100005
          -2.9788532,50.7100097
          -2.9787436,50.7100246
          -2.9786444,50.7100181
          -2.9786039,50.7100060
          -2.9785610,50.7099852
          -2.9784826,50.7099670
          -2.9783759,50.7099609
          -2.9782819,50.7099469
          -2.9782114,50.7099238
          -2.9781435,50.7098867
          -2.9780745,50.7098477
          -2.9780067,50.7098154
          -2.9779231,50.7098026
          -2.9778382,50.7097919
          -2.9777549,50.7097767
          -2.9776787,50.7097653
          -2.9775971,50.7097555
          -2.9775121,50.7097466
          -2.9774413,50.7097373
          -2.9773524,50.7097218
          -2.9772404,50.7096921
          -2.9770953,50.7096498
          -2.9769990,50.7096186
          -2.9769290,50.7096172
          -2.9768520,50.7096175
          -2.9767949,50.7096167
          -2.9767396,50.7096120
          -2.9766356,50.7096110
          -2.9765266,50.7096065
          -2.9763910,50.7095937
          -2.9762917,50.7095894
          -2.9762304,50.7096166
          -2.9761572,50.7096374
          -2.9760775,50.7096353
          -2.9759876,50.7096180
          -2.9758891,50.7096122
          -2.9757901,50.7095932
          -2.9757202,50.7095581
          -2.9756460,50.7095066
          -2.9755967,50.7094742
          -2.9755734,50.7094607
          -2.9755389,50.7094165
          -2.9754938,50.7093685
          -2.9754222,50.7093208
          -2.9753372,50.7092668
          -2.9752648,50.7092513
          -2.9752070,50.7092636
          -2.9751570,50.7092839
          -2.9750938,50.7093099
          -2.9750274,50.7093368
          -2.9749658,50.7093673
          -2.9749026,50.7093935
          -2.9748321,50.7094255
          -2.9747703,50.7094631
          -2.9747034,50.7094949
          -2.9746452,50.7095325
          -2.9745918,50.7095601
          -2.9745480,50.7095851
          -2.9744951,50.7096099
          -2.9744438,50.7096334
          -2.9743877,50.7096641
          -2.9743442,50.7096945
          -2.9742920,50.7097203
          -2.9742406,50.7097439
          -2.9741551,50.7097722
          -2.9740710,50.7098106
          -2.9740074,50.7098492
          -2.9739417,50.7098824
          -2.9738790,50.7099068
          -2.9738212,50.7099313
          -2.9737606,50.7099596
          -2.9737234,50.7099838
          -2.9736931,50.7100044
          -2.9736588,50.7100217
          -2.9736169,50.7100454
          -2.9735798,50.7100659
          -2.9735384,50.7100957
          -2.9734838,50.7101159
          -2.9734266,50.7101201
          -2.9733782,50.7101294
          -2.9733372,50.7101494
          -2.9732896,50.7101747
          -2.9732322,50.7102056
          -2.9731803,50.7102363
          -2.9731328,50.7102719
          -2.9730928,50.7103153
          -2.9730512,50.7103503
          -2.9730334,50.7103617
          -2.9730006,50.7103877
          -2.9729761,50.7104221
          -2.9729396,50.7104618
          -2.9728769,50.7105004
          -2.9727984,50.7105255
          -2.9727111,50.7105376
          -2.9726262,50.7105506
          -2.9725656,50.7105655
          -2.9725203,50.7105863
          -2.9724586,50.7106118
          -2.9723745,50.7106409
          -2.9722799,50.7106748
          -2.9721779,50.7106985
          -2.9720805,50.7107089
          -2.9719712,50.7107218
          -2.9718785,50.7107396
          -2.9718142,50.7107747
          -2.9717632,50.7108139
          -2.9717142,50.7108453
          -2.9716765,50.7108815
          -2.9716558,50.7109217
          -2.9716500,50.7109635
          -2.9716487,50.7110063
          -2.9716381,50.7110299
          -2.9716186,50.7110633
          -2.9715920,50.7111033
          -2.9715405,50.7111517
          -2.9714455,50.7112009
          -2.9713475,50.7112421
          -2.9712618,50.7112739
          -2.9711880,50.7113045
          -2.9711232,50.7113455
          -2.9710608,50.7113719
          -2.9710220,50.7114023
          -2.9709970,50.7114363
          -2.9709840,50.7114491
          -2.9709413,50.7115100
          -2.9709120,50.7115505
          -2.9708761,50.7115875
          -2.9708407,50.7116298
          -2.9707829,50.7116751
          -2.9707235,50.7117050
          -2.9706640,50.7117533
          -2.9706217,50.7118042
          -2.9705653,50.7118444
          -2.9704842,50.7118864
          -2.9704076,50.7119306
          -2.9703488,50.7119827
          -2.9702946,50.7120324
          -2.9702293,50.7120697
          -2.9701660,50.7121225
          -2.9701127,50.7121670
          -2.9700551,50.7122110
          -2.9699774,50.7122405
          -2.9699224,50.7122818
          -2.9698742,50.7123325
          -2.9698452,50.7123878
          -2.9698250,50.7124458
          -2.9697904,50.7124960
          -2.9697645,50.7125390
          -2.9697372,50.7125802
          -2.9696818,50.7126330
          -2.9696044,50.7126876
          -2.9695446,50.7127269
          -2.9695034,50.7127668
          -2.9694671,50.7128177
          -2.9694469,50.7128806
          -2.9694096,50.7129409
          -2.9693827,50.7129971
          -2.9693469,50.7130530
          -2.9692806,50.7130907
          -2.9692086,50.7131271
          -2.9691211,50.7131359
          -2.9690025,50.7131460
          -2.9688994,50.7131455
          -2.9688403,50.7131413
          -2.9687844,50.7131288
          -2.9687131,50.7131197
          -2.9687075,50.7131034
          -2.9687800,50.7131184
          -2.9688212,50.7131238
          -2.9688906,50.7131443
          -2.9689685,50.7131638
          -2.9690353,50.7131770
          -2.9690563,50.7132223
          -2.9690481,50.7132686
          -2.9690551,50.7133052
          -2.9690491,50.7133432
          -2.9690142,50.7133825
          -2.9689689,50.7134280
          -2.9689268,50.7134707
          -2.9688774,50.7135159
          -2.9688365,50.7135556
          -2.9688046,50.7136043
          -2.9687699,50.7136590
          -2.9687146,50.7137016
          -2.9686712,50.7137472
          -2.9686213,50.7137895
          -2.9685463,50.7138180
          -2.9684487,50.7138394
          -2.9683649,50.7138700
          -2.9682790,50.7138928
          -2.9681846,50.7138954
          -2.9680981,50.7139031
          -2.9680286,50.7139364
          -2.9679753,50.7139707
          -2.9679048,50.7140023
          -2.9678029,50.7140273
          -2.9677204,50.7140487
          -2.9676458,50.7140610
          -2.9675821,50.7140562
          -2.9675057,50.7140475
          -2.9674247,50.7140567
          -2.9673366,50.7140762
          -2.9672517,50.7140867
          -2.9671879,50.7140904
          -2.9671112,50.7140914
          -2.9670267,50.7140950
          -2.9669482,50.7141049
          -2.9668678,50.7141176
          -2.9667974,50.7141169
          -2.9667318,50.7141163
          -2.9666642,50.7141373
          -2.9665867,50.7141724
          -2.9664932,50.7142145
          -2.9664462,50.7142623
          -2.9664213,50.7143033
          -2.9663726,50.7143316
          -2.9663016,50.7143627
          -2.9662348,50.7143935
          -2.9661635,50.7144097
          -2.9660957,50.7144282
          -2.9660218,50.7144433
          -2.9659438,50.7144521
          -2.9658717,50.7144497
          -2.9658079,50.7144572
          -2.9657574,50.7144635
          -2.9657146,50.7144669
          -2.9656786,50.7144784
          -2.9656131,50.7144849
          -2.9655350,50.7144816
          -2.9654546,50.7144761
          -2.9654128,50.7144681
          -2.9653650,50.7144594
          -2.9653082,50.7144602
          -2.9652502,50.7144753
          -2.9651969,50.7144922
          -2.9651752,50.7145190
          -2.9651573,50.7145398
          -2.9651341,50.7145571
          -2.9650568,50.7145731
          -2.9649887,50.7145973
          -2.9649276,50.7146112
          -2.9648596,50.7146310
          -2.9647974,50.7146582
          -2.9647621,50.7146758
          -2.9647114,50.7147004
          -2.9646384,50.7147263
          -2.9645566,50.7147469
          -2.9644906,50.7147627
          -2.9644021,50.7147690
          -2.9643225,50.7147779
          -2.9642528,50.7147753
          -2.9641668,50.7147753
          -2.9640965,50.7147999
          -2.9640171,50.7148053
          -2.9639534,50.7147988
          -2.9639079,50.7148104
          -2.9638520,50.7148223
          -2.9638174,50.7148276
          -2.9637609,50.7148384
          -2.9636851,50.7148444
          -2.9635968,50.7148498
          -2.9635043,50.7148576
          -2.9634810,50.7148692
          -2.9634452,50.7148993
          -2.9633885,50.7149186
          -2.9633093,50.7149318
          -2.9632334,50.7149572
          -2.9631728,50.7149841
          -2.9631097,50.7150055
          -2.9630521,50.7150198
          -2.9630081,50.7150268
          -2.9629426,50.7150366
          -2.9628554,50.7150467
          -2.9627822,50.7150518
          -2.9627067,50.7150527
          -2.9626566,50.7150654
          -2.9626338,50.7150822
          -2.9625858,50.7151084
          -2.9625425,50.7151316
          -2.9625043,50.7151517
          -2.9624400,50.7151799
          -2.9623957,50.7152081
          -2.9623616,50.7152177
          -2.9623079,50.7152175
          -2.9622388,50.7152232
          -2.9621538,50.7152281
          -2.9620894,50.7152436
          -2.9620514,50.7152360
          -2.9619914,50.7152543
          -2.9619280,50.7152782
          -2.9618837,50.7152941
          -2.9618779,50.7153071
          -2.9618944,50.7153377
          -2.9619099,50.7153786
          -2.9618867,50.7154096
          -2.9618449,50.7154271
          -2.9617778,50.7154396
          -2.9617029,50.7154593
          -2.9616386,50.7154498
          -2.9615639,50.7154306
          -2.9614892,50.7154292
          -2.9614048,50.7154484
          -2.9613315,50.7154724
          -2.9612687,50.7154948
          -2.9611860,50.7155370
          -2.9611225,50.7155870
          -2.9610843,50.7156239
          -2.9610626,50.7156587
          -2.9610269,50.7157092
          -2.9609614,50.7157585
          -2.9608852,50.7157882
          -2.9607894,50.7158038
          -2.9606839,50.7158004
          -2.9605972,50.7157933
          -2.9605056,50.7157882
          -2.9604240,50.7158022
          -2.9603652,50.7158105
          -2.9603281,50.7158332
          -2.9602695,50.7158599
          -2.9601871,50.7158809
          -2.9600811,50.7159045
          -2.9600060,50.7159209
          -2.9599357,50.7159188
          -2.9598811,50.7159382
          -2.9598370,50.7159560
          -2.9597777,50.7159716
          -2.9597116,50.7160054
          -2.9596504,50.7160552
          -2.9595788,50.7160673
          -2.9594998,50.7160546
          -2.9594271,50.7160362
          -2.9593649,50.7160156
          -2.9592975,50.7160058
          -2.9592277,50.7160032
          -2.9591531,50.7160169
          -2.9590927,50.7160296
          -2.9590562,50.7160398
          -2.9590007,50.7160649
          -2.9589537,50.7161044
          -2.9589144,50.7161366
          -2.9589152,50.7161712
          -2.9589044,50.7162177
          -2.9588562,50.7162546
          -2.9587984,50.7162956
          -2.9587443,50.7163301
          -2.9587019,50.7163701
          -2.9586542,50.7164066
          -2.9585837,50.7164148
          -2.9585293,50.7164362
          -2.9585034,50.7164865
          -2.9584636,50.7165232
          -2.9584031,50.7165426
          -2.9583527,50.7165673
          -2.9583430,50.7166013
          -2.9583253,50.7166289
          -2.9583288,50.7166582
          -2.9583021,50.7166975
          -2.9582118,50.7167272
          -2.9581528,50.7167589
          -2.9581232,50.7167919
          -2.9580735,50.7168294
          -2.9580104,50.7168598
          -2.9579396,50.7168843
          -2.9578604,50.7169160
          -2.9578213,50.7169462
          -2.9577894,50.7169850
          -2.9577239,50.7170213
          -2.9576536,50.7170428
          -2.9576011,50.7170776
          -2.9575441,50.7171158
          -2.9574888,50.7171480
          -2.9574451,50.7171810
          -2.9573918,50.7172163
          -2.9573293,50.7172478
          -2.9572695,50.7172783
          -2.9572040,50.7173078
          -2.9571457,50.7173127
          -2.9571053,50.7173209
          -2.9570780,50.7173467
          -2.9570629,50.7173815
          -2.9570341,50.7174212
          -2.9569732,50.7174640
          -2.9569081,50.7175058
          -2.9568601,50.7175484
          -2.9568127,50.7175914
          -2.9567678,50.7176292
          -2.9567256,50.7176615
          -2.9566902,50.7176986
          -2.9566715,50.7177313
          -2.9566425,50.7177623
          -2.9565785,50.7177929
          -2.9565148,50.7178275
          -2.9564744,50.7178560
          -2.9564081,50.7178829
          -2.9563522,50.7179149
          -2.9562656,50.7179466
          -2.9561942,50.7179671
          -2.9561291,50.7179931
          -2.9560717,50.7180163
          -2.9559989,50.7180581
          -2.9559300,50.7180947
          -2.9558709,50.7181115
          -2.9558082,50.7181103
          -2.9557492,50.7181296
          -2.9556909,50.7181328
          -2.9556675,50.7181253
          -2.9556676,50.7181455
          -2.9556825,50.7181718
          -2.9556886,50.7182015
          -2.9556924,50.7182260
          -2.9556762,50.7182575
          -2.9556426,50.7182889
          -2.9555991,50.7183206
          -2.9555509,50.7183397
          -2.9554845,50.7183573
          -2.9554101,50.7183862
          -2.9553529,50.7184078
          -2.9552965,50.7184285
          -2.9552542,50.7184515
          -2.9551910,50.7184811
          -2.9551282,50.7185160
          -2.9550615,50.7185569
          -2.9549921,50.7185976
          -2.9549232,50.7186422
          -2.9548615,50.7186850
          -2.9548102,50.7187229
          -2.9547784,50.7187637
          -2.9547631,50.7188006
          -2.9547517,50.7188378
          -2.9547264,50.7188670
          -2.9546645,50.7189211
          -2.9545853,50.7189802
          -2.9545030,50.7190388
          -2.9544294,50.7190808
          -2.9543529,50.7191110
          -2.9542708,50.7191458
          -2.9541866,50.7191862
          -2.9541026,50.7192107
          -2.9540335,50.7192397
          -2.9539740,50.7192799
          -2.9539072,50.7193193
          -2.9538220,50.7193610
          -2.9537260,50.7194143
          -2.9536359,50.7194550
          -2.9535668,50.7194913
          -2.9534948,50.7195272
          -2.9534085,50.7195579
          -2.9533205,50.7195925
          -2.9532378,50.7196396
          -2.9531488,50.7196746
          -2.9530550,50.7197109
          -2.9529571,50.7197521
          -2.9528716,50.7197824
          -2.9527821,50.7198125
          -2.9526888,50.7198450
          -2.9525943,50.7198717
          -2.9525013,50.7199034
          -2.9524088,50.7199271
          -2.9523184,50.7199442
          -2.9522286,50.7199566
          -2.9521247,50.7199799
          -2.9520195,50.7200126
          -2.9519186,50.7200413
          -2.9518343,50.7200706
          -2.9517537,50.7201120
          -2.9516658,50.7201610
          -2.9515778,50.7202027
          -2.9514979,50.7202315
          -2.9514168,50.7202626
          -2.9513482,50.7202927
          -2.9512777,50.7203267
          -2.9512036,50.7203754
          -2.9511104,50.7204207
          -2.9510028,50.7204379
          -2.9508850,50.7204336
          -2.9507687,50.7204405
          -2.9506716,50.7204512
          -2.9506038,50.7204685
          -2.9505211,50.7204931
          -2.9504499,50.7205210
          -2.9503915,50.7205529
          -2.9503315,50.7205943
          -2.9502666,50.7206364
          -2.9501818,50.7206766
          -2.9500790,50.7206971
          -2.9499766,50.7206984
          -2.9498952,50.7207252
          -2.9498183,50.7207642
          -2.9497384,50.7208014
          -2.9496658,50.7208316
          -2.9495829,50.7208476
          -2.9494865,50.7208559
          -2.9493973,50.7208532
          -2.9493091,50.7208518
          -2.9492276,50.7208642
          -2.9491514,50.7208829
          -2.9490756,50.7208939
          -2.9489969,50.7209023
          -2.9489216,50.7209148
          -2.9488697,50.7209300
          -2.9488132,50.7209279
          -2.9487529,50.7208981
          -2.9487221,50.7208943
          -2.9486656,50.7208847
          -2.9485888,50.7208671
          -2.9484961,50.7208474
          -2.9483939,50.7208396
          -2.9482976,50.7208370
          -2.9482039,50.7208273
          -2.9481104,50.7208160
          -2.9480144,50.7208061
          -2.9479256,50.7207944
          -2.9478372,50.7207808
          -2.9477470,50.7207693
          -2.9476599,50.7207611
          -2.9475721,50.7207541
          -2.9474870,50.7207351
          -2.9474268,50.7207009
          -2.9473503,50.7206698
          -2.9472683,50.7206528
          -2.9471849,50.7206351
          -2.9470963,50.7206168
          -2.9470049,50.7206140
          -2.9469138,50.7206288
          -2.9468202,50.7206329
          -2.9467287,50.7206408
          -2.9466384,50.7206347
          -2.9465469,50.7206098
          -2.9464628,50.7205788
          -2.9463839,50.7205384
          -2.9463048,50.7205073
          -2.9462222,50.7204784
          -2.9461525,50.7204483
          -2.9460785,50.7204158
          -2.9459852,50.7203889
          -2.9459216,50.7203946
          -2.9458786,50.7204301
          -2.9458417,50.7204671
          -2.9457678,50.7205109
          -2.9457252,50.7205428
          -2.9457306,50.7205884
          -2.9457075,50.7206218
          -2.9456502,50.7206303
          -2.9455781,50.7206495
          -2.9455154,50.7206883
          -2.9454599,50.7207292
          -2.9454100,50.7207691
          -2.9453518,50.7208136
          -2.9452885,50.7208541
          -2.9452277,50.7208928
          -2.9451587,50.7209336
          -2.9450999,50.7209771
          -2.9450468,50.7210169
          -2.9449954,50.7210556
          -2.9449543,50.7210980
          -2.9449194,50.7211502
          -2.9448679,50.7211995
          -2.9448037,50.7212449
          -2.9447515,50.7212864
          -2.9446967,50.7213079
          -2.9446065,50.7213296
          -2.9445151,50.7213548
          -2.9444216,50.7213744
          -2.9443219,50.7213892
          -2.9442269,50.7213955
          -2.9441351,50.7214033
          -2.9440463,50.7214252
          -2.9439872,50.7214497
          -2.9439666,50.7214912
          -2.9439409,50.7215350
          -2.9438867,50.7215664
          -2.9438111,50.7215897
          -2.9437355,50.7216225
          -2.9436598,50.7216614
          -2.9435897,50.7217046
          -2.9435179,50.7217438
          -2.9434443,50.7217811
          -2.9433647,50.7218100
          -2.9432833,50.7218364
          -2.9432128,50.7218669
          -2.9431543,50.7218873
          -2.9431352,50.7218551
          -2.9431239,50.7218009
          -2.9431103,50.7217522
          -2.9431009,50.7216857
          -2.9430751,50.7216489
          -2.9430291,50.7216293
          -2.9429912,50.7216153
          -2.9429593,50.7215931
          -2.9429246,50.7215532
          -2.9428963,50.7215111
          -2.9428512,50.7214710
          -2.9427863,50.7214425
          -2.9427269,50.7214256
          -2.9426633,50.7214169
          -2.9425824,50.7214193
          -2.9424998,50.7214274
          -2.9424261,50.7214288
          -2.9423593,50.7214237
          -2.9422757,50.7214081
          -2.9421986,50.7213884
          -2.9421429,50.7213623
          -2.9421008,50.7213365
          -2.9420502,50.7213065
          -2.9420058,50.7212706
          -2.9419861,50.7212376
          -2.9419541,50.7212179
          -2.9419095,50.7212042
          -2.9418527,50.7211744
          -2.9417945,50.7211441
          -2.9417539,50.7211195
          -2.9417220,50.7210946
          -2.9416989,50.7210694
          -2.9416691,50.7210472
          -2.9416169,50.7210161
          -2.9415595,50.7209897
          -2.9415026,50.7209592
          -2.9414386,50.7209456
          -2.9414081,50.7209273
          -2.9413936,50.7209132
          -2.9413565,50.7209032
          -2.9413035,50.7208966
          -2.9412611,50.7208785
          -2.9412319,50.7208486
          -2.9412027,50.7208108
          -2.9411700,50.7207821
          -2.9411264,50.7207616
          -2.9410817,50.7207351
          -2.9410392,50.7207098
          -2.9410102,50.7206852
          -2.9409817,50.7206390
          -2.9409582,50.7205952
          -2.9409403,50.7205649
          -2.9409248,50.7205296
          -2.9409119,50.7205040
          -2.9408851,50.7204715
          -2.9408533,50.7204258
          -2.9408258,50.7203776
          -2.9407907,50.7203318
          -2.9407546,50.7202812
          -2.9407094,50.7202688
          -2.9406476,50.7202906
          -2.9405705,50.7203030
          -2.9404891,50.7203120
          -2.9404063,50.7203194
          -2.9403230,50.7203270
          -2.9402415,50.7203446
          -2.9401649,50.7203684
          -2.9400934,50.7203933
          -2.9400111,50.7203884
          -2.9399307,50.7203875
          -2.9398302,50.7203961
          -2.9397377,50.7203962
          -2.9397155,50.7203685
          -2.9396562,50.7203778
          -2.9395702,50.7203970
          -2.9394829,50.7204182
          -2.9393972,50.7204327
          -2.9393305,50.7204502
          -2.9392663,50.7204729
          -2.9391936,50.7204978
          -2.9391481,50.7205182
          -2.9391143,50.7205373
          -2.9390538,50.7205583
          -2.9390091,50.7205744
          -2.9389688,50.7205936
          -2.9389556,50.7206243
          -2.9389517,50.7206689
          -2.9389382,50.7207101
          -2.9389387,50.7207608
          -2.9389203,50.7208089
          -2.9388766,50.7208548
          -2.9388460,50.7208982
          -2.9388137,50.7209586
          -2.9387745,50.7210219
          -2.9387352,50.7210789
          -2.9387044,50.7211335
          -2.9386834,50.7211890
          -2.9386648,50.7212400
          -2.9386312,50.7212908
          -2.9385645,50.7213314
          -2.9385153,50.7213701
          -2.9384950,50.7214247
          -2.9384746,50.7214774
          -2.9384569,50.7215347
          -2.9384550,50.7215907
          -2.9384767,50.7216397
          -2.9384980,50.7216899
          -2.9385129,50.7217404
          -2.9385217,50.7217886
          -2.9385165,50.7218411
          -2.9385048,50.7218951
          -2.9384730,50.7219505
          -2.9384280,50.7220052
          -2.9383723,50.7220642
          -2.9383199,50.7221168
          -2.9382770,50.7221666
          -2.9382354,50.7222160
          -2.9381997,50.7222649
          -2.9381710,50.7223183
          -2.9381327,50.7223713
          -2.9380762,50.7224275
          -2.9380178,50.7224817
          -2.9379547,50.7225296
          -2.9378963,50.7225766
          -2.9378490,50.7226236
          -2.9378041,50.7226724
          -2.9377442,50.7227225
          -2.9376572,50.7227646
          -2.9375712,50.7227993
          -2.9374844,50.7228340
          -2.9374012,50.7228729
          -2.9373280,50.7229069
          -2.9372616,50.7229431
          -2.9372019,50.7229810
          -2.9371371,50.7230278
          -2.9370466,50.7230652
          -2.9369641,50.7231064
          -2.9368817,50.7231486
          -2.9367993,50.7231924
          -2.9367144,50.7232292
          -2.9366299,50.7232693
          -2.9365430,50.7233065
          -2.9364545,50.7233345
          -2.9363782,50.7233679
          -2.9362922,50.7234001
          -2.9362029,50.7234381
          -2.9361168,50.7234722
          -2.9360266,50.7235029
          -2.9359363,50.7235327
          -2.9358446,50.7235649
          -2.9357590,50.7235907
          -2.9356908,50.7236098
          -2.9356198,50.7236391
          -2.9355489,50.7236768
          -2.9354787,50.7237148
          -2.9353894,50.7237485
          -2.9353007,50.7237677
          -2.9352199,50.7237971
          -2.9351376,50.7238232
          -2.9350579,50.7238488
          -2.9349768,50.7238834
          -2.9348915,50.7239090
          -2.9348034,50.7239377
          -2.9347071,50.7239676
          -2.9346173,50.7239989
          -2.9345296,50.7240293
          -2.9344434,50.7240545
          -2.9343451,50.7240776
          -2.9342492,50.7240998
          -2.9341642,50.7241138
          -2.9340775,50.7241354
          -2.9339935,50.7241593
          -2.9338980,50.7241884
          -2.9338014,50.7242159
          -2.9337094,50.7242376
          -2.9336200,50.7242584
          -2.9335260,50.7242829
          -2.9334266,50.7243033
          -2.9333354,50.7243232
          -2.9332532,50.7243407
          -2.9332028,50.7243678
          -2.9331437,50.7243960
          -2.9330971,50.7244332
          -2.9330549,50.7244749
          -2.9329692,50.7245081
          -2.9328558,50.7245233
          -2.9327580,50.7245315
          -2.9326773,50.7245521
          -2.9326439,50.7245601
          -2.9325851,50.7245975
          -2.9324820,50.7246412
          -2.9323729,50.7246833
          -2.9322693,50.7247178
          -2.9321746,50.7247255
          -2.9320891,50.7247301
          -2.9320090,50.7247445
          -2.9319255,50.7247604
          -2.9318259,50.7247722
          -2.9317499,50.7247741
          -2.9317296,50.7247372
          -2.9317594,50.7246889
          -2.9317876,50.7246676
          -2.9318259,50.7247040
          -2.9318644,50.7246973
          -2.9319528,50.7246889
          -2.9320157,50.7246623
          -2.9320526,50.7246500
          -2.9321194,50.7246393
          -2.9322105,50.7246391
          -2.9323004,50.7246424
          -2.9323865,50.7246224
          -2.9324652,50.7245811
          -2.9325491,50.7245499
          -2.9326351,50.7245259
          -2.9327188,50.7245074
          -2.9328096,50.7244948
          -2.9328856,50.7244947
          -2.9329485,50.7244978
          -2.9330044,50.7244894
          -2.9330767,50.7244691
          -2.9331562,50.7244387
          -2.9331819,50.7243905
          -2.9332035,50.7243426
          -2.9332373,50.7242954
          -2.9332785,50.7242918
          -2.9332951,50.7243061
          -2.9333468,50.7243091
          -2.9334323,50.7242989
          -2.9335234,50.7242883
          -2.9336061,50.7242698
          -2.9336859,50.7242532
          -2.9337498,50.7242439
          -2.9337878,50.7242380
          -2.9338342,50.7242274
          -2.9338960,50.7242111
          -2.9339525,50.7241932
          -2.9340084,50.7241830
          -2.9340653,50.7241745
          -2.9341425,50.7241477
          -2.9342236,50.7241312
          -2.9343116,50.7241152
          -2.9343866,50.7240911
          -2.9344503,50.7240693
          -2.9345051,50.7240565
          -2.9345921,50.7240331
          -2.9346773,50.7240076
          -2.9347591,50.7239877
          -2.9348345,50.7239638
          -2.9349070,50.7239347
          -2.9349822,50.7239044
          -2.9350583,50.7238969
          -2.9350289,50.7239194
          -2.9349573,50.7239472
          -2.9348970,50.7239592
          -2.9348322,50.7239771
          -2.9347436,50.7240065
          -2.9346599,50.7240357
          -2.9345784,50.7240622
          -2.9344955,50.7240829
          -2.9344134,50.7241038
          -2.9343253,50.7241196
          -2.9342419,50.7241393
          -2.9341907,50.7241527
          -2.9341365,50.7241725
          -2.9340516,50.7241941
          -2.9339609,50.7242117
          -2.9339038,50.7242343
          -2.9338669,50.7242606
          -2.9338019,50.7242963
          -2.9337234,50.7242929
          -2.9336541,50.7242978
          -2.9335574,50.7243302
          -2.9334713,50.7243497
          -2.9334137,50.7243675
          -2.9334004,50.7244143
          -2.9333882,50.7244619
          -2.9333792,50.7244952
          -2.9333930,50.7245080
          -2.9334269,50.7245455
          -2.9334696,50.7245835
          -2.9335462,50.7246059
          -2.9336177,50.7246129
          -2.9336959,50.7246149
          -2.9337715,50.7246236
          -2.9338467,50.7246280
          -2.9339246,50.7246339
          -2.9340107,50.7246409
          -2.9340948,50.7246541
          -2.9341793,50.7246669
          -2.9342642,50.7246790
          -2.9343332,50.7246994
          -2.9344082,50.7247225
          -2.9344732,50.7247435
          -2.9345476,50.7247537
          -2.9346343,50.7247723
          -2.9347164,50.7248004
          -2.9347877,50.7248259
          -2.9348580,50.7248479
          -2.9349361,50.7248638
          -2.9350148,50.7248874
          -2.9350894,50.7249108
          -2.9351697,50.7249262
          -2.9352500,50.7249397
          -2.9353272,50.7249575
          -2.9353896,50.7249850
          -2.9354662,50.7250085
          -2.9355499,50.7250223
          -2.9356183,50.7250390
          -2.9356954,50.7250559
          -2.9357868,50.7250637
          -2.9358701,50.7250782
          -2.9359478,50.7250812
          -2.9360307,50.7250885
          -2.9361200,50.7250993
          -2.9362048,50.7251116
          -2.9362503,50.7251171
          -2.9363406,50.7251140
          -2.9364207,50.7251098
          -2.9364888,50.7250891
          -2.9365559,50.7250803
          -2.9366358,50.7250803
          -2.9367173,50.7250626
          -2.9368037,50.7250518
          -2.9368714,50.7250459
          -2.9369333,50.7250189
          -2.9369991,50.7249953
          -2.9370876,50.7249799
          -2.9371671,50.7249621
          -2.9372433,50.7249135
          -2.9373134,50.7248738
          -2.9373895,50.7248389
          -2.9374704,50.7248173
          -2.9375372,50.7248081
          -2.9375977,50.7247895
          -2.9376464,50.7247709
          -2.9377256,50.7247612
          -2.9377989,50.7247353
          -2.9378716,50.7247147
          -2.9379387,50.7246963
          -2.9380131,50.7246756
          -2.9380877,50.7246555
          -2.9381565,50.7246281
          -2.9382394,50.7246131
          -2.9383303,50.7246015
          -2.9384223,50.7245916
          -2.9385080,50.7245860
          -2.9385881,50.7245882
          -2.9386561,50.7245573
          -2.9387286,50.7245382
          -2.9388098,50.7245267
          -2.9388934,50.7245279
          -2.9389765,50.7245185
          -2.9390631,50.7244981
          -2.9391492,50.7244787
          -2.9392332,50.7244675
          -2.9393089,50.7244478
          -2.9393914,50.7244381
          -2.9394730,50.7244337
          -2.9395521,50.7244193
          -2.9396375,50.7244066
          -2.9397225,50.7243962
          -2.9398090,50.7243884
          -2.9398927,50.7243834
          -2.9399768,50.7243800
          -2.9400562,50.7243703
          -2.9401276,50.7243446
          -2.9402117,50.7243437
          -2.9402879,50.7243599
          -2.9403789,50.7243680
          -2.9404674,50.7243812
          -2.9405503,50.7243867
          -2.9406243,50.7243911
          -2.9406901,50.7243633
          -2.9407234,50.7243159
          -2.9407730,50.7242682
          -2.9408353,50.7242188
          -2.9409114,50.7241712
          -2.9409943,50.7241360
          -2.9410514,50.7240927
          -2.9410853,50.7240418
          -2.9411276,50.7239887
          -2.9411657,50.7239359
          -2.9412009,50.7238767
          -2.9412460,50.7238202
          -2.9413319,50.7237814
          -2.9414345,50.7237775
        </coordinates>
      </LineString>
    </Placemark>
  </Document>
</kml>
