<?xml version="1.0" encoding="UTF-8"?>
<kml xmlns="http://www.opengis.net/kml/2.2" xmlns:xsi="http://www.w3.org/2001/XMLSchema-instance" xsi:schemaLocation="http://www.opengis.net/kml/2.2 http://schemas.opengis.net/kml/2.2.0/ogckml22.xsd">
  <Document>
    <name>GPS Wizard</name>
    <open>1</open>
    <Style id="wizard">
      <LineStyle>
        <color>a00000ff</color>
        <width>2</width>
      </LineStyle>
    </Style>
    <Placemark>
      <name>TBC</name>
      <styleUrl>#wizard</styleUrl>
      <LineString>
        <extrude>1</extrude>
        <tessellate>1</tessellate>
        <coordinates>
          -2.2536001,50.6197575
          -2.2535687,50.6197412
          -2.2535264,50.6197267
          -2.2534743,50.6197095
          -2.2534307,50.6196922
          -2.2533761,50.6196714
          -2.2533221,50.6196532
          -2.2532717,50.6196378
          -2.2532220,50.6196315
          -2.2531719,50.6196141
          -2.2531290,50.6195964
          -2.2530811,50.6195839
          -2.2530307,50.6195745
          -2.2529737,50.6195705
          -2.2529206,50.6195908
          -2.2528806,50.6196235
          -2.2528516,50.6196489
          -2.2528297,50.6196786
          -2.2528043,50.6197091
          -2.2527874,50.6197359
          -2.2527674,50.6197611
          -2.2526855,50.6197684
          -2.2526910,50.6197268
          -2.2526948,50.6196883
          -2.2527154,50.6196471
          -2.2527527,50.6196054
          -2.2527766,50.6195656
          -2.2527887,50.6195191
          -2.2527715,50.6195124
          -2.2527650,50.6195226
          -2.2528166,50.6195825
          -2.2528165,50.6196210
          -2.2527911,50.6196563
          -2.2527567,50.6196916
          -2.2527401,50.6197242
          -2.2527302,50.6197548
          -2.2527007,50.6197866
          -2.2526510,50.6198045
          -2.2525965,50.6198144
          -2.2525399,50.6198303
          -2.2524886,50.6198509
          -2.2524337,50.6198647
          -2.2523710,50.6198657
          -2.2523101,50.6198501
          -2.2522373,50.6198374
          -2.2521666,50.6198354
          -2.2521069,50.6198253
          -2.2520468,50.6198089
          -2.2519945,50.6197905
          -2.2519423,50.6197703
          -2.2518817,50.6197469
          -2.2518231,50.6197297
          -2.2517611,50.6197157
          -2.2516960,50.6196953
          -2.2516270,50.6196793
          -2.2515581,50.6196702
          -2.2514993,50.6196629
          -2.2514488,50.6196630
          -2.2513796,50.6196570
          -2.2513320,50.6196466
          -2.2512755,50.6196354
          -2.2512074,50.6196279
          -2.2511343,50.6196100
          -2.2510734,50.6195891
          -2.2510331,50.6195735
          -2.2509728,50.6195504
          -2.2509067,50.6195311
          -2.2508560,50.6195106
          -2.2508102,50.6194826
          -2.2507675,50.6194613
          -2.2507206,50.6194336
          -2.2506758,50.6194004
          -2.2506350,50.6193728
          -2.2505908,50.6193472
          -2.2505453,50.6193184
          -2.2505002,50.6192886
          -2.2504550,50.6192522
          -2.2504102,50.6192158
          -2.2503642,50.6191897
          -2.2503155,50.6191635
          -2.2502655,50.6191420
          -2.2502383,50.6191174
          -2.2502013,50.6190777
          -2.2501690,50.6190419
          -2.2501514,50.6190087
          -2.2501363,50.6189722
          -2.2501124,50.6189415
          -2.2500803,50.6189151
          -2.2500463,50.6188828
          -2.2500096,50.6188543
          -2.2499727,50.6188310
          -2.2499190,50.6187979
          -2.2498663,50.6187737
          -2.2498199,50.6187660
          -2.2497748,50.6187458
          -2.2498149,50.6187520
          -2.2498269,50.6187256
          -2.2498117,50.6186822
          -2.2498327,50.6186592
          -2.2498739,50.6186624
          -2.2497981,50.6186820
          -2.2497130,50.6186938
          -2.2496366,50.6187463
          -2.2495877,50.6187902
          -2.2495618,50.6188176
          -2.2495386,50.6188387
          -2.2494980,50.6188778
          -2.2494674,50.6189042
          -2.2494480,50.6189271
          -2.2494237,50.6189518
          -2.2494087,50.6190030
          -2.2494036,50.6190243
          -2.2493724,50.6190668
          -2.2492756,50.6190813
          -2.2492550,50.6191037
          -2.2492362,50.6191224
          -2.2492106,50.6191454
          -2.2491754,50.6191701
          -2.2491437,50.6191889
          -2.2491130,50.6192014
          -2.2490732,50.6192149
          -2.2490274,50.6192189
          -2.2489812,50.6192321
          -2.2489507,50.6192546
          -2.2489068,50.6192739
          -2.2488621,50.6192831
          -2.2488215,50.6192962
          -2.2487795,50.6193082
          -2.2487409,50.6193198
          -2.2486840,50.6193471
          -2.2486394,50.6193622
          -2.2485782,50.6193543
          -2.2485807,50.6193191
          -2.2486179,50.6193005
          -2.2486594,50.6192865
          -2.2486935,50.6192761
          -2.2487237,50.6192628
          -2.2487669,50.6192552
          -2.2488114,50.6192453
          -2.2488554,50.6192282
          -2.2489040,50.6192099
          -2.2489546,50.6191943
          -2.2490004,50.6191786
          -2.2490320,50.6191607
          -2.2490593,50.6191464
          -2.2490857,50.6191185
          -2.2491209,50.6190932
          -2.2491466,50.6190814
          -2.2491808,50.6190661
          -2.2492142,50.6190504
          -2.2492469,50.6190296
          -2.2492756,50.6190147
          -2.2493359,50.6189745
          -2.2493763,50.6189487
          -2.2494172,50.6189224
          -2.2494566,50.6189001
          -2.2494837,50.6188729
          -2.2495045,50.6188473
          -2.2495295,50.6188218
          -2.2495586,50.6187986
          -2.2496028,50.6187603
          -2.2496276,50.6187393
          -2.2496506,50.6187125
          -2.2496837,50.6186903
          -2.2498006,50.6186879
          -2.2498418,50.6187020
          -2.2498743,50.6187306
          -2.2499107,50.6187597
          -2.2499474,50.6187879
          -2.2499849,50.6188141
          -2.2500102,50.6188604
          -2.2500279,50.6188819
          -2.2500603,50.6189092
          -2.2501000,50.6189403
          -2.2501428,50.6189667
          -2.2501865,50.6189934
          -2.2502191,50.6190250
          -2.2502551,50.6190516
          -2.2502869,50.6190762
          -2.2503180,50.6191077
          -2.2503524,50.6191359
          -2.2503953,50.6191602
          -2.2504352,50.6191892
          -2.2504759,50.6192177
          -2.2505175,50.6192422
          -2.2505451,50.6192590
          -2.2505734,50.6192843
          -2.2506092,50.6193115
          -2.2506376,50.6193346
          -2.2506472,50.6193511
          -2.2506671,50.6193784
          -2.2507047,50.6194062
          -2.2507438,50.6194324
          -2.2507890,50.6194534
          -2.2508293,50.6194636
          -2.2508659,50.6194806
          -2.2509071,50.6195047
          -2.2509566,50.6195359
          -2.2509947,50.6195654
          -2.2510444,50.6195906
          -2.2510961,50.6196100
          -2.2511440,50.6196209
          -2.2511837,50.6196128
          -2.2512654,50.6196206
          -2.2513213,50.6196365
          -2.2513639,50.6196330
          -2.2514285,50.6196418
          -2.2514877,50.6196542
          -2.2515276,50.6196661
          -2.2515815,50.6196801
          -2.2516394,50.6196922
          -2.2517028,50.6197077
          -2.2517669,50.6197207
          -2.2518156,50.6197314
          -2.2518505,50.6197437
          -2.2518897,50.6197659
          -2.2519383,50.6197792
          -2.2519894,50.6197894
          -2.2520489,50.6198028
          -2.2521045,50.6198031
          -2.2521669,50.6197888
          -2.2522369,50.6197797
          -2.2523124,50.6197718
          -2.2524001,50.6197564
          -2.2524712,50.6197563
          -2.2525347,50.6197671
          -2.2525978,50.6197680
          -2.2526488,50.6197800
          -2.2526891,50.6197798
          -2.2527014,50.6197373
          -2.2527035,50.6196991
          -2.2527344,50.6196621
          -2.2527478,50.6196145
          -2.2527654,50.6195542
          -2.2527707,50.6194378
          -2.2528154,50.6195107
          -2.2528242,50.6195522
          -2.2528544,50.6195746
          -2.2529416,50.6195666
          -2.2530311,50.6195636
          -2.2531062,50.6195785
          -2.2531512,50.6195950
          -2.2531402,50.6196132
          -2.2531606,50.6196193
          -2.2532028,50.6196254
          -2.2532502,50.6196318
          -2.2533016,50.6196290
          -2.2533460,50.6196333
          -2.2533901,50.6196421
          -2.2534288,50.6196635
          -2.2534766,50.6196869
          -2.2535284,50.6197263
          -2.2535515,50.6197780
        </coordinates>
      </LineString>
    </Placemark>
  </Document>
</kml>
