<?xml version="1.0" encoding="UTF-8"?>
<kml xmlns="http://www.opengis.net/kml/2.2" xmlns:xsi="http://www.w3.org/2001/XMLSchema-instance" xsi:schemaLocation="http://www.opengis.net/kml/2.2 http://schemas.opengis.net/kml/2.2.0/ogckml22.xsd">
  <Document>
    <name>GPS Wizard</name>
    <open>1</open>
    <Style id="wizard">
      <LineStyle>
        <color>a00000ff</color>
        <width>2</width>
      </LineStyle>
    </Style>
    <Placemark>
      <name>TBC</name>
      <styleUrl>#wizard</styleUrl>
      <LineString>
        <extrude>1</extrude>
        <tessellate>1</tessellate>
        <coordinates>
          -4.9774188,50.5451586
          -4.9773428,50.5451633
          -4.9773526,50.5451682
          -4.9774150,50.5451609
          -4.9774755,50.5451277
          -4.9775592,50.5450866
          -4.9776209,50.5450439
          -4.9776794,50.5450005
          -4.9777110,50.5449547
          -4.9777230,50.5449306
          -4.9777546,50.5449201
          -4.9778375,50.5449404
          -4.9778981,50.5449520
          -4.9779659,50.5449693
          -4.9780255,50.5449776
          -4.9780721,50.5449817
          -4.9780760,50.5449796
          -4.9781798,50.5449872
          -4.9782669,50.5449858
          -4.9783629,50.5449927
          -4.9784601,50.5450006
          -4.9785601,50.5449988
          -4.9786267,50.5449921
          -4.9786311,50.5450076
          -4.9786453,50.5450334
          -4.9787281,50.5450382
          -4.9788376,50.5450559
          -4.9789190,50.5450722
          -4.9790247,50.5450818
          -4.9791042,50.5450643
          -4.9792003,50.5450461
          -4.9792624,50.5450389
          -4.9793415,50.5450269
          -4.9794256,50.5450076
          -4.9795054,50.5449668
          -4.9795430,50.5449143
          -4.9795728,50.5448592
          -4.9795987,50.5447932
          -4.9796504,50.5447348
          -4.9797230,50.5446830
          -4.9797887,50.5446450
          -4.9797880,50.5446448
          -4.9797880,50.5446448
          -4.9797880,50.5446448
          -4.9798621,50.5445911
          -4.9799307,50.5445486
          -4.9799718,50.5445137
          -4.9800034,50.5445028
          -4.9800074,50.5445172
          -4.9800068,50.5445153
          -4.9800066,50.5445153
          -4.9800028,50.5445213
          -4.9800066,50.5445153
          -4.9800360,50.5444785
          -4.9800960,50.5444276
          -4.9801628,50.5443994
          -4.9802388,50.5443678
          -4.9803182,50.5443344
          -4.9803836,50.5442866
          -4.9804213,50.5442367
          -4.9804865,50.5442050
          -4.9805544,50.5441679
          -4.9806318,50.5441234
          -4.9807047,50.5440793
          -4.9807297,50.5440591
          -4.9807747,50.5440284
          -4.9808252,50.5439799
          -4.9808379,50.5439495
          -4.9808933,50.5439081
          -4.9809491,50.5438732
          -4.9810061,50.5438437
          -4.9810802,50.5438087
          -4.9811540,50.5437794
          -4.9812427,50.5437428
          -4.9813286,50.5437029
          -4.9813933,50.5436644
          -4.9814734,50.5436386
          -4.9815664,50.5436266
          -4.9816671,50.5436181
          -4.9817610,50.5436082
          -4.9818494,50.5436007
          -4.9819512,50.5435896
          -4.9820413,50.5435812
          -4.9821213,50.5435860
          -4.9822123,50.5435844
          -4.9822925,50.5435723
          -4.9823729,50.5435687
          -4.9824660,50.5435698
          -4.9825682,50.5435581
          -4.9826654,50.5435461
          -4.9827674,50.5435339
          -4.9828537,50.5435234
          -4.9829407,50.5435118
          -4.9830297,50.5435043
          -4.9831051,50.5434779
          -4.9830838,50.5434147
          -4.9830416,50.5433827
          -4.9830366,50.5433780
          -4.9830465,50.5433442
          -4.9831226,50.5433078
          -4.9831841,50.5432592
          -4.9831969,50.5432003
          -4.9831849,50.5431493
          -4.9831730,50.5431029
          -4.9831695,50.5430486
          -4.9831702,50.5429913
          -4.9831816,50.5429299
          -4.9832188,50.5428640
          -4.9832858,50.5428404
          -4.9833317,50.5427980
          -4.9833507,50.5427490
          -4.9833371,50.5426975
          -4.9833065,50.5426435
          -4.9832852,50.5425831
          -4.9832633,50.5425408
          -4.9832514,50.5424869
          -4.9832418,50.5424289
          -4.9832162,50.5423669
          -4.9831808,50.5423106
          -4.9831412,50.5422590
          -4.9831124,50.5422184
          -4.9830967,50.5421691
          -4.9831007,50.5421022
          -4.9831056,50.5420522
          -4.9831114,50.5419923
          -4.9831107,50.5419372
          -4.9831320,50.5418841
          -4.9831435,50.5418683
          -4.9831400,50.5418678
          -4.9831400,50.5418678
          -4.9831613,50.5418409
          -4.9832403,50.5418214
          -4.9833401,50.5418066
          -4.9834363,50.5418031
          -4.9835373,50.5418273
          -4.9836240,50.5418610
          -4.9836918,50.5418941
          -4.9838003,50.5419172
          -4.9838919,50.5419323
          -4.9839865,50.5419486
          -4.9840793,50.5419607
          -4.9841881,50.5419689
          -4.9842781,50.5419778
          -4.9843792,50.5420035
          -4.9844444,50.5420387
          -4.9845244,50.5420838
          -4.9846200,50.5421226
          -4.9847090,50.5421451
          -4.9848213,50.5421422
          -4.9849196,50.5421214
          -4.9850108,50.5421295
          -4.9851031,50.5421363
          -4.9852015,50.5421428
          -4.9852995,50.5421487
          -4.9853848,50.5421587
          -4.9854828,50.5421648
          -4.9855604,50.5421701
          -4.9856450,50.5422098
          -4.9857121,50.5422423
          -4.9857924,50.5422748
          -4.9858826,50.5422958
          -4.9859825,50.5422940
          -4.9860816,50.5422690
          -4.9861652,50.5422584
          -4.9862533,50.5422495
          -4.9863434,50.5422438
          -4.9864087,50.5422506
          -4.9864805,50.5422815
          -4.9865438,50.5423227
          -4.9866044,50.5423705
          -4.9866692,50.5424230
          -4.9867322,50.5424659
          -4.9868254,50.5425014
          -4.9869102,50.5424808
          -4.9869678,50.5424264
          -4.9870204,50.5423668
          -4.9870787,50.5423304
          -4.9871413,50.5423212
          -4.9871463,50.5423064
          -4.9872021,50.5422513
          -4.9872785,50.5422037
          -4.9873599,50.5421756
          -4.9874543,50.5421484
          -4.9875456,50.5421228
          -4.9876452,50.5421135
          -4.9876813,50.5421264
          -4.9876813,50.5421264
          -4.9877436,50.5421589
          -4.9878341,50.5421972
          -4.9879145,50.5422442
          -4.9879807,50.5422955
          -4.9880397,50.5423506
          -4.9881001,50.5424176
          -4.9881446,50.5424798
          -4.9882038,50.5425336
          -4.9882681,50.5425938
          -4.9883200,50.5426563
          -4.9883751,50.5427082
          -4.9884302,50.5427745
          -4.9884715,50.5428330
          -4.9885239,50.5428816
          -4.9886288,50.5429027
          -4.9887213,50.5428980
          -4.9888381,50.5428938
          -4.9889389,50.5429102
          -4.9890301,50.5429356
          -4.9890853,50.5429884
          -4.9891359,50.5430476
          -4.9891759,50.5431159
          -4.9892039,50.5431752
          -4.9892445,50.5432402
          -4.9892823,50.5433097
          -4.9893457,50.5433618
          -4.9894293,50.5433686
          -4.9895203,50.5433528
          -4.9896206,50.5433417
          -4.9897138,50.5433262
          -4.9897981,50.5433132
          -4.9898957,50.5433038
          -4.9900013,50.5432789
          -4.9901102,50.5432583
          -4.9902050,50.5432352
          -4.9902837,50.5432104
          -4.9903797,50.5431806
          -4.9904719,50.5431508
          -4.9905571,50.5431173
          -4.9906432,50.5430858
          -4.9907357,50.5430561
          -4.9908149,50.5430221
          -4.9908906,50.5429852
          -4.9909597,50.5429466
          -4.9910312,50.5429173
          -4.9911458,50.5428904
          -4.9912434,50.5428911
          -4.9913401,50.5428971
          -4.9914365,50.5429118
          -4.9915309,50.5429262
          -4.9916346,50.5429416
          -4.9917349,50.5429396
          -4.9918374,50.5429214
          -4.9919118,50.5429154
          -4.9920167,50.5428971
          -4.9920998,50.5428795
          -4.9921943,50.5428472
          -4.9922863,50.5428150
          -4.9923531,50.5427877
          -4.9924298,50.5427578
          -4.9925137,50.5427216
          -4.9925830,50.5426884
          -4.9926718,50.5426404
          -4.9927509,50.5426041
          -4.9928296,50.5425757
          -4.9929231,50.5425472
          -4.9930095,50.5425263
          -4.9931020,50.5425076
          -4.9931982,50.5424865
          -4.9932870,50.5424597
          -4.9933746,50.5424334
          -4.9934579,50.5424060
          -4.9935407,50.5423774
          -4.9936299,50.5423419
          -4.9936979,50.5423050
          -4.9937730,50.5422653
          -4.9938328,50.5422299
          -4.9939087,50.5421900
          -4.9939950,50.5421493
          -4.9940690,50.5421163
          -4.9941443,50.5420741
          -4.9942074,50.5420332
          -4.9942848,50.5419901
          -4.9943555,50.5419517
          -4.9944250,50.5419070
          -4.9944697,50.5418573
          -4.9945213,50.5418016
          -4.9945755,50.5417552
          -4.9946111,50.5417022
          -4.9946563,50.5416561
          -4.9947018,50.5416064
          -4.9947451,50.5415524
          -4.9947647,50.5415000
          -4.9947833,50.5414554
          -4.9947908,50.5414044
          -4.9947997,50.5413386
          -4.9948121,50.5412805
          -4.9948181,50.5412146
          -4.9948136,50.5411664
          -4.9948075,50.5411111
          -4.9947900,50.5410526
          -4.9947655,50.5409969
          -4.9947518,50.5409395
          -4.9947203,50.5408928
          -4.9946791,50.5408485
          -4.9946194,50.5408217
          -4.9945477,50.5407858
          -4.9944821,50.5407590
          -4.9944290,50.5407221
          -4.9943626,50.5406726
          -4.9943060,50.5406351
          -4.9942444,50.5405992
          -4.9941783,50.5405690
          -4.9941008,50.5405377
          -4.9940462,50.5404974
          -4.9940117,50.5404556
          -4.9940309,50.5404061
          -4.9940743,50.5403691
          -4.9940751,50.5403239
          -4.9940290,50.5402787
          -4.9940247,50.5402160
          -4.9940224,50.5401612
          -4.9940548,50.5401366
          -4.9940516,50.5401396
          -4.9941324,50.5401451
          -4.9941818,50.5401568
          -4.9942186,50.5401767
          -4.9942822,50.5401873
          -4.9943590,50.5401705
          -4.9944281,50.5401502
          -4.9944744,50.5401290
          -4.9945184,50.5400990
          -4.9945459,50.5400928
          -4.9945459,50.5400928
          -4.9945463,50.5400912
          -4.9945494,50.5400839
          -4.9945904,50.5400493
          -4.9946281,50.5400026
          -4.9946816,50.5399667
          -4.9947118,50.5399259
          -4.9947546,50.5398767
          -4.9947958,50.5398414
          -4.9948345,50.5397990
          -4.9948616,50.5397539
          -4.9948994,50.5397040
          -4.9949400,50.5396643
          -4.9949371,50.5396187
          -4.9948888,50.5395861
          -4.9948787,50.5395546
          -4.9949060,50.5395451
          -4.9949478,50.5395327
          -4.9949716,50.5395334
          -4.9949716,50.5395334
          -4.9949716,50.5395334
          -4.9949716,50.5395334
          -4.9949716,50.5395334
          -4.9949716,50.5395334
          -4.9949716,50.5395334
          -4.9949716,50.5395334
          -4.9949716,50.5395334
          -4.9949302,50.5395224
          -4.9949117,50.5395090
          -4.9949442,50.5395226
          -4.9949248,50.5395544
          -4.9949257,50.5395736
          -4.9949525,50.5396187
          -4.9949425,50.5396748
          -4.9949217,50.5397255
          -4.9948963,50.5397787
          -4.9948586,50.5398186
          -4.9948292,50.5398648
          -4.9947815,50.5399051
          -4.9947520,50.5399446
          -4.9947212,50.5399882
          -4.9946777,50.5400304
          -4.9946360,50.5400606
          -4.9945913,50.5400852
          -4.9945510,50.5401197
          -4.9945038,50.5401575
          -4.9944540,50.5401928
          -4.9944106,50.5402272
          -4.9943614,50.5402769
          -4.9943163,50.5403097
          -4.9942944,50.5403574
          -4.9942578,50.5403959
          -4.9942260,50.5404239
          -4.9941972,50.5404388
          -4.9941900,50.5404711
          -4.9942014,50.5404937
          -4.9942097,50.5405242
          -4.9942331,50.5405678
          -4.9942751,50.5406056
          -4.9943277,50.5406487
          -4.9943837,50.5406843
          -4.9944445,50.5407239
          -4.9944882,50.5407554
          -4.9945585,50.5407867
          -4.9946361,50.5408203
          -4.9947094,50.5408638
          -4.9947556,50.5409171
          -4.9947756,50.5409744
          -4.9947948,50.5410378
          -4.9948080,50.5410935
          -4.9948225,50.5411572
          -4.9948260,50.5412082
          -4.9948256,50.5412639
          -4.9948203,50.5413252
          -4.9948204,50.5413846
          -4.9948087,50.5414395
          -4.9948031,50.5414952
          -4.9947723,50.5415591
          -4.9947275,50.5416071
          -4.9946764,50.5416579
          -4.9946268,50.5417115
          -4.9945975,50.5417648
          -4.9945645,50.5418104
          -4.9945247,50.5418592
          -4.9944673,50.5419049
          -4.9944116,50.5419506
          -4.9943337,50.5419980
          -4.9942749,50.5420306
          -4.9942107,50.5420632
          -4.9941506,50.5421005
          -4.9940907,50.5421299
          -4.9940890,50.5421226
          -4.9940758,50.5421378
          -4.9940012,50.5421785
          -4.9939275,50.5422102
          -4.9938515,50.5422488
          -4.9937797,50.5422895
          -4.9937055,50.5423266
          -4.9936445,50.5423563
          -4.9935783,50.5423765
          -4.9935752,50.5423746
          -4.9935752,50.5423746
          -4.9935552,50.5423852
          -4.9934776,50.5424126
          -4.9934616,50.5424028
          -4.9934619,50.5424082
          -4.9934619,50.5424082
          -4.9934248,50.5424331
          -4.9933385,50.5424655
          -4.9932615,50.5424989
          -4.9931746,50.5425069
          -4.9930804,50.5425303
          -4.9930028,50.5425435
          -4.9929289,50.5425711
          -4.9928438,50.5425939
          -4.9927585,50.5426143
          -4.9926785,50.5426574
          -4.9926074,50.5426968
          -4.9925292,50.5427365
          -4.9924500,50.5427715
          -4.9923673,50.5428071
          -4.9922850,50.5428397
          -4.9921954,50.5428720
          -4.9921047,50.5428957
          -4.9920042,50.5429189
          -4.9919166,50.5429402
          -4.9918171,50.5429563
          -4.9917294,50.5429659
          -4.9916158,50.5429621
          -4.9915452,50.5429420
          -4.9914658,50.5429258
          -4.9913839,50.5429125
          -4.9912918,50.5429057
          -4.9911939,50.5429036
          -4.9910940,50.5429186
          -4.9910215,50.5429492
          -4.9909427,50.5429868
          -4.9908612,50.5430261
          -4.9907868,50.5430624
          -4.9907067,50.5430945
          -4.9906253,50.5431246
          -4.9905395,50.5431531
          -4.9904570,50.5431838
          -4.9903795,50.5432115
          -4.9902685,50.5432315
          -4.9901899,50.5432650
          -4.9900960,50.5432759
          -4.9899977,50.5432988
          -4.9899092,50.5433124
          -4.9898056,50.5433177
          -4.9897186,50.5433390
          -4.9896276,50.5433614
          -4.9895254,50.5433822
          -4.9894383,50.5433918
          -4.9893415,50.5433672
          -4.9892878,50.5433130
          -4.9892461,50.5432578
          -4.9892133,50.5432018
          -4.9891830,50.5431492
          -4.9891554,50.5430941
          -4.9891254,50.5430388
          -4.9890785,50.5429905
          -4.9890020,50.5429454
          -4.9889063,50.5429212
          -4.9888291,50.5429168
          -4.9887401,50.5429168
          -4.9886419,50.5429219
          -4.9885462,50.5429083
          -4.9884815,50.5428639
          -4.9884278,50.5428137
          -4.9883942,50.5427611
          -4.9883564,50.5427066
          -4.9883217,50.5426536
          -4.9882713,50.5426035
          -4.9882168,50.5425562
          -4.9881710,50.5425082
          -4.9881320,50.5424636
          -4.9880882,50.5424156
          -4.9880457,50.5423653
          -4.9879923,50.5423171
          -4.9879340,50.5422734
          -4.9878702,50.5422334
          -4.9877927,50.5422012
          -4.9877117,50.5421554
          -4.9876454,50.5421279
          -4.9875579,50.5421387
          -4.9874703,50.5421586
          -4.9873821,50.5421744
          -4.9872884,50.5422140
          -4.9872347,50.5422614
          -4.9871704,50.5423073
          -4.9871011,50.5423257
          -4.9870300,50.5423601
          -4.9869668,50.5424051
          -4.9869072,50.5424535
          -4.9868271,50.5424746
          -4.9867272,50.5424362
          -4.9866748,50.5423832
          -4.9866121,50.5423466
          -4.9865555,50.5423043
          -4.9864929,50.5422566
          -4.9864090,50.5422223
          -4.9863217,50.5422120
          -4.9862299,50.5422168
          -4.9861236,50.5422300
          -4.9860251,50.5422394
          -4.9859491,50.5422608
          -4.9858381,50.5422550
          -4.9857530,50.5422247
          -4.9856768,50.5421880
          -4.9855954,50.5421559
          -4.9855164,50.5421381
          -4.9854094,50.5421268
          -4.9853214,50.5421224
          -4.9852441,50.5421116
          -4.9851312,50.5421056
          -4.9850397,50.5421068
          -4.9849302,50.5420985
          -4.9848505,50.5421100
          -4.9847470,50.5421134
          -4.9846472,50.5421062
          -4.9845595,50.5420775
          -4.9844878,50.5420446
          -4.9844304,50.5420042
          -4.9843458,50.5419654
          -4.9842679,50.5419457
          -4.9841705,50.5419327
          -4.9840624,50.5419232
          -4.9839751,50.5419198
          -4.9838850,50.5419030
          -4.9837894,50.5418906
          -4.9837034,50.5418732
          -4.9836267,50.5418420
          -4.9835466,50.5418023
          -4.9834698,50.5417883
          -4.9833936,50.5417842
          -4.9833045,50.5417885
          -4.9832235,50.5418089
          -4.9831491,50.5418324
          -4.9831352,50.5418508
          -4.9831232,50.5418372
          -4.9831237,50.5418377
          -4.9831141,50.5418484
          -4.9830797,50.5419048
          -4.9830899,50.5419642
          -4.9830881,50.5420251
          -4.9830654,50.5420663
          -4.9830623,50.5420808
          -4.9830915,50.5420627
          -4.9830909,50.5420620
          -4.9830909,50.5420620
          -4.9830909,50.5420620
          -4.9830909,50.5420620
          -4.9830798,50.5420609
          -4.9830876,50.5421183
          -4.9831026,50.5421925
          -4.9831371,50.5422505
          -4.9831828,50.5423122
          -4.9832041,50.5423693
          -4.9832149,50.5424343
          -4.9832245,50.5424864
          -4.9832625,50.5425548
          -4.9832841,50.5426094
          -4.9833226,50.5426791
          -4.9833253,50.5427383
          -4.9832719,50.5427934
          -4.9831997,50.5428287
          -4.9831538,50.5428835
          -4.9831433,50.5429529
          -4.9831447,50.5430174
          -4.9831494,50.5430836
          -4.9831562,50.5431438
          -4.9831625,50.5432125
          -4.9831263,50.5432666
          -4.9830590,50.5432974
          -4.9830231,50.5433282
          -4.9830232,50.5433538
          -4.9830244,50.5433535
          -4.9830195,50.5433550
          -4.9830690,50.5433952
          -4.9831069,50.5434260
          -4.9831230,50.5434422
          -4.9831230,50.5434422
          -4.9831442,50.5434402
          -4.9830844,50.5434598
          -4.9830020,50.5434634
          -4.9829335,50.5434695
          -4.9828490,50.5434807
          -4.9827566,50.5434928
          -4.9826693,50.5434990
          -4.9825880,50.5435151
          -4.9824930,50.5435120
          -4.9824095,50.5435095
          -4.9823156,50.5435198
          -4.9822221,50.5435283
          -4.9821347,50.5435350
          -4.9820511,50.5435288
          -4.9819598,50.5435396
          -4.9818759,50.5435426
          -4.9817733,50.5435499
          -4.9816787,50.5435591
          -4.9815925,50.5435665
          -4.9814946,50.5435855
          -4.9814246,50.5436191
          -4.9813516,50.5436566
          -4.9812753,50.5436946
          -4.9811953,50.5437312
          -4.9811154,50.5437530
          -4.9810445,50.5437826
          -4.9809868,50.5438110
          -4.9809041,50.5438564
          -4.9808697,50.5438765
          -4.9808795,50.5438754
          -4.9808795,50.5438754
          -4.9808795,50.5438754
          -4.9808795,50.5438754
          -4.9808795,50.5438754
          -4.9808795,50.5438754
          -4.9808795,50.5438754
          -4.9808795,50.5438754
          -4.9808795,50.5438754
          -4.9808582,50.5438954
          -4.9808073,50.5439431
          -4.9807594,50.5440018
          -4.9806984,50.5440552
          -4.9806418,50.5440988
          -4.9805615,50.5441343
          -4.9805005,50.5441631
          -4.9804209,50.5442029
          -4.9803641,50.5442501
          -4.9802896,50.5442942
          -4.9802175,50.5443388
          -4.9801460,50.5443808
          -4.9800783,50.5444242
          -4.9800183,50.5444658
          -4.9799458,50.5445140
          -4.9798820,50.5445567
          -4.9797969,50.5446026
          -4.9797359,50.5446398
          -4.9796615,50.5446769
          -4.9796138,50.5447130
          -4.9796247,50.5447093
          -4.9795993,50.5447433
          -4.9795772,50.5448147
          -4.9795539,50.5448598
          -4.9795124,50.5449068
          -4.9794605,50.5449445
          -4.9794001,50.5449776
          -4.9793089,50.5449860
          -4.9792240,50.5449890
          -4.9791389,50.5449883
          -4.9791003,50.5450128
          -4.9790278,50.5450479
          -4.9789206,50.5450360
          -4.9788344,50.5450221
          -4.9787471,50.5450140
          -4.9786677,50.5450182
          -4.9785777,50.5450131
          -4.9784818,50.5450290
          -4.9783885,50.5450243
          -4.9782973,50.5450296
          -4.9782046,50.5450310
          -4.9781107,50.5450361
          -4.9780207,50.5450489
          -4.9779232,50.5450581
          -4.9778311,50.5450645
          -4.9777361,50.5450783
          -4.9776530,50.5450841
          -4.9775674,50.5450908
          -4.9774937,50.5451131
          -4.9774233,50.5451325
          -4.9773544,50.5451423
          -4.9773201,50.5451449
          -4.9772966,50.5451556
          -4.9773126,50.5451622
          -4.9772998,50.5451572
          -4.9772961,50.5451590
          -4.9772843,50.5451541
          -4.9772961,50.5451590
          -4.9772961,50.5451590
          -4.9772961,50.5451590
          -4.9772961,50.5451590
          -4.9772961,50.5451590
          -4.9772961,50.5451590
          -4.9772961,50.5451590
          -4.9772961,50.5451590
          -4.9772961,50.5451590
          -4.9772961,50.5451590
          -4.9772961,50.5451590
          -4.9772961,50.5451590
          -4.9772981,50.5451472
          -4.9773003,50.5451703
          -4.9772973,50.5451715
          -4.9772961,50.5451590
          -4.9772961,50.5451590
          -4.9772950,50.5451603
          -4.9772961,50.5451590
          -4.9773129,50.5451690
          -4.9773175,50.5451718
          -4.9773175,50.5451718
          -4.9773175,50.5451718
          -4.9773175,50.5451718
          -4.9773175,50.5451718
          -4.9773175,50.5451718
          -4.9773175,50.5451718
          -4.9773175,50.5451718
          -4.9773175,50.5451718
          -4.9773175,50.5451718
        </coordinates>
      </LineString>
    </Placemark>
  </Document>
</kml>
