<?xml version="1.0" encoding="UTF-8"?>
<kml xmlns="http://www.opengis.net/kml/2.2" xmlns:xsi="http://www.w3.org/2001/XMLSchema-instance" xsi:schemaLocation="http://www.opengis.net/kml/2.2 http://schemas.opengis.net/kml/2.2.0/ogckml22.xsd">
  <Document>
    <name>GPS Wizard</name>
    <open>1</open>
    <Style id="wizard">
      <LineStyle>
        <color>a00000ff</color>
        <width>2</width>
      </LineStyle>
    </Style>
    <Placemark>
      <name>TBC</name>
      <styleUrl>#wizard</styleUrl>
      <LineString>
        <extrude>1</extrude>
        <tessellate>1</tessellate>
        <coordinates>
          -5.0862782,50.4130016
          -5.0862980,50.4130038
          -5.0862859,50.4130047
          -5.0862859,50.4130047
          -5.0863004,50.4130068
          -5.0862398,50.4130174
          -5.0861549,50.4130357
          -5.0860337,50.4130406
          -5.0860288,50.4130325
          -5.0860288,50.4130325
          -5.0860306,50.4130393
          -5.0860288,50.4130325
          -5.0860821,50.4130198
          -5.0861786,50.4130068
          -5.0862179,50.4130156
          -5.0862160,50.4130169
          -5.0862160,50.4130169
          -5.0862160,50.4130169
          -5.0862160,50.4130169
          -5.0862160,50.4130169
          -5.0862160,50.4130169
          -5.0862160,50.4130169
          -5.0862160,50.4130169
          -5.0862160,50.4130169
          -5.0862160,50.4130169
          -5.0862160,50.4130169
          -5.0862160,50.4130169
          -5.0862160,50.4130169
          -5.0862160,50.4130169
          -5.0862160,50.4130169
          -5.0862160,50.4130169
          -5.0862160,50.4130169
          -5.0862160,50.4130169
          -5.0862160,50.4130169
          -5.0862160,50.4130169
          -5.0862160,50.4130169
          -5.0862160,50.4130169
          -5.0862160,50.4130169
          -5.0862160,50.4130169
          -5.0862160,50.4130169
          -5.0862160,50.4130169
          -5.0862160,50.4130169
          -5.0862160,50.4130169
          -5.0862160,50.4130169
          -5.0862160,50.4130169
          -5.0862160,50.4130169
          -5.0862160,50.4130169
          -5.0862160,50.4130169
          -5.0862160,50.4130169
          -5.0862160,50.4130169
          -5.0862160,50.4130169
          -5.0862160,50.4130169
          -5.0862160,50.4130169
          -5.0862160,50.4130169
          -5.0862160,50.4130169
          -5.0862160,50.4130169
          -5.0862160,50.4130169
          -5.0862160,50.4130169
          -5.0862160,50.4130169
          -5.0862160,50.4130169
          -5.0862160,50.4130169
          -5.0862160,50.4130169
          -5.0862160,50.4130169
          -5.0862193,50.4130155
          -5.0862007,50.4130161
          -5.0862056,50.4130163
          -5.0861544,50.4130113
          -5.0861038,50.4130259
          -5.0860342,50.4130269
          -5.0859459,50.4130335
          -5.0858649,50.4130299
          -5.0857934,50.4130393
          -5.0857166,50.4130451
          -5.0856457,50.4130331
          -5.0855822,50.4130076
          -5.0855343,50.4129652
          -5.0854662,50.4129408
          -5.0853887,50.4129421
          -5.0853053,50.4129524
          -5.0852184,50.4129634
          -5.0851300,50.4129732
          -5.0850517,50.4129811
          -5.0849622,50.4129868
          -5.0848773,50.4129886
          -5.0848200,50.4129978
          -5.0847545,50.4130117
          -5.0846739,50.4130230
          -5.0845893,50.4130279
          -5.0845153,50.4130326
          -5.0844222,50.4130334
          -5.0843448,50.4130358
          -5.0842745,50.4130337
          -5.0842562,50.4130373
          -5.0842185,50.4130321
          -5.0842043,50.4130298
          -5.0842043,50.4130298
          -5.0842043,50.4130298
          -5.0842043,50.4130298
          -5.0842043,50.4130298
          -5.0841890,50.4130212
          -5.0841817,50.4130078
          -5.0841481,50.4130362
          -5.0840614,50.4130539
          -5.0840129,50.4130654
          -5.0840222,50.4130634
          -5.0840222,50.4130634
          -5.0840222,50.4130634
          -5.0840222,50.4130634
          -5.0840222,50.4130634
          -5.0840222,50.4130634
          -5.0840222,50.4130634
          -5.0840222,50.4130634
          -5.0840222,50.4130634
          -5.0840222,50.4130634
          -5.0840222,50.4130634
          -5.0840222,50.4130634
          -5.0840222,50.4130634
          -5.0840222,50.4130634
          -5.0840195,50.4130669
          -5.0840222,50.4130634
          -5.0840222,50.4130634
          -5.0840222,50.4130634
          -5.0840222,50.4130634
          -5.0840222,50.4130634
          -5.0840222,50.4130634
          -5.0840222,50.4130634
          -5.0840222,50.4130634
          -5.0840222,50.4130634
          -5.0840222,50.4130634
          -5.0840097,50.4130672
          -5.0839336,50.4130714
          -5.0838543,50.4130929
          -5.0837751,50.4131123
          -5.0836980,50.4131259
          -5.0836194,50.4131391
          -5.0835366,50.4131541
          -5.0834967,50.4131593
          -5.0834967,50.4131593
          -5.0835542,50.4131347
          -5.0836505,50.4131143
          -5.0837474,50.4130941
          -5.0838325,50.4130681
          -5.0839240,50.4130575
          -5.0840324,50.4130339
          -5.0840652,50.4130329
          -5.0839897,50.4130503
          -5.0839926,50.4130743
          -5.0840391,50.4131145
          -5.0840885,50.4131597
          -5.0841244,50.4131931
          -5.0841592,50.4132404
          -5.0842032,50.4133041
          -5.0842430,50.4133543
          -5.0842905,50.4133927
          -5.0843128,50.4134312
          -5.0843207,50.4134507
          -5.0843205,50.4134504
          -5.0843205,50.4134504
          -5.0843205,50.4134504
          -5.0843229,50.4135242
          -5.0843346,50.4135859
          -5.0843398,50.4136314
          -5.0843710,50.4136939
          -5.0843957,50.4137685
          -5.0844386,50.4138284
          -5.0844987,50.4138590
          -5.0845859,50.4139052
          -5.0846402,50.4139525
          -5.0847138,50.4139772
          -5.0848061,50.4140080
          -5.0849050,50.4140425
          -5.0849883,50.4140718
          -5.0850683,50.4140977
          -5.0851580,50.4141226
          -5.0852499,50.4141456
          -5.0853438,50.4141736
          -5.0854308,50.4142000
          -5.0855128,50.4142213
          -5.0856110,50.4142495
          -5.0856865,50.4142678
          -5.0857335,50.4142950
          -5.0857148,50.4143610
          -5.0856822,50.4144189
          -5.0856396,50.4144741
          -5.0856222,50.4145270
          -5.0856258,50.4145888
          -5.0855959,50.4146438
          -5.0855653,50.4146982
          -5.0855211,50.4147452
          -5.0854737,50.4147965
          -5.0854287,50.4148503
          -5.0853916,50.4149037
          -5.0853470,50.4149604
          -5.0853219,50.4149829
          -5.0852698,50.4149970
          -5.0851838,50.4149892
          -5.0850907,50.4149684
          -5.0850049,50.4149474
          -5.0849263,50.4149264
          -5.0848233,50.4148998
          -5.0847535,50.4148749
          -5.0846651,50.4148617
          -5.0846030,50.4148612
          -5.0845142,50.4148555
          -5.0844038,50.4148581
          -5.0843140,50.4148703
          -5.0842141,50.4148762
          -5.0841447,50.4149044
          -5.0841289,50.4149185
          -5.0841289,50.4149185
          -5.0841289,50.4149185
          -5.0841289,50.4149185
          -5.0841217,50.4149121
          -5.0840345,50.4149114
          -5.0839401,50.4148986
          -5.0838690,50.4149011
          -5.0837796,50.4149038
          -5.0836736,50.4149019
          -5.0835861,50.4148967
          -5.0834980,50.4148936
          -5.0834206,50.4149044
          -5.0833340,50.4149257
          -5.0832828,50.4149312
          -5.0832451,50.4149398
          -5.0832124,50.4149447
          -5.0831767,50.4149507
          -5.0831456,50.4149462
          -5.0831489,50.4149357
          -5.0831386,50.4149211
          -5.0831327,50.4149013
          -5.0831235,50.4148717
          -5.0831100,50.4148545
          -5.0830977,50.4148391
          -5.0830741,50.4148037
          -5.0830508,50.4147515
          -5.0829836,50.4147165
          -5.0829104,50.4147371
          -5.0828339,50.4147550
          -5.0827450,50.4147720
          -5.0826745,50.4148017
          -5.0826007,50.4148314
          -5.0825787,50.4148674
          -5.0825814,50.4148733
          -5.0825814,50.4148733
          -5.0825814,50.4148733
          -5.0825814,50.4148733
          -5.0825814,50.4148733
          -5.0825656,50.4148763
          -5.0825559,50.4148791
          -5.0825559,50.4148783
          -5.0825225,50.4148796
          -5.0824567,50.4148933
          -5.0823989,50.4148925
          -5.0823402,50.4148841
          -5.0822664,50.4148748
          -5.0821980,50.4148747
          -5.0821468,50.4149133
          -5.0820951,50.4149449
          -5.0820392,50.4149741
          -5.0819766,50.4150141
          -5.0819291,50.4150402
          -5.0819122,50.4150477
          -5.0819122,50.4150477
          -5.0818517,50.4150823
          -5.0817831,50.4151228
          -5.0817152,50.4151606
          -5.0816500,50.4151956
          -5.0815854,50.4152273
          -5.0815153,50.4152595
          -5.0814314,50.4152965
          -5.0813569,50.4153347
          -5.0813027,50.4153818
          -5.0812245,50.4153887
          -5.0811387,50.4153875
          -5.0810447,50.4153538
          -5.0809801,50.4153015
          -5.0809440,50.4152541
          -5.0809039,50.4152100
          -5.0808592,50.4151553
          -5.0808160,50.4151005
          -5.0807814,50.4150499
          -5.0807308,50.4149995
          -5.0806600,50.4149643
          -5.0805639,50.4149845
          -5.0804808,50.4150074
          -5.0804280,50.4150306
          -5.0804019,50.4150423
          -5.0804019,50.4150423
          -5.0803789,50.4150425
          -5.0803251,50.4149995
          -5.0803119,50.4149490
          -5.0802832,50.4148820
          -5.0802502,50.4148350
          -5.0802212,50.4147869
          -5.0802010,50.4147272
          -5.0801922,50.4147187
          -5.0801678,50.4147202
          -5.0801607,50.4147169
          -5.0801607,50.4147169
          -5.0801375,50.4147110
          -5.0800989,50.4147272
          -5.0800377,50.4147386
          -5.0799688,50.4147630
          -5.0798863,50.4147933
          -5.0798138,50.4148162
          -5.0797321,50.4148408
          -5.0796335,50.4148667
          -5.0795512,50.4148953
          -5.0794379,50.4149237
          -5.0793593,50.4149449
          -5.0792565,50.4149646
          -5.0791682,50.4149762
          -5.0790592,50.4149946
          -5.0789732,50.4150101
          -5.0788570,50.4150186
          -5.0787584,50.4150321
          -5.0786572,50.4150407
          -5.0785682,50.4150456
          -5.0784687,50.4150491
          -5.0783661,50.4150489
          -5.0782822,50.4150499
          -5.0781777,50.4150467
          -5.0780746,50.4150345
          -5.0779543,50.4150264
          -5.0778678,50.4150228
          -5.0777546,50.4150240
          -5.0776500,50.4150230
          -5.0775476,50.4150165
          -5.0774522,50.4150043
          -5.0773586,50.4149990
          -5.0772389,50.4149796
          -5.0771389,50.4149658
          -5.0770522,50.4149484
          -5.0769462,50.4149312
          -5.0768877,50.4149220
          -5.0768195,50.4149144
          -5.0768145,50.4149096
          -5.0768145,50.4149096
          -5.0767735,50.4148853
          -5.0766957,50.4148454
          -5.0766402,50.4148204
          -5.0766151,50.4148107
          -5.0766154,50.4148108
          -5.0766154,50.4148108
          -5.0766154,50.4148108
          -5.0766154,50.4148108
          -5.0766154,50.4148108
          -5.0766154,50.4148108
          -5.0766154,50.4148108
          -5.0765962,50.4148340
          -5.0765495,50.4148772
          -5.0765043,50.4149126
          -5.0764323,50.4149600
          -5.0763653,50.4149982
          -5.0763302,50.4150378
          -5.0762747,50.4150985
          -5.0762164,50.4151417
          -5.0761308,50.4151984
          -5.0760413,50.4152305
          -5.0759568,50.4152509
          -5.0758580,50.4152495
          -5.0757854,50.4152759
          -5.0757212,50.4153197
          -5.0757031,50.4153819
          -5.0757021,50.4154372
          -5.0757000,50.4154827
          -5.0756999,50.4155234
          -5.0756894,50.4155551
          -5.0756733,50.4156039
          -5.0756191,50.4156746
          -5.0755566,50.4157384
          -5.0754839,50.4157833
          -5.0754321,50.4158358
          -5.0753770,50.4158930
          -5.0753238,50.4159610
          -5.0752270,50.4160068
          -5.0751286,50.4160128
          -5.0750698,50.4160291
          -5.0749818,50.4160642
          -5.0749382,50.4161004
          -5.0748698,50.4161253
          -5.0747753,50.4161617
          -5.0746695,50.4161810
          -5.0745800,50.4161861
          -5.0744699,50.4161838
          -5.0744019,50.4161941
          -5.0743458,50.4162031
          -5.0742706,50.4162464
          -5.0742122,50.4162911
          -5.0741873,50.4163244
          -5.0741371,50.4163801
          -5.0740314,50.4164085
          -5.0739280,50.4164277
          -5.0738289,50.4164439
          -5.0737523,50.4164661
          -5.0736623,50.4164947
          -5.0735717,50.4165265
          -5.0735096,50.4165679
          -5.0734211,50.4166168
          -5.0734066,50.4166364
          -5.0733730,50.4166463
          -5.0733021,50.4166763
          -5.0732149,50.4167073
          -5.0731357,50.4167380
          -5.0730490,50.4167715
          -5.0729740,50.4168039
          -5.0728809,50.4168322
          -5.0728037,50.4168655
          -5.0727154,50.4168986
          -5.0726294,50.4169357
          -5.0725427,50.4169690
          -5.0724457,50.4169982
          -5.0723731,50.4170374
          -5.0722839,50.4170659
          -5.0722220,50.4171213
          -5.0721477,50.4171653
          -5.0720635,50.4172114
          -5.0719901,50.4172642
          -5.0719236,50.4173069
          -5.0718623,50.4173453
          -5.0717959,50.4173881
          -5.0717343,50.4174283
          -5.0716981,50.4174886
          -5.0716681,50.4175378
          -5.0716306,50.4175633
          -5.0716326,50.4175574
          -5.0716326,50.4175574
          -5.0716326,50.4175574
          -5.0716326,50.4175574
          -5.0716326,50.4175574
          -5.0716326,50.4175574
          -5.0716326,50.4175574
          -5.0716347,50.4175640
          -5.0716128,50.4175942
          -5.0716113,50.4175885
          -5.0716113,50.4175885
          -5.0716113,50.4175885
          -5.0716113,50.4175885
          -5.0716113,50.4175885
          -5.0716113,50.4175885
          -5.0716113,50.4175885
          -5.0716113,50.4175885
          -5.0716113,50.4175885
          -5.0716113,50.4175885
          -5.0716113,50.4175885
          -5.0716113,50.4175885
          -5.0716113,50.4175885
          -5.0716113,50.4175885
          -5.0716113,50.4175885
          -5.0716113,50.4175885
          -5.0716113,50.4175885
          -5.0716113,50.4175885
          -5.0716117,50.4175883
          -5.0716181,50.4175887
          -5.0716081,50.4175948
          -5.0716113,50.4175885
          -5.0716113,50.4175885
          -5.0716113,50.4175885
          -5.0716113,50.4175885
          -5.0716113,50.4175885
          -5.0716113,50.4175885
          -5.0716057,50.4175987
          -5.0716145,50.4175902
          -5.0716284,50.4175712
          -5.0716558,50.4175718
          -5.0716722,50.4175818
          -5.0716719,50.4175815
          -5.0716719,50.4175815
          -5.0716719,50.4175815
          -5.0716735,50.4175797
          -5.0717059,50.4175293
          -5.0717170,50.4174729
          -5.0717508,50.4174238
          -5.0717744,50.4174028
          -5.0717692,50.4174021
          -5.0717692,50.4174021
          -5.0717692,50.4174021
          -5.0717692,50.4174021
          -5.0717692,50.4174021
          -5.0717692,50.4174021
          -5.0717692,50.4174021
          -5.0717692,50.4174021
          -5.0717692,50.4174021
          -5.0717692,50.4174021
          -5.0717692,50.4174021
          -5.0717692,50.4174021
          -5.0717692,50.4174021
          -5.0717692,50.4174021
          -5.0717692,50.4174021
          -5.0717692,50.4174021
          -5.0717692,50.4174021
          -5.0717692,50.4174021
          -5.0717692,50.4174021
          -5.0717692,50.4174021
          -5.0717692,50.4174021
          -5.0717692,50.4174021
          -5.0717682,50.4174075
          -5.0717692,50.4174021
          -5.0717692,50.4174021
          -5.0717692,50.4174021
          -5.0717692,50.4174021
          -5.0717692,50.4174021
          -5.0717692,50.4174021
          -5.0717692,50.4174021
          -5.0717692,50.4174021
          -5.0717692,50.4174021
          -5.0717692,50.4174021
          -5.0717692,50.4174021
          -5.0717692,50.4174021
          -5.0717692,50.4174021
          -5.0717692,50.4174021
          -5.0717692,50.4174021
          -5.0717692,50.4174021
          -5.0717692,50.4174021
          -5.0717692,50.4174021
          -5.0717692,50.4174021
          -5.0717692,50.4174021
          -5.0717692,50.4174021
          -5.0717692,50.4174021
          -5.0717692,50.4174021
          -5.0717692,50.4174021
          -5.0717692,50.4174021
          -5.0717692,50.4174021
          -5.0717692,50.4174021
          -5.0717692,50.4174021
          -5.0717692,50.4174021
          -5.0717692,50.4174021
          -5.0717692,50.4174021
          -5.0717692,50.4174021
          -5.0717692,50.4174021
          -5.0717692,50.4174021
          -5.0717692,50.4174021
          -5.0717692,50.4174021
          -5.0717692,50.4174021
          -5.0717692,50.4174021
          -5.0717692,50.4174021
          -5.0717692,50.4174021
          -5.0717658,50.4174075
          -5.0718209,50.4174311
          -5.0718778,50.4174157
          -5.0718775,50.4174179
          -5.0718820,50.4174136
          -5.0718060,50.4173887
          -5.0717554,50.4173849
          -5.0717543,50.4173874
          -5.0717543,50.4173874
          -5.0717543,50.4173874
          -5.0717543,50.4173874
          -5.0717543,50.4173874
          -5.0717543,50.4173874
          -5.0717592,50.4173917
          -5.0717543,50.4173874
          -5.0717543,50.4173874
          -5.0717543,50.4173874
          -5.0717543,50.4173874
          -5.0717543,50.4173874
          -5.0717543,50.4173874
          -5.0717543,50.4173874
          -5.0717543,50.4173874
          -5.0717546,50.4173876
          -5.0717546,50.4173876
          -5.0717546,50.4173876
          -5.0717889,50.4174042
          -5.0717889,50.4174042
          -5.0717889,50.4174042
          -5.0717889,50.4174042
          -5.0717889,50.4174042
          -5.0717889,50.4174042
          -5.0717889,50.4174042
          -5.0717889,50.4174042
          -5.0717889,50.4174042
          -5.0717889,50.4174042
          -5.0717889,50.4174042
          -5.0717889,50.4174042
          -5.0717889,50.4174042
          -5.0717889,50.4174042
          -5.0717889,50.4174042
          -5.0717672,50.4173955
          -5.0717585,50.4173910
          -5.0717500,50.4173930
          -5.0717597,50.4174061
          -5.0717264,50.4174406
          -5.0717130,50.4174992
          -5.0717159,50.4175450
          -5.0717175,50.4175974
          -5.0717111,50.4176441
          -5.0717086,50.4176921
          -5.0716901,50.4177191
          -5.0716234,50.4177520
          -5.0715570,50.4177806
          -5.0714805,50.4177776
          -5.0714140,50.4177828
          -5.0713711,50.4177807
          -5.0714075,50.4178249
          -5.0714541,50.4178315
          -5.0715232,50.4177920
          -5.0715931,50.4177645
          -5.0716719,50.4177320
          -5.0717122,50.4177913
          -5.0717136,50.4178542
          -5.0717193,50.4179123
          -5.0717198,50.4179657
          -5.0717188,50.4180293
          -5.0717247,50.4180810
          -5.0717341,50.4181496
          -5.0717322,50.4182139
          -5.0717234,50.4182357
          -5.0717361,50.4182537
          -5.0717502,50.4182991
          -5.0717628,50.4183442
          -5.0717214,50.4183593
          -5.0716518,50.4184032
          -5.0716018,50.4184464
          -5.0715538,50.4185107
          -5.0715098,50.4185669
          -5.0714654,50.4186127
          -5.0714582,50.4186705
          -5.0714276,50.4187256
          -5.0713698,50.4187706
          -5.0713063,50.4188046
          -5.0712478,50.4188463
          -5.0711908,50.4188869
          -5.0711193,50.4189288
          -5.0710558,50.4189659
          -5.0709953,50.4190081
          -5.0709078,50.4190487
          -5.0708539,50.4190930
          -5.0707967,50.4191352
          -5.0707025,50.4191825
          -5.0706387,50.4192355
          -5.0705803,50.4192789
          -5.0705029,50.4193228
          -5.0704289,50.4193557
          -5.0703466,50.4194045
          -5.0702634,50.4194380
          -5.0701799,50.4194843
          -5.0701158,50.4195448
          -5.0700494,50.4195823
          -5.0699735,50.4196271
          -5.0698831,50.4196702
          -5.0698075,50.4197106
          -5.0697211,50.4197420
          -5.0696396,50.4197720
          -5.0695542,50.4198131
          -5.0694772,50.4198535
          -5.0693931,50.4198890
          -5.0692683,50.4199017
          -5.0691667,50.4199097
          -5.0690546,50.4199083
          -5.0689665,50.4199331
          -5.0688760,50.4199585
          -5.0687829,50.4199878
          -5.0686901,50.4200108
          -5.0685928,50.4200382
          -5.0684850,50.4200684
          -5.0684005,50.4200921
          -5.0683148,50.4201209
          -5.0682130,50.4201556
          -5.0681188,50.4201770
          -5.0680349,50.4202106
          -5.0679396,50.4202361
          -5.0678536,50.4202666
          -5.0677583,50.4203003
          -5.0676781,50.4203347
          -5.0675857,50.4203760
          -5.0675066,50.4204088
          -5.0674211,50.4204375
          -5.0673332,50.4204759
          -5.0672594,50.4205090
          -5.0671829,50.4205531
          -5.0671232,50.4206023
          -5.0670709,50.4206574
          -5.0670226,50.4207229
          -5.0669600,50.4207714
          -5.0668992,50.4208323
          -5.0668434,50.4208815
          -5.0667789,50.4209314
          -5.0667021,50.4209783
          -5.0666222,50.4210248
          -5.0665447,50.4210648
          -5.0664598,50.4211134
          -5.0663809,50.4211488
          -5.0662975,50.4211758
          -5.0662771,50.4211780
          -5.0662771,50.4211780
          -5.0662771,50.4211780
          -5.0662771,50.4211780
          -5.0662749,50.4211756
          -5.0662558,50.4211785
          -5.0662493,50.4211781
          -5.0662493,50.4211781
          -5.0662493,50.4211781
          -5.0662493,50.4211781
          -5.0662338,50.4211972
          -5.0661330,50.4212212
          -5.0660369,50.4212403
          -5.0659310,50.4212483
          -5.0658335,50.4212544
          -5.0657340,50.4212593
          -5.0656237,50.4212611
          -5.0655236,50.4212633
          -5.0654035,50.4212598
          -5.0653083,50.4212513
          -5.0652150,50.4212534
          -5.0651135,50.4212469
          -5.0650221,50.4212381
          -5.0649027,50.4212338
          -5.0647865,50.4212363
          -5.0646901,50.4212400
          -5.0645954,50.4212480
          -5.0645033,50.4212622
          -5.0644765,50.4212798
          -5.0644764,50.4212798
          -5.0644764,50.4212798
          -5.0644764,50.4212798
          -5.0644150,50.4212794
          -5.0643379,50.4212810
          -5.0642583,50.4212712
          -5.0641591,50.4212946
          -5.0640887,50.4213407
          -5.0639945,50.4213778
          -5.0639105,50.4214116
          -5.0638767,50.4214671
          -5.0638380,50.4215123
          -5.0637970,50.4215759
          -5.0637499,50.4216335
          -5.0637188,50.4216933
          -5.0636739,50.4217476
          -5.0636249,50.4218112
          -5.0635759,50.4218670
          -5.0635549,50.4219313
          -5.0635069,50.4220019
          -5.0634650,50.4220724
          -5.0634268,50.4221382
          -5.0633772,50.4221991
          -5.0633296,50.4222605
          -5.0632815,50.4223230
          -5.0632405,50.4223807
          -5.0631889,50.4224371
          -5.0631270,50.4224890
          -5.0630750,50.4225421
          -5.0630035,50.4225915
          -5.0629255,50.4226447
          -5.0628391,50.4227042
          -5.0627610,50.4227550
          -5.0626875,50.4228005
          -5.0626156,50.4228495
          -5.0625309,50.4229032
          -5.0624428,50.4229440
          -5.0623801,50.4229907
          -5.0622837,50.4230427
          -5.0622124,50.4230756
          -5.0621275,50.4231307
          -5.0620376,50.4231682
          -5.0619525,50.4232048
          -5.0618582,50.4232356
          -5.0617560,50.4232674
          -5.0616753,50.4232924
          -5.0616105,50.4233349
          -5.0615370,50.4233826
          -5.0614775,50.4234213
          -5.0613884,50.4234550
          -5.0613052,50.4234936
          -5.0611953,50.4235142
          -5.0610967,50.4235238
          -5.0609879,50.4235291
          -5.0608793,50.4235326
          -5.0607860,50.4235400
          -5.0606786,50.4235467
          -5.0605698,50.4235447
          -5.0604956,50.4235272
          -5.0604171,50.4235384
          -5.0603330,50.4235592
          -5.0602836,50.4235967
          -5.0602808,50.4235925
          -5.0602808,50.4235925
          -5.0602808,50.4235925
          -5.0602808,50.4235925
          -5.0603036,50.4236103
          -5.0603133,50.4236487
          -5.0603024,50.4236166
          -5.0602384,50.4235960
          -5.0601410,50.4236204
          -5.0600447,50.4236359
          -5.0599637,50.4236539
          -5.0598748,50.4236671
          -5.0597971,50.4236916
          -5.0597086,50.4237161
          -5.0596333,50.4237400
          -5.0595632,50.4237593
          -5.0594796,50.4237960
          -5.0594188,50.4238353
          -5.0593538,50.4238652
          -5.0593095,50.4238771
          -5.0592774,50.4238965
          -5.0591822,50.4239046
          -5.0590988,50.4239053
          -5.0590484,50.4239159
          -5.0589580,50.4239394
          -5.0588629,50.4239472
          -5.0587653,50.4239469
          -5.0586843,50.4239472
          -5.0585497,50.4239501
          -5.0584253,50.4239560
          -5.0583276,50.4239588
          -5.0582165,50.4239451
          -5.0581341,50.4239294
          -5.0580461,50.4239000
          -5.0579378,50.4238820
          -5.0578476,50.4238533
          -5.0577512,50.4238241
          -5.0576732,50.4237838
          -5.0575895,50.4237535
          -5.0575090,50.4237159
          -5.0574293,50.4236787
          -5.0573397,50.4236428
          -5.0572644,50.4236039
          -5.0571794,50.4235692
          -5.0570820,50.4235590
          -5.0570062,50.4235501
          -5.0569206,50.4235592
          -5.0568560,50.4236105
          -5.0568134,50.4236615
          -5.0567773,50.4237216
          -5.0567482,50.4237817
          -5.0567066,50.4238010
          -5.0566454,50.4238420
          -5.0566074,50.4238973
          -5.0565734,50.4239355
          -5.0565262,50.4239787
          -5.0564712,50.4240248
          -5.0564440,50.4240538
          -5.0564061,50.4240889
          -5.0563282,50.4241342
          -5.0562750,50.4241821
          -5.0562240,50.4242236
          -5.0561734,50.4242686
          -5.0561022,50.4242917
          -5.0560205,50.4243149
          -5.0559580,50.4243389
          -5.0558732,50.4243650
          -5.0557974,50.4243971
          -5.0557234,50.4244184
          -5.0556498,50.4244430
          -5.0555892,50.4244683
          -5.0555243,50.4245029
          -5.0554717,50.4245471
          -5.0554478,50.4245990
          -5.0553954,50.4246522
          -5.0553476,50.4246937
          -5.0552960,50.4247389
          -5.0552447,50.4247879
          -5.0552116,50.4248316
          -5.0551661,50.4248567
          -5.0551116,50.4249061
          -5.0550627,50.4249521
          -5.0550075,50.4249917
          -5.0549531,50.4250367
          -5.0549010,50.4250763
          -5.0548408,50.4251204
          -5.0547687,50.4251587
          -5.0547020,50.4251845
          -5.0546307,50.4252182
          -5.0545737,50.4252390
          -5.0545229,50.4252578
          -5.0544511,50.4252872
          -5.0543607,50.4253178
          -5.0542965,50.4253467
          -5.0542056,50.4253796
          -5.0541294,50.4254118
          -5.0540483,50.4254291
          -5.0539794,50.4254493
          -5.0539161,50.4254644
          -5.0538424,50.4254759
          -5.0537627,50.4254869
          -5.0537015,50.4255105
          -5.0537177,50.4255828
          -5.0537608,50.4256423
          -5.0538073,50.4256856
          -5.0538589,50.4257241
          -5.0539347,50.4257649
          -5.0540118,50.4258068
          -5.0540920,50.4258446
          -5.0541719,50.4258770
          -5.0542523,50.4259119
          -5.0543387,50.4259536
          -5.0544150,50.4259951
          -5.0545026,50.4260300
          -5.0545977,50.4260571
          -5.0546929,50.4260719
          -5.0547846,50.4260834
          -5.0548712,50.4260922
          -5.0549600,50.4260951
          -5.0550526,50.4261038
          -5.0551427,50.4261161
          -5.0552290,50.4261261
          -5.0553473,50.4261357
          -5.0554145,50.4261458
          -5.0554768,50.4261551
          -5.0555171,50.4261624
          -5.0555856,50.4261709
          -5.0556659,50.4261937
          -5.0557329,50.4262252
          -5.0558021,50.4262703
          -5.0558588,50.4263123
          -5.0559101,50.4263472
          -5.0559553,50.4263839
          -5.0560359,50.4264077
          -5.0561261,50.4264109
          -5.0562156,50.4263996
          -5.0562983,50.4263880
          -5.0564025,50.4263665
          -5.0564956,50.4263436
          -5.0565842,50.4263110
          -5.0566495,50.4262644
          -5.0567181,50.4262209
          -5.0567851,50.4261849
          -5.0568664,50.4261513
          -5.0569480,50.4261190
          -5.0570355,50.4260813
          -5.0571209,50.4260395
          -5.0572019,50.4260071
          -5.0572685,50.4259733
          -5.0573522,50.4259383
          -5.0574359,50.4259089
          -5.0575284,50.4258892
          -5.0576215,50.4258821
          -5.0577077,50.4258811
          -5.0578079,50.4258834
          -5.0578998,50.4258871
          -5.0579983,50.4258962
          -5.0580862,50.4259014
          -5.0581669,50.4259130
          -5.0582626,50.4259278
          -5.0583657,50.4259443
          -5.0584667,50.4259650
          -5.0585615,50.4259970
          -5.0586333,50.4260175
          -5.0587031,50.4260562
          -5.0587916,50.4260824
          -5.0588977,50.4260965
          -5.0589837,50.4261084
          -5.0590837,50.4261238
          -5.0591830,50.4261387
          -5.0592727,50.4261561
          -5.0593487,50.4261917
          -5.0594214,50.4262380
          -5.0594874,50.4262858
          -5.0595425,50.4263228
          -5.0596080,50.4263511
          -5.0596928,50.4263859
          -5.0597652,50.4264289
          -5.0598359,50.4264664
          -5.0599265,50.4264797
          -5.0600168,50.4264778
          -5.0601077,50.4264712
          -5.0602023,50.4264745
          -5.0602905,50.4264714
          -5.0603695,50.4264621
          -5.0604782,50.4264515
          -5.0605750,50.4264609
          -5.0605794,50.4265208
          -5.0606182,50.4265656
          -5.0606377,50.4265654
          -5.0606496,50.4265560
          -5.0606501,50.4265532
          -5.0606501,50.4265532
          -5.0606596,50.4265697
          -5.0606964,50.4265749
          -5.0607013,50.4265757
          -5.0607919,50.4265751
          -5.0608564,50.4265765
          -5.0609173,50.4265739
          -5.0609878,50.4265713
          -5.0610311,50.4265766
          -5.0610249,50.4265406
          -5.0610119,50.4265173
          -5.0610076,50.4265254
          -5.0610241,50.4265563
          -5.0610521,50.4266116
          -5.0610649,50.4266640
          -5.0610717,50.4267033
          -5.0611005,50.4267519
          -5.0611142,50.4267722
          -5.0611129,50.4267801
          -5.0611162,50.4267790
          -5.0611162,50.4267790
          -5.0611162,50.4267790
          -5.0611162,50.4267790
          -5.0611162,50.4267790
          -5.0611162,50.4267790
          -5.0611162,50.4267790
          -5.0611150,50.4267754
          -5.0610886,50.4267324
          -5.0610759,50.4266725
          -5.0610672,50.4266124
          -5.0610030,50.4265706
          -5.0609475,50.4265638
          -5.0609005,50.4265697
          -5.0608499,50.4265716
          -5.0607823,50.4265739
          -5.0607395,50.4265774
          -5.0606991,50.4265760
          -5.0606361,50.4265702
          -5.0605958,50.4265773
          -5.0605694,50.4266110
          -5.0605429,50.4266419
          -5.0605048,50.4266733
          -5.0604591,50.4266977
          -5.0604015,50.4267387
          -5.0603291,50.4267705
          -5.0602274,50.4267814
          -5.0601391,50.4267892
          -5.0600609,50.4268028
          -5.0600033,50.4268244
          -5.0599875,50.4268613
          -5.0599747,50.4268884
          -5.0599347,50.4269241
          -5.0599346,50.4269331
          -5.0599384,50.4269125
          -5.0599358,50.4269089
          -5.0599358,50.4269089
          -5.0599358,50.4269089
          -5.0599358,50.4269089
          -5.0599315,50.4269147
          -5.0599533,50.4269058
          -5.0599523,50.4269206
          -5.0599523,50.4269206
          -5.0599523,50.4269206
          -5.0599523,50.4269206
          -5.0599523,50.4269206
          -5.0599523,50.4269206
          -5.0599523,50.4269206
          -5.0599523,50.4269206
          -5.0599576,50.4269166
          -5.0599523,50.4269206
          -5.0599523,50.4269206
          -5.0599523,50.4269206
          -5.0599523,50.4269206
          -5.0599523,50.4269206
          -5.0599523,50.4269206
          -5.0599523,50.4269206
          -5.0599523,50.4269206
          -5.0599523,50.4269206
          -5.0599523,50.4269206
          -5.0599523,50.4269206
          -5.0599523,50.4269206
          -5.0599523,50.4269206
          -5.0599523,50.4269206
          -5.0599523,50.4269206
          -5.0599523,50.4269206
          -5.0599523,50.4269206
          -5.0599523,50.4269206
          -5.0599523,50.4269206
          -5.0599523,50.4269206
          -5.0599523,50.4269206
          -5.0599523,50.4269206
          -5.0599523,50.4269206
          -5.0599523,50.4269206
          -5.0599523,50.4269206
          -5.0599523,50.4269206
          -5.0599523,50.4269206
          -5.0599523,50.4269206
          -5.0599523,50.4269206
          -5.0599523,50.4269206
          -5.0599523,50.4269206
          -5.0599523,50.4269206
          -5.0599523,50.4269206
          -5.0599523,50.4269206
          -5.0599523,50.4269206
          -5.0599523,50.4269206
          -5.0599523,50.4269206
          -5.0599523,50.4269206
          -5.0599523,50.4269206
          -5.0599523,50.4269206
          -5.0599523,50.4269206
          -5.0599523,50.4269206
          -5.0599523,50.4269206
          -5.0599523,50.4269206
          -5.0599523,50.4269206
          -5.0599523,50.4269206
          -5.0599523,50.4269206
          -5.0599523,50.4269206
          -5.0599523,50.4269206
          -5.0599523,50.4269206
          -5.0599523,50.4269206
          -5.0599523,50.4269206
          -5.0599523,50.4269206
          -5.0599523,50.4269206
          -5.0599523,50.4269206
          -5.0599523,50.4269206
          -5.0599523,50.4269206
          -5.0599523,50.4269206
          -5.0599523,50.4269206
          -5.0599523,50.4269206
          -5.0599523,50.4269206
          -5.0599523,50.4269206
          -5.0599523,50.4269206
          -5.0599523,50.4269206
          -5.0599523,50.4269206
          -5.0599523,50.4269206
          -5.0599523,50.4269206
          -5.0599523,50.4269206
          -5.0599523,50.4269206
          -5.0599523,50.4269206
          -5.0599523,50.4269206
          -5.0599523,50.4269206
          -5.0599523,50.4269206
          -5.0599523,50.4269206
          -5.0599523,50.4269206
          -5.0599523,50.4269206
          -5.0599523,50.4269206
          -5.0599523,50.4269206
          -5.0599523,50.4269206
          -5.0599523,50.4269206
          -5.0599523,50.4269206
          -5.0599523,50.4269206
          -5.0599523,50.4269206
          -5.0599523,50.4269206
          -5.0599523,50.4269206
          -5.0599523,50.4269206
          -5.0599523,50.4269206
          -5.0599523,50.4269206
          -5.0599523,50.4269206
          -5.0599523,50.4269206
          -5.0599523,50.4269206
          -5.0599523,50.4269206
          -5.0599523,50.4269206
          -5.0599523,50.4269206
          -5.0599523,50.4269206
          -5.0599523,50.4269206
          -5.0599523,50.4269206
          -5.0599523,50.4269206
          -5.0599523,50.4269206
          -5.0599523,50.4269206
          -5.0599523,50.4269206
          -5.0599523,50.4269206
          -5.0599523,50.4269206
          -5.0599523,50.4269206
          -5.0599523,50.4269206
          -5.0599523,50.4269206
          -5.0599523,50.4269206
          -5.0599523,50.4269206
          -5.0599523,50.4269206
          -5.0599523,50.4269206
          -5.0599523,50.4269206
          -5.0599523,50.4269206
          -5.0599645,50.4269109
          -5.0599523,50.4269206
          -5.0599523,50.4269206
          -5.0599523,50.4269206
          -5.0599523,50.4269206
          -5.0599523,50.4269206
          -5.0599523,50.4269206
          -5.0599523,50.4269206
          -5.0599523,50.4269206
          -5.0599523,50.4269206
          -5.0599523,50.4269206
          -5.0599523,50.4269206
          -5.0599523,50.4269206
          -5.0599523,50.4269206
          -5.0599523,50.4269206
          -5.0599523,50.4269206
          -5.0599523,50.4269206
          -5.0599523,50.4269206
          -5.0599523,50.4269206
          -5.0599523,50.4269206
          -5.0599523,50.4269206
          -5.0599523,50.4269206
          -5.0599523,50.4269206
          -5.0599523,50.4269206
          -5.0599523,50.4269206
          -5.0599523,50.4269206
          -5.0599523,50.4269206
          -5.0599523,50.4269206
          -5.0599523,50.4269206
          -5.0599523,50.4269206
          -5.0599523,50.4269206
          -5.0599523,50.4269206
          -5.0599523,50.4269206
          -5.0599523,50.4269206
          -5.0599523,50.4269206
          -5.0599523,50.4269206
          -5.0599523,50.4269206
          -5.0599523,50.4269206
          -5.0599523,50.4269206
          -5.0599523,50.4269206
          -5.0599523,50.4269206
          -5.0599523,50.4269206
          -5.0599523,50.4269206
          -5.0599523,50.4269206
          -5.0599523,50.4269206
          -5.0599523,50.4269206
          -5.0599523,50.4269206
          -5.0599523,50.4269206
          -5.0599523,50.4269206
          -5.0599523,50.4269206
          -5.0599523,50.4269206
          -5.0599523,50.4269206
          -5.0599523,50.4269206
          -5.0599523,50.4269206
          -5.0599523,50.4269206
          -5.0599523,50.4269206
          -5.0599623,50.4269183
          -5.0599523,50.4269206
          -5.0599523,50.4269206
          -5.0599617,50.4269219
          -5.0599107,50.4269086
          -5.0598664,50.4269494
          -5.0598535,50.4269994
          -5.0598345,50.4270580
          -5.0597919,50.4271157
          -5.0597663,50.4271650
          -5.0597244,50.4272180
          -5.0596974,50.4272608
          -5.0596667,50.4273173
          -5.0596350,50.4273618
          -5.0595947,50.4273915
          -5.0595111,50.4274112
          -5.0594450,50.4274105
          -5.0593618,50.4274017
          -5.0592776,50.4274002
          -5.0591934,50.4273949
          -5.0591140,50.4273891
          -5.0590127,50.4273868
          -5.0589203,50.4273784
          -5.0588428,50.4273722
          -5.0587428,50.4273668
          -5.0586796,50.4273291
          -5.0586040,50.4273120
          -5.0585316,50.4273069
          -5.0584061,50.4273092
          -5.0582902,50.4272957
          -5.0582134,50.4272857
          -5.0581050,50.4272707
          -5.0580005,50.4272517
          -5.0578979,50.4272253
          -5.0578215,50.4271950
          -5.0577231,50.4271817
          -5.0576243,50.4271647
          -5.0575159,50.4271620
          -5.0574358,50.4271583
          -5.0573379,50.4271491
          -5.0572470,50.4271625
          -5.0571733,50.4272000
          -5.0571103,50.4272398
          -5.0570666,50.4272862
          -5.0570107,50.4273403
          -5.0569699,50.4273857
          -5.0569481,50.4274333
          -5.0568821,50.4274564
          -5.0567875,50.4274389
          -5.0566865,50.4274270
          -5.0565957,50.4274464
          -5.0565045,50.4274577
          -5.0564002,50.4274711
          -5.0563108,50.4274720
          -5.0562027,50.4274731
          -5.0560999,50.4274662
          -5.0560023,50.4274670
          -5.0559192,50.4274680
          -5.0558533,50.4274653
          -5.0557543,50.4274465
          -5.0557337,50.4274513
          -5.0557432,50.4274402
          -5.0557425,50.4274546
          -5.0557455,50.4274665
          -5.0557437,50.4274662
          -5.0557390,50.4274616
          -5.0557331,50.4274576
          -5.0556871,50.4274592
          -5.0556029,50.4274858
          -5.0555345,50.4275056
          -5.0554622,50.4274681
          -5.0553726,50.4274333
          -5.0552906,50.4273992
          -5.0552208,50.4273945
          -5.0551777,50.4274344
          -5.0551254,50.4274811
          -5.0550787,50.4275375
          -5.0550455,50.4275849
          -5.0550011,50.4276289
          -5.0549594,50.4276762
          -5.0549078,50.4277354
          -5.0548747,50.4277930
          -5.0548397,50.4278466
          -5.0548270,50.4278812
          -5.0548224,50.4279066
          -5.0547939,50.4279633
          -5.0547737,50.4280145
          -5.0547609,50.4280584
          -5.0548236,50.4280859
          -5.0548702,50.4281321
          -5.0548860,50.4281404
          -5.0548845,50.4281689
          -5.0548873,50.4282136
          -5.0548853,50.4282426
          -5.0548853,50.4282441
          -5.0548825,50.4282456
          -5.0549179,50.4283080
          -5.0549269,50.4283602
          -5.0549733,50.4284071
          -5.0549968,50.4284300
          -5.0549851,50.4284200
          -5.0549851,50.4284200
          -5.0549851,50.4284200
          -5.0549917,50.4284203
          -5.0549851,50.4284200
          -5.0549851,50.4284200
          -5.0549935,50.4284320
          -5.0550238,50.4284772
          -5.0550307,50.4285436
          -5.0550480,50.4286010
          -5.0550606,50.4286666
          -5.0550644,50.4287332
          -5.0550867,50.4287971
          -5.0550889,50.4288568
          -5.0551115,50.4289190
          -5.0551322,50.4289917
          -5.0551540,50.4290429
          -5.0551727,50.4291032
          -5.0552060,50.4291603
          -5.0552267,50.4292068
          -5.0552517,50.4292289
          -5.0552551,50.4292316
          -5.0552494,50.4292371
          -5.0552629,50.4292852
          -5.0552826,50.4293412
          -5.0552916,50.4294069
          -5.0553012,50.4294627
          -5.0552662,50.4295328
          -5.0552147,50.4295866
          -5.0551501,50.4296413
          -5.0550975,50.4296791
          -5.0550239,50.4297284
          -5.0549490,50.4297717
          -5.0548755,50.4298130
          -5.0548059,50.4298498
          -5.0547212,50.4298850
          -5.0546469,50.4299094
          -5.0545745,50.4299378
          -5.0544838,50.4299747
          -5.0544050,50.4300093
          -5.0543396,50.4300353
          -5.0542526,50.4300633
          -5.0541546,50.4300781
          -5.0540595,50.4300876
          -5.0539593,50.4300851
          -5.0538507,50.4300765
          -5.0537544,50.4300721
          -5.0536591,50.4300688
          -5.0535587,50.4300783
          -5.0534711,50.4300966
          -5.0533950,50.4301208
          -5.0533018,50.4301540
          -5.0532345,50.4301867
          -5.0531744,50.4302257
          -5.0531225,50.4302847
          -5.0530982,50.4303368
          -5.0530824,50.4303894
          -5.0530735,50.4304466
          -5.0530647,50.4305048
          -5.0530563,50.4305622
          -5.0530605,50.4306264
          -5.0530525,50.4306898
          -5.0530470,50.4307474
          -5.0530323,50.4308082
          -5.0530264,50.4308534
          -5.0530354,50.4309143
          -5.0530502,50.4309665
          -5.0530538,50.4310296
          -5.0530763,50.4311082
          -5.0530898,50.4311748
          -5.0531002,50.4312304
          -5.0531183,50.4312875
          -5.0530996,50.4313459
          -5.0530912,50.4314097
          -5.0530720,50.4314752
          -5.0530512,50.4315293
          -5.0530412,50.4315844
          -5.0530311,50.4316374
          -5.0530152,50.4316969
          -5.0529914,50.4317448
          -5.0529591,50.4318024
          -5.0529129,50.4318529
          -5.0528534,50.4318923
          -5.0527938,50.4319222
          -5.0527277,50.4319639
          -5.0526609,50.4320036
          -5.0525756,50.4320555
          -5.0525252,50.4320995
          -5.0524706,50.4321432
          -5.0524124,50.4321884
          -5.0523570,50.4322385
          -5.0523107,50.4322842
          -5.0522674,50.4323230
          -5.0522202,50.4323822
          -5.0521661,50.4324446
          -5.0521397,50.4325002
          -5.0521217,50.4325545
          -5.0521138,50.4326161
          -5.0520951,50.4326782
          -5.0520897,50.4327259
          -5.0520848,50.4327723
          -5.0520900,50.4328374
          -5.0520961,50.4328906
          -5.0520921,50.4329420
          -5.0520982,50.4330031
          -5.0521099,50.4330636
          -5.0520662,50.4331191
          -5.0519892,50.4331472
          -5.0519251,50.4331979
          -5.0519072,50.4332367
          -5.0519191,50.4333076
          -5.0519488,50.4333682
          -5.0519547,50.4334087
          -5.0519034,50.4334576
          -5.0518475,50.4335081
          -5.0517569,50.4335521
          -5.0516715,50.4335309
          -5.0515892,50.4334941
          -5.0515042,50.4334539
          -5.0514303,50.4334187
          -5.0513495,50.4334012
          -5.0512690,50.4334173
          -5.0511869,50.4334500
          -5.0511519,50.4335130
          -5.0511452,50.4335824
          -5.0511638,50.4335919
          -5.0511641,50.4335913
          -5.0511641,50.4335913
          -5.0511641,50.4335913
          -5.0511641,50.4335913
          -5.0511641,50.4335913
          -5.0511641,50.4335913
          -5.0511220,50.4336088
          -5.0511134,50.4336053
          -5.0510947,50.4336117
          -5.0510020,50.4336469
          -5.0509126,50.4336693
          -5.0508818,50.4336890
          -5.0508786,50.4337006
          -5.0508786,50.4337006
          -5.0508755,50.4336794
          -5.0508348,50.4336742
          -5.0507500,50.4336894
          -5.0506524,50.4337025
          -5.0505649,50.4337151
          -5.0504586,50.4337395
          -5.0503624,50.4337736
          -5.0502803,50.4337976
          -5.0501854,50.4338302
          -5.0501020,50.4338613
          -5.0500242,50.4338928
          -5.0499491,50.4339334
          -5.0498781,50.4339831
          -5.0498105,50.4340311
          -5.0497506,50.4340907
          -5.0497017,50.4341513
          -5.0496697,50.4342071
          -5.0496490,50.4342655
          -5.0496093,50.4343176
          -5.0495745,50.4343744
          -5.0495407,50.4344239
          -5.0495090,50.4344792
          -5.0494559,50.4345337
          -5.0494080,50.4345958
          -5.0493669,50.4346601
          -5.0493193,50.4347177
          -5.0492669,50.4347678
          -5.0492073,50.4348212
          -5.0491532,50.4348662
          -5.0490655,50.4348789
          -5.0489649,50.4348799
          -5.0488809,50.4348903
          -5.0488324,50.4349398
          -5.0487841,50.4349994
          -5.0487688,50.4350574
          -5.0487571,50.4351208
          -5.0487611,50.4351786
          -5.0487647,50.4352463
          -5.0487745,50.4353014
          -5.0487833,50.4353694
          -5.0488145,50.4354302
          -5.0488701,50.4354839
          -5.0488526,50.4355439
          -5.0488155,50.4356018
          -5.0487825,50.4356572
          -5.0487444,50.4357162
          -5.0486955,50.4357633
          -5.0486386,50.4358075
          -5.0485883,50.4358539
          -5.0485419,50.4359065
          -5.0485064,50.4359497
          -5.0484588,50.4359969
          -5.0484193,50.4360437
          -5.0483779,50.4360986
          -5.0483309,50.4361521
          -5.0482896,50.4362051
          -5.0482367,50.4362607
          -5.0481961,50.4363138
          -5.0481568,50.4363652
          -5.0481091,50.4364303
          -5.0480808,50.4364778
          -5.0480423,50.4365291
          -5.0479994,50.4365871
          -5.0479569,50.4366293
          -5.0478932,50.4366815
          -5.0478241,50.4367280
          -5.0477457,50.4367798
          -5.0476869,50.4368223
          -5.0476281,50.4368663
          -5.0475507,50.4369104
          -5.0474793,50.4369583
          -5.0473873,50.4369884
          -5.0472967,50.4370071
          -5.0472085,50.4370184
          -5.0470986,50.4370160
          -5.0470221,50.4370365
          -5.0469548,50.4370811
          -5.0468861,50.4371275
          -5.0468281,50.4371764
          -5.0467582,50.4372237
          -5.0467257,50.4372736
          -5.0467331,50.4373377
          -5.0467817,50.4373876
          -5.0468475,50.4374526
          -5.0468971,50.4375006
          -5.0469363,50.4375558
          -5.0469677,50.4376117
          -5.0469931,50.4376778
          -5.0470318,50.4377314
          -5.0470790,50.4377881
          -5.0471254,50.4378513
          -5.0471655,50.4379082
          -5.0471919,50.4379723
          -5.0472222,50.4380358
          -5.0472494,50.4380914
          -5.0472940,50.4381463
          -5.0473264,50.4382081
          -5.0473415,50.4382802
          -5.0473533,50.4383479
          -5.0473437,50.4384073
          -5.0473329,50.4384687
          -5.0473115,50.4385317
          -5.0473059,50.4385813
          -5.0472998,50.4386485
          -5.0472915,50.4387143
          -5.0472781,50.4387648
          -5.0472513,50.4388311
          -5.0472069,50.4388762
          -5.0471625,50.4389348
          -5.0471293,50.4389886
          -5.0470911,50.4390538
          -5.0470468,50.4391107
          -5.0469853,50.4391628
          -5.0469384,50.4392198
          -5.0468709,50.4392748
          -5.0468196,50.4393266
          -5.0467614,50.4393785
          -5.0467015,50.4394310
          -5.0466392,50.4394869
          -5.0465685,50.4395415
          -5.0465120,50.4395952
          -5.0464546,50.4396537
          -5.0464016,50.4397042
          -5.0463313,50.4397565
          -5.0462760,50.4398059
          -5.0462198,50.4398509
          -5.0461643,50.4399021
          -5.0461005,50.4399531
          -5.0460282,50.4400002
          -5.0459696,50.4400497
          -5.0459045,50.4401013
          -5.0458481,50.4401564
          -5.0457819,50.4402064
          -5.0457258,50.4402606
          -5.0456719,50.4403193
          -5.0456167,50.4403687
          -5.0455507,50.4404210
          -5.0454906,50.4404697
          -5.0454130,50.4405233
          -5.0453507,50.4405698
          -5.0452893,50.4406164
          -5.0452225,50.4406659
          -5.0451422,50.4407110
          -5.0450916,50.4407471
          -5.0450865,50.4407488
          -5.0450828,50.4407497
          -5.0450828,50.4407497
          -5.0450828,50.4407497
          -5.0450828,50.4407497
          -5.0450828,50.4407497
          -5.0450828,50.4407497
          -5.0450734,50.4407405
          -5.0450325,50.4407585
          -5.0449917,50.4407774
          -5.0449465,50.4408049
          -5.0449477,50.4408099
          -5.0449456,50.4408157
          -5.0448847,50.4408686
          -5.0447949,50.4409130
          -5.0447337,50.4409536
          -5.0446750,50.4410013
          -5.0446102,50.4410506
          -5.0445621,50.4410979
          -5.0445022,50.4411479
          -5.0444309,50.4411793
          -5.0443365,50.4412005
          -5.0442401,50.4411801
          -5.0441727,50.4411646
          -5.0440846,50.4411694
          -5.0440008,50.4411727
          -5.0439116,50.4411871
          -5.0438088,50.4411831
          -5.0437210,50.4411769
          -5.0436259,50.4412048
          -5.0435486,50.4412509
          -5.0435054,50.4413048
          -5.0434497,50.4413650
          -5.0434018,50.4414219
          -5.0433132,50.4414645
          -5.0432460,50.4414963
          -5.0431595,50.4415342
          -5.0430872,50.4415786
          -5.0430271,50.4416323
          -5.0429689,50.4416827
          -5.0429308,50.4417349
          -5.0428894,50.4417918
          -5.0428633,50.4418510
          -5.0428410,50.4419164
          -5.0427679,50.4419642
          -5.0426981,50.4419959
          -5.0426163,50.4420364
          -5.0425453,50.4420795
          -5.0424742,50.4421275
          -5.0424051,50.4421772
          -5.0423481,50.4422332
          -5.0423236,50.4422990
          -5.0423058,50.4423632
          -5.0422997,50.4424202
          -5.0422755,50.4424833
          -5.0422783,50.4425498
          -5.0422738,50.4426203
          -5.0422933,50.4426867
          -5.0422986,50.4427556
          -5.0423051,50.4428134
          -5.0423209,50.4428757
          -5.0423129,50.4429405
          -5.0422952,50.4430012
          -5.0422860,50.4430640
          -5.0422643,50.4431264
          -5.0422416,50.4431912
          -5.0421996,50.4432440
          -5.0421712,50.4433107
          -5.0421569,50.4433768
          -5.0421400,50.4434374
          -5.0421266,50.4434969
          -5.0421125,50.4435510
          -5.0420627,50.4435944
          -5.0419917,50.4436197
          -5.0419042,50.4436447
          -5.0418257,50.4436755
          -5.0417623,50.4437201
          -5.0416977,50.4437725
          -5.0416273,50.4438203
          -5.0415475,50.4438531
          -5.0414683,50.4438983
          -5.0414354,50.4439077
          -5.0414335,50.4439068
          -5.0414335,50.4439068
          -5.0414335,50.4439068
          -5.0413980,50.4439226
          -5.0413138,50.4439665
          -5.0412367,50.4440055
          -5.0411620,50.4440380
          -5.0410677,50.4440795
          -5.0409717,50.4441216
          -5.0409103,50.4441620
          -5.0408274,50.4442076
          -5.0407475,50.4442479
          -5.0406797,50.4442906
          -5.0405921,50.4443113
          -5.0405167,50.4443441
          -5.0404719,50.4443744
          -5.0404896,50.4444231
          -5.0404381,50.4444889
          -5.0403501,50.4444611
          -5.0402670,50.4444355
          -5.0401763,50.4444370
          -5.0400996,50.4444246
          -5.0400353,50.4444080
          -5.0400464,50.4444145
          -5.0400896,50.4444341
          -5.0400712,50.4444362
          -5.0400685,50.4444432
          -5.0400577,50.4444498
          -5.0400509,50.4444505
          -5.0400509,50.4444505
          -5.0400401,50.4444629
          -5.0400409,50.4444626
          -5.0400022,50.4444567
          -5.0399888,50.4444629
          -5.0399753,50.4444522
          -5.0399753,50.4444522
          -5.0399753,50.4444522
          -5.0399753,50.4444522
          -5.0399753,50.4444522
          -5.0399753,50.4444522
          -5.0399753,50.4444522
          -5.0399753,50.4444522
          -5.0399753,50.4444522
          -5.0399753,50.4444522
          -5.0399753,50.4444522
          -5.0399753,50.4444522
          -5.0399753,50.4444522
          -5.0399753,50.4444522
          -5.0399753,50.4444522
          -5.0399753,50.4444522
          -5.0399753,50.4444522
          -5.0399753,50.4444522
          -5.0399753,50.4444522
          -5.0399753,50.4444522
          -5.0399753,50.4444522
          -5.0399753,50.4444522
          -5.0399753,50.4444522
          -5.0399753,50.4444522
          -5.0399753,50.4444522
          -5.0399753,50.4444522
          -5.0399753,50.4444522
          -5.0399753,50.4444522
          -5.0399753,50.4444522
          -5.0399753,50.4444522
          -5.0399753,50.4444522
          -5.0399753,50.4444522
          -5.0399753,50.4444522
          -5.0399573,50.4444531
          -5.0399753,50.4444522
          -5.0399753,50.4444522
          -5.0399753,50.4444522
          -5.0399643,50.4444593
          -5.0399753,50.4444522
          -5.0399753,50.4444522
          -5.0399666,50.4444658
          -5.0399753,50.4444522
          -5.0399753,50.4444522
          -5.0399753,50.4444522
          -5.0399753,50.4444522
          -5.0399753,50.4444522
          -5.0399753,50.4444522
          -5.0399753,50.4444522
          -5.0399753,50.4444522
          -5.0399753,50.4444522
          -5.0399753,50.4444522
          -5.0399753,50.4444522
          -5.0399753,50.4444522
          -5.0399261,50.4444613
          -5.0398577,50.4444483
          -5.0398290,50.4444435
          -5.0397992,50.4444687
          -5.0397362,50.4444703
          -5.0397319,50.4444719
          -5.0397319,50.4444719
          -5.0397319,50.4444719
          -5.0397319,50.4444719
          -5.0397319,50.4444719
          -5.0397319,50.4444719
          -5.0397319,50.4444719
          -5.0397319,50.4444719
          -5.0397319,50.4444719
          -5.0397319,50.4444719
          -5.0397319,50.4444719
          -5.0397319,50.4444719
          -5.0397319,50.4444719
          -5.0397319,50.4444719
          -5.0397319,50.4444719
          -5.0397319,50.4444719
          -5.0397319,50.4444719
          -5.0397319,50.4444719
          -5.0397319,50.4444719
          -5.0397219,50.4444681
          -5.0398132,50.4444706
          -5.0398805,50.4444819
          -5.0399785,50.4444915
          -5.0400335,50.4445188
          -5.0401107,50.4445328
          -5.0401801,50.4445488
          -5.0402525,50.4445382
          -5.0403320,50.4445186
          -5.0403721,50.4444942
          -5.0404211,50.4445139
          -5.0405197,50.4445158
          -5.0405930,50.4445257
          -5.0406752,50.4445367
          -5.0406776,50.4445820
          -5.0407263,50.4446223
          -5.0407594,50.4446699
          -5.0407662,50.4447236
          -5.0407660,50.4447701
          -5.0407527,50.4448110
          -5.0407105,50.4448617
          -5.0406539,50.4449009
          -5.0405829,50.4449497
          -5.0405415,50.4449851
          -5.0404875,50.4450075
          -5.0404439,50.4450493
          -5.0404063,50.4450948
          -5.0403700,50.4451306
          -5.0403665,50.4451699
          -5.0404030,50.4451928
          -5.0404241,50.4452047
          -5.0404709,50.4452159
          -5.0405165,50.4452263
          -5.0405588,50.4452525
          -5.0406368,50.4452614
          -5.0407130,50.4452749
          -5.0407617,50.4452804
          -5.0407482,50.4453073
          -5.0407969,50.4453425
          -5.0408381,50.4453275
          -5.0408658,50.4453197
          -5.0408658,50.4453193
          -5.0408658,50.4453193
          -5.0408658,50.4453193
          -5.0408658,50.4453193
          -5.0408658,50.4453193
          -5.0408658,50.4453193
          -5.0409045,50.4453130
          -5.0409472,50.4453144
          -5.0409437,50.4453131
          -5.0409437,50.4453131
          -5.0409437,50.4453131
          -5.0409837,50.4453237
          -5.0410398,50.4453334
          -5.0411088,50.4453473
          -5.0411726,50.4453551
          -5.0412462,50.4453626
          -5.0412983,50.4453700
          -5.0413025,50.4453729
          -5.0413097,50.4453805
          -5.0413180,50.4454119
          -5.0413158,50.4454413
          -5.0413251,50.4454785
          -5.0413319,50.4455093
          -5.0413227,50.4455290
          -5.0413057,50.4455661
          -5.0413014,50.4456006
          -5.0412989,50.4456331
          -5.0412884,50.4456758
          -5.0412877,50.4457460
          -5.0412833,50.4457926
          -5.0412766,50.4458425
          -5.0412824,50.4458814
          -5.0412913,50.4459195
          -5.0412864,50.4459177
          -5.0412864,50.4459177
          -5.0412803,50.4459110
          -5.0412872,50.4459264
          -5.0412781,50.4459392
          -5.0412761,50.4459403
          -5.0412761,50.4459403
          -5.0412761,50.4459403
          -5.0412761,50.4459403
          -5.0412761,50.4459403
          -5.0412761,50.4459403
          -5.0412749,50.4459387
          -5.0412761,50.4459403
          -5.0412777,50.4460049
          -5.0412644,50.4460641
          -5.0412532,50.4461157
          -5.0412481,50.4461672
          -5.0412412,50.4462159
          -5.0412393,50.4462656
          -5.0412289,50.4463206
          -5.0412078,50.4463817
          -5.0411883,50.4464526
          -5.0411683,50.4465077
          -5.0411247,50.4465624
          -5.0410721,50.4466208
          -5.0410131,50.4466672
          -5.0409342,50.4467072
          -5.0408656,50.4467522
          -5.0407782,50.4467819
          -5.0407093,50.4468134
          -5.0406291,50.4468415
          -5.0405539,50.4468836
          -5.0404778,50.4469452
          -5.0404369,50.4469879
          -5.0404079,50.4470472
          -5.0403624,50.4470914
          -5.0403189,50.4471508
          -5.0402768,50.4471918
          -5.0402257,50.4472450
          -5.0401903,50.4472926
          -5.0401588,50.4473355
          -5.0401104,50.4473870
          -5.0400706,50.4474488
          -5.0400402,50.4475082
          -5.0400067,50.4475594
          -5.0399679,50.4476219
          -5.0399285,50.4476715
          -5.0398945,50.4477186
          -5.0398625,50.4477773
          -5.0398227,50.4478320
          -5.0397883,50.4478767
          -5.0397637,50.4479242
          -5.0397260,50.4479932
          -5.0396927,50.4480483
          -5.0396553,50.4481075
          -5.0396180,50.4481577
          -5.0395790,50.4482142
          -5.0395426,50.4482739
          -5.0395032,50.4483304
          -5.0394687,50.4483951
          -5.0394444,50.4484505
          -5.0394182,50.4485178
          -5.0393832,50.4485825
          -5.0393431,50.4486353
          -5.0392899,50.4487064
          -5.0392584,50.4487545
          -5.0392206,50.4488166
          -5.0391858,50.4488733
          -5.0391418,50.4489336
          -5.0391132,50.4489875
          -5.0390742,50.4490402
          -5.0390414,50.4490925
          -5.0390116,50.4491447
          -5.0389849,50.4491868
          -5.0389616,50.4492295
          -5.0389446,50.4492726
          -5.0389183,50.4493125
          -5.0388849,50.4493669
          -5.0388492,50.4494114
          -5.0388509,50.4494451
          -5.0388453,50.4494668
          -5.0388335,50.4495193
          -5.0388176,50.4495731
          -5.0388082,50.4496258
          -5.0387746,50.4496632
          -5.0387625,50.4497066
          -5.0387647,50.4497130
          -5.0387647,50.4497130
          -5.0387649,50.4497485
          -5.0387748,50.4498048
          -5.0387733,50.4498595
          -5.0387778,50.4499102
          -5.0387890,50.4499713
          -5.0387891,50.4500291
          -5.0387811,50.4500842
          -5.0387842,50.4501356
          -5.0387745,50.4501867
          -5.0387394,50.4502408
          -5.0387163,50.4502824
          -5.0386813,50.4503494
          -5.0386357,50.4504028
          -5.0386003,50.4504442
          -5.0385540,50.4504961
          -5.0384921,50.4505459
          -5.0384524,50.4505936
          -5.0384078,50.4506368
          -5.0383610,50.4506866
          -5.0383227,50.4507409
          -5.0383007,50.4507914
          -5.0382766,50.4508500
          -5.0382519,50.4509012
          -5.0382444,50.4509277
          -5.0382444,50.4509277
          -5.0382444,50.4509277
          -5.0382444,50.4509277
          -5.0382444,50.4509277
          -5.0382403,50.4509453
          -5.0382312,50.4509637
          -5.0382379,50.4509611
          -5.0382277,50.4510182
          -5.0382198,50.4510818
          -5.0382101,50.4511428
          -5.0382018,50.4511910
          -5.0381842,50.4512428
          -5.0381641,50.4513058
          -5.0381595,50.4513576
          -5.0381427,50.4514218
          -5.0381176,50.4514775
          -5.0380872,50.4515288
          -5.0380456,50.4515849
          -5.0380213,50.4516597
          -5.0380184,50.4517175
          -5.0380063,50.4517870
          -5.0380114,50.4518324
          -5.0380166,50.4518994
          -5.0380223,50.4519487
          -5.0380257,50.4520165
          -5.0380292,50.4520754
          -5.0380497,50.4521271
          -5.0380684,50.4521890
          -5.0380294,50.4522492
          -5.0380105,50.4522956
          -5.0379896,50.4523514
          -5.0379644,50.4524199
          -5.0379529,50.4524831
          -5.0379243,50.4525262
          -5.0378787,50.4525614
          -5.0378614,50.4526176
          -5.0378324,50.4526848
          -5.0378274,50.4527448
          -5.0378375,50.4528152
          -5.0378686,50.4528666
          -5.0379158,50.4529007
          -5.0379136,50.4528780
          -5.0379136,50.4528780
          -5.0379136,50.4528780
          -5.0379136,50.4528780
          -5.0379040,50.4528953
          -5.0379297,50.4529277
          -5.0379680,50.4529634
          -5.0379768,50.4529765
          -5.0379768,50.4529765
          -5.0379807,50.4529780
          -5.0380079,50.4530246
          -5.0380189,50.4530756
          -5.0380382,50.4531270
          -5.0380474,50.4531883
          -5.0380632,50.4532395
          -5.0380796,50.4532944
          -5.0381044,50.4533539
          -5.0381365,50.4533971
          -5.0381832,50.4534546
          -5.0382450,50.4534996
          -5.0382535,50.4535048
          -5.0383103,50.4535134
          -5.0384036,50.4535260
          -5.0384937,50.4535386
          -5.0385519,50.4535690
          -5.0386233,50.4536094
          -5.0386484,50.4536540
          -5.0386604,50.4536979
          -5.0386535,50.4537567
          -5.0386460,50.4538120
          -5.0386356,50.4538740
          -5.0386137,50.4539382
          -5.0385953,50.4539834
          -5.0385699,50.4540269
          -5.0385456,50.4540236
          -5.0385556,50.4540342
          -5.0385564,50.4540350
          -5.0385507,50.4540546
          -5.0385490,50.4541018
          -5.0385229,50.4541567
          -5.0385176,50.4542208
          -5.0385282,50.4542790
          -5.0385316,50.4543402
          -5.0385607,50.4544054
          -5.0385787,50.4544469
          -5.0386024,50.4544815
          -5.0386471,50.4545294
          -5.0386856,50.4545820
          -5.0387140,50.4546270
          -5.0387514,50.4546793
          -5.0387929,50.4547305
          -5.0388328,50.4547754
          -5.0388699,50.4548262
          -5.0389048,50.4548868
          -5.0389383,50.4549242
          -5.0389552,50.4549687
          -5.0389749,50.4550253
          -5.0390039,50.4550635
          -5.0390163,50.4551003
          -5.0390240,50.4551115
          -5.0390241,50.4551118
          -5.0390241,50.4551118
          -5.0390241,50.4551118
          -5.0390241,50.4551118
          -5.0390241,50.4551118
          -5.0390430,50.4551685
          -5.0390672,50.4552289
          -5.0390825,50.4552834
          -5.0391102,50.4553441
          -5.0391452,50.4553990
          -5.0391905,50.4554547
          -5.0392526,50.4554918
          -5.0393227,50.4555309
          -5.0394022,50.4555664
          -5.0394853,50.4556062
          -5.0395625,50.4556518
          -5.0396396,50.4557016
          -5.0397152,50.4557389
          -5.0398005,50.4557736
          -5.0398836,50.4557980
          -5.0399249,50.4558139
          -5.0400009,50.4558443
          -5.0400407,50.4558834
          -5.0401215,50.4559089
          -5.0402187,50.4559130
          -5.0402952,50.4559404
          -5.0403536,50.4559718
          -5.0404167,50.4559717
          -5.0404425,50.4559690
          -5.0404550,50.4559532
          -5.0404466,50.4559447
          -5.0404571,50.4559477
          -5.0404573,50.4559503
          -5.0404594,50.4559499
          -5.0404573,50.4559503
          -5.0404573,50.4559503
          -5.0404573,50.4559503
          -5.0404573,50.4559503
          -5.0404573,50.4559503
          -5.0404573,50.4559503
          -5.0404573,50.4559503
          -5.0404573,50.4559503
          -5.0404573,50.4559503
          -5.0404573,50.4559503
          -5.0404573,50.4559503
          -5.0404573,50.4559503
          -5.0404573,50.4559503
          -5.0404785,50.4559499
          -5.0404782,50.4559498
          -5.0404782,50.4559498
          -5.0404782,50.4559498
          -5.0404701,50.4559549
          -5.0404782,50.4559498
          -5.0404782,50.4559498
          -5.0404782,50.4559498
          -5.0404782,50.4559498
          -5.0404782,50.4559498
          -5.0404782,50.4559498
          -5.0404782,50.4559498
          -5.0404782,50.4559498
          -5.0404782,50.4559498
          -5.0404782,50.4559498
          -5.0404782,50.4559498
          -5.0404782,50.4559498
          -5.0404782,50.4559498
          -5.0404782,50.4559498
          -5.0404782,50.4559498
          -5.0404782,50.4559498
          -5.0404782,50.4559498
          -5.0404782,50.4559498
          -5.0404782,50.4559498
          -5.0404782,50.4559498
          -5.0404782,50.4559498
          -5.0404782,50.4559498
          -5.0404782,50.4559498
          -5.0404782,50.4559498
          -5.0404782,50.4559498
          -5.0404782,50.4559498
          -5.0404782,50.4559498
          -5.0404782,50.4559498
          -5.0404782,50.4559498
          -5.0404782,50.4559498
          -5.0404782,50.4559498
          -5.0404782,50.4559498
          -5.0404782,50.4559498
          -5.0404782,50.4559498
          -5.0404782,50.4559498
          -5.0404782,50.4559498
          -5.0404566,50.4559574
          -5.0404566,50.4559574
          -5.0404566,50.4559574
          -5.0404566,50.4559574
          -5.0404566,50.4559574
          -5.0404566,50.4559574
          -5.0404566,50.4559574
          -5.0404566,50.4559574
          -5.0404566,50.4559574
          -5.0404566,50.4559574
          -5.0404566,50.4559574
          -5.0404566,50.4559574
          -5.0404566,50.4559574
          -5.0404566,50.4559574
          -5.0404566,50.4559574
          -5.0404566,50.4559574
          -5.0404566,50.4559574
          -5.0404566,50.4559574
          -5.0404566,50.4559574
          -5.0404566,50.4559574
          -5.0404566,50.4559574
          -5.0404566,50.4559574
          -5.0404566,50.4559574
          -5.0404566,50.4559574
          -5.0404566,50.4559574
          -5.0404566,50.4559574
          -5.0404566,50.4559574
          -5.0404566,50.4559574
          -5.0404566,50.4559574
          -5.0404566,50.4559574
          -5.0404566,50.4559574
          -5.0404566,50.4559574
          -5.0404566,50.4559574
          -5.0404566,50.4559574
          -5.0404566,50.4559574
          -5.0404566,50.4559574
          -5.0404566,50.4559574
          -5.0404566,50.4559574
          -5.0404566,50.4559574
          -5.0404566,50.4559574
          -5.0404566,50.4559574
          -5.0404566,50.4559574
          -5.0404566,50.4559574
          -5.0404566,50.4559574
          -5.0404655,50.4559443
          -5.0404655,50.4559443
          -5.0404655,50.4559443
          -5.0404655,50.4559443
          -5.0404655,50.4559443
          -5.0404655,50.4559443
          -5.0404655,50.4559443
          -5.0404655,50.4559443
          -5.0404655,50.4559443
          -5.0404655,50.4559443
          -5.0404785,50.4559454
          -5.0404655,50.4559443
          -5.0404951,50.4559640
          -5.0404941,50.4560188
          -5.0405297,50.4560708
          -5.0405673,50.4561299
          -5.0405823,50.4561820
          -5.0405918,50.4562451
          -5.0405984,50.4562901
          -5.0405911,50.4563381
          -5.0405573,50.4563968
          -5.0405444,50.4564497
          -5.0405367,50.4565155
          -5.0405252,50.4565644
          -5.0405163,50.4566250
          -5.0405087,50.4566964
          -5.0404988,50.4567556
          -5.0404614,50.4568235
          -5.0404421,50.4568748
          -5.0404222,50.4569361
          -5.0404147,50.4569949
          -5.0403961,50.4570626
          -5.0403504,50.4571167
          -5.0403168,50.4571710
          -5.0402900,50.4572279
          -5.0402734,50.4572707
          -5.0402591,50.4573111
          -5.0402492,50.4573706
          -5.0402687,50.4574282
          -5.0402867,50.4574677
          -5.0402991,50.4575086
          -5.0403210,50.4575554
          -5.0403447,50.4576021
          -5.0403818,50.4576547
          -5.0404375,50.4577015
          -5.0404774,50.4577561
          -5.0405276,50.4578089
          -5.0406121,50.4578520
          -5.0406605,50.4578924
          -5.0407373,50.4579294
          -5.0407892,50.4579430
          -5.0407896,50.4579412
          -5.0407896,50.4579412
          -5.0407896,50.4579412
          -5.0408291,50.4579681
          -5.0408855,50.4580340
          -5.0409211,50.4580819
          -5.0409773,50.4581336
          -5.0410249,50.4581679
          -5.0410768,50.4582148
          -5.0411097,50.4582556
          -5.0411329,50.4582951
          -5.0411771,50.4583328
          -5.0411936,50.4583679
          -5.0412268,50.4583989
          -5.0412604,50.4584311
          -5.0413057,50.4584645
          -5.0413222,50.4584913
          -5.0413650,50.4585274
          -5.0414212,50.4585629
          -5.0414773,50.4585931
          -5.0414738,50.4585982
          -5.0415200,50.4586165
          -5.0415612,50.4586320
          -5.0415863,50.4586616
          -5.0416129,50.4587025
          -5.0416344,50.4587209
          -5.0416375,50.4587441
          -5.0416445,50.4587674
          -5.0416330,50.4588027
          -5.0415612,50.4588254
          -5.0414937,50.4588409
          -5.0414151,50.4588385
          -5.0413941,50.4588458
          -5.0413963,50.4588404
          -5.0413963,50.4588404
          -5.0413963,50.4588404
          -5.0413963,50.4588404
          -5.0413963,50.4588404
          -5.0413963,50.4588404
          -5.0413828,50.4588501
          -5.0413229,50.4588582
          -5.0412367,50.4588580
          -5.0411422,50.4588571
          -5.0410418,50.4588534
          -5.0409632,50.4588537
          -5.0408776,50.4588694
          -5.0407996,50.4588871
          -5.0407113,50.4589038
          -5.0406405,50.4589285
          -5.0405552,50.4589457
          -5.0404586,50.4589431
          -5.0403882,50.4589603
          -5.0403078,50.4589668
          -5.0402321,50.4589701
          -5.0402058,50.4590065
          -5.0401522,50.4590278
          -5.0400949,50.4590391
          -5.0400483,50.4590449
          -5.0399708,50.4590184
          -5.0399302,50.4590177
          -5.0399288,50.4590163
          -5.0399288,50.4590163
          -5.0399288,50.4590163
          -5.0398635,50.4590038
          -5.0397726,50.4589874
          -5.0396822,50.4589726
          -5.0396045,50.4589661
          -5.0395180,50.4589666
          -5.0394292,50.4589446
          -5.0393459,50.4589320
          -5.0392524,50.4589163
          -5.0391748,50.4589066
          -5.0390994,50.4588850
          -5.0390288,50.4588769
          -5.0389541,50.4588700
          -5.0388735,50.4588666
          -5.0388095,50.4588694
          -5.0387531,50.4588721
          -5.0386859,50.4588609
          -5.0386201,50.4588532
          -5.0385521,50.4588533
          -5.0384880,50.4588609
          -5.0384288,50.4588651
          -5.0383804,50.4588783
          -5.0383250,50.4588882
          -5.0382655,50.4588881
          -5.0382094,50.4589033
          -5.0381686,50.4589263
          -5.0381322,50.4589468
          -5.0381236,50.4589708
          -5.0381075,50.4589950
          -5.0380695,50.4590223
          -5.0380099,50.4590385
          -5.0379675,50.4590548
          -5.0379224,50.4590695
          -5.0378718,50.4590842
          -5.0378125,50.4590966
          -5.0377602,50.4591170
          -5.0377315,50.4591358
          -5.0376754,50.4591597
          -5.0376305,50.4591888
          -5.0375849,50.4592086
          -5.0375516,50.4592374
          -5.0375281,50.4592687
          -5.0375243,50.4593042
          -5.0375081,50.4593464
          -5.0374697,50.4593738
          -5.0374287,50.4594052
          -5.0373720,50.4594441
          -5.0373101,50.4594800
          -5.0372490,50.4595073
          -5.0371745,50.4595357
          -5.0371147,50.4595633
          -5.0370470,50.4595965
          -5.0370101,50.4596405
          -5.0369823,50.4596851
          -5.0369676,50.4597305
          -5.0369638,50.4597912
          -5.0369754,50.4598371
          -5.0369785,50.4598819
          -5.0369877,50.4599394
          -5.0370041,50.4599871
          -5.0370103,50.4600332
          -5.0370325,50.4600887
          -5.0370492,50.4601420
          -5.0370726,50.4601959
          -5.0370983,50.4602503
          -5.0371346,50.4602961
          -5.0371756,50.4603384
          -5.0372040,50.4603912
          -5.0372490,50.4604359
          -5.0372939,50.4604811
          -5.0373522,50.4605222
          -5.0374220,50.4605572
          -5.0374668,50.4606011
          -5.0375036,50.4606555
          -5.0375376,50.4607115
          -5.0375602,50.4607652
          -5.0375774,50.4608216
          -5.0376036,50.4608775
          -5.0376298,50.4609304
          -5.0376417,50.4609855
          -5.0376741,50.4610475
          -5.0377054,50.4610955
          -5.0377452,50.4611545
          -5.0377909,50.4612117
          -5.0378282,50.4612655
          -5.0378662,50.4613131
          -5.0379045,50.4613713
          -5.0379484,50.4614229
          -5.0380142,50.4614607
          -5.0380879,50.4614798
          -5.0381664,50.4615235
          -5.0382380,50.4615462
          -5.0383280,50.4615550
          -5.0384140,50.4615573
          -5.0384851,50.4615357
          -5.0385699,50.4614988
          -5.0386450,50.4614712
          -5.0387210,50.4614456
          -5.0388098,50.4614215
          -5.0388818,50.4613993
          -5.0389553,50.4613818
          -5.0390366,50.4613505
          -5.0391170,50.4613346
          -5.0391917,50.4613330
          -5.0392865,50.4613338
          -5.0393678,50.4613425
          -5.0394511,50.4613391
          -5.0395266,50.4613360
          -5.0395847,50.4613562
          -5.0396531,50.4613729
          -5.0397211,50.4614228
          -5.0397866,50.4614692
          -5.0398349,50.4615189
          -5.0399083,50.4615589
          -5.0399809,50.4616004
          -5.0400489,50.4616454
          -5.0401207,50.4616833
          -5.0401865,50.4617235
          -5.0402614,50.4617674
          -5.0403053,50.4618147
          -5.0403451,50.4618758
          -5.0403892,50.4619245
          -5.0404351,50.4619903
          -5.0404682,50.4620400
          -5.0404788,50.4620894
          -5.0404784,50.4621227
          -5.0404783,50.4621225
          -5.0404856,50.4621341
          -5.0405151,50.4621785
          -5.0405169,50.4622265
          -5.0405358,50.4622741
          -5.0405618,50.4623197
          -5.0405918,50.4623757
          -5.0406394,50.4624346
          -5.0406740,50.4624905
          -5.0407089,50.4625443
          -5.0407312,50.4625886
          -5.0407776,50.4626637
          -5.0408142,50.4627155
          -5.0408444,50.4627650
          -5.0408674,50.4628176
          -5.0409064,50.4628746
          -5.0409481,50.4629350
          -5.0409729,50.4629911
          -5.0410049,50.4630692
          -5.0410694,50.4631309
          -5.0411283,50.4631607
          -5.0412025,50.4631817
          -5.0412762,50.4632057
          -5.0412848,50.4632484
          -5.0412769,50.4633157
          -5.0412963,50.4633817
          -5.0413055,50.4634506
          -5.0413142,50.4635189
          -5.0413382,50.4635827
          -5.0413444,50.4636427
          -5.0413654,50.4637024
          -5.0413883,50.4637549
          -5.0414087,50.4638128
          -5.0414527,50.4638701
          -5.0414744,50.4639251
          -5.0414636,50.4639809
          -5.0414436,50.4640327
          -5.0414584,50.4640794
          -5.0414584,50.4641079
          -5.0414815,50.4641585
          -5.0414921,50.4641870
          -5.0414768,50.4642273
          -5.0414279,50.4642490
          -5.0413745,50.4642794
          -5.0413771,50.4642788
          -5.0413771,50.4642788
          -5.0413771,50.4642788
          -5.0413771,50.4642788
          -5.0413771,50.4642788
          -5.0413704,50.4642806
          -5.0413071,50.4643105
          -5.0412393,50.4643409
          -5.0411800,50.4643752
          -5.0411232,50.4644089
          -5.0410685,50.4644529
          -5.0409938,50.4644855
          -5.0409139,50.4645145
          -5.0408501,50.4645477
          -5.0407720,50.4645832
          -5.0406641,50.4646227
          -5.0405829,50.4646506
          -5.0404965,50.4646826
          -5.0404064,50.4647054
          -5.0403252,50.4647238
          -5.0402535,50.4647378
          -5.0401634,50.4647542
          -5.0401020,50.4647572
          -5.0400155,50.4647600
          -5.0399480,50.4647648
          -5.0398758,50.4647668
          -5.0398030,50.4647662
          -5.0397316,50.4647721
          -5.0396578,50.4647741
          -5.0396106,50.4647824
          -5.0395285,50.4647922
          -5.0394666,50.4648078
          -5.0394065,50.4648204
          -5.0393401,50.4648352
          -5.0392631,50.4648434
          -5.0391872,50.4648444
          -5.0391121,50.4648536
          -5.0390388,50.4648670
          -5.0389691,50.4648815
          -5.0388884,50.4648925
          -5.0388046,50.4649032
          -5.0387217,50.4649221
          -5.0386426,50.4649497
          -5.0385741,50.4649784
          -5.0385000,50.4650239
          -5.0384182,50.4650570
          -5.0383453,50.4650904
          -5.0382802,50.4651337
          -5.0382183,50.4651807
          -5.0381559,50.4652310
          -5.0380912,50.4652773
          -5.0380326,50.4653269
          -5.0380019,50.4653699
          -5.0379559,50.4654212
          -5.0378984,50.4654818
          -5.0378593,50.4655441
          -5.0378132,50.4655937
          -5.0377861,50.4656550
          -5.0377559,50.4657213
          -5.0377248,50.4657724
          -5.0376746,50.4658158
          -5.0375935,50.4658541
          -5.0375276,50.4658809
          -5.0374352,50.4659236
          -5.0373777,50.4659596
          -5.0373010,50.4659795
          -5.0372182,50.4660113
          -5.0372122,50.4660196
          -5.0371457,50.4660461
          -5.0370678,50.4660588
          -5.0369795,50.4660819
          -5.0368924,50.4661105
          -5.0368176,50.4661413
          -5.0367448,50.4661709
          -5.0366662,50.4661926
          -5.0365927,50.4662142
          -5.0365111,50.4662372
          -5.0364104,50.4662444
          -5.0363213,50.4662506
          -5.0362270,50.4662497
          -5.0361842,50.4662060
          -5.0360865,50.4661904
          -5.0360018,50.4661782
          -5.0359046,50.4661669
          -5.0358253,50.4661561
          -5.0357370,50.4661359
          -5.0356587,50.4661165
          -5.0356303,50.4661141
          -5.0356303,50.4661141
          -5.0356303,50.4661141
          -5.0356303,50.4661141
          -5.0356303,50.4661141
          -5.0356090,50.4661151
          -5.0355428,50.4661100
          -5.0354922,50.4661098
          -5.0354342,50.4661154
          -5.0353855,50.4661064
          -5.0353342,50.4661088
          -5.0352863,50.4661039
          -5.0352274,50.4661074
          -5.0351823,50.4661028
          -5.0351361,50.4661023
          -5.0350753,50.4661021
          -5.0350402,50.4660990
          -5.0349931,50.4660997
          -5.0349330,50.4660951
          -5.0348894,50.4661017
          -5.0348379,50.4661031
          -5.0347814,50.4660957
          -5.0347279,50.4660943
          -5.0346646,50.4660943
          -5.0346367,50.4661100
          -5.0345425,50.4660830
          -5.0344766,50.4660488
          -5.0343927,50.4659981
          -5.0343301,50.4659593
          -5.0342735,50.4659080
          -5.0341951,50.4658698
          -5.0341311,50.4658272
          -5.0340574,50.4657794
          -5.0339917,50.4657343
          -5.0339139,50.4656936
          -5.0338483,50.4656502
          -5.0337870,50.4656027
          -5.0337207,50.4655809
          -5.0336583,50.4655496
          -5.0335727,50.4655100
          -5.0335183,50.4654640
          -5.0334867,50.4654089
          -5.0334578,50.4653584
          -5.0334141,50.4653107
          -5.0333909,50.4652723
          -5.0333395,50.4652513
          -5.0333189,50.4652380
          -5.0333158,50.4652357
          -5.0333267,50.4652363
          -5.0333158,50.4652357
          -5.0333158,50.4652357
          -5.0333158,50.4652357
          -5.0333158,50.4652357
          -5.0333158,50.4652357
          -5.0333158,50.4652357
          -5.0333158,50.4652357
          -5.0333158,50.4652357
          -5.0332935,50.4652261
          -5.0332931,50.4652259
          -5.0332931,50.4652259
          -5.0332931,50.4652259
          -5.0332931,50.4652259
          -5.0332931,50.4652259
          -5.0332931,50.4652259
          -5.0332931,50.4652259
          -5.0332706,50.4652168
          -5.0332706,50.4652168
          -5.0332422,50.4652081
          -5.0331702,50.4651856
          -5.0330984,50.4651538
          -5.0330069,50.4651419
          -5.0329209,50.4651164
          -5.0328405,50.4651142
          -5.0327964,50.4650717
          -5.0327204,50.4650268
          -5.0326263,50.4649987
          -5.0325460,50.4649618
          -5.0324652,50.4649305
          -5.0324028,50.4649066
          -5.0323419,50.4648775
          -5.0322690,50.4648590
          -5.0321803,50.4648622
          -5.0320852,50.4648725
          -5.0320076,50.4648927
          -5.0319183,50.4649122
          -5.0318426,50.4649239
          -5.0317534,50.4649429
          -5.0316627,50.4649722
          -5.0316628,50.4649969
          -5.0317389,50.4650218
          -5.0317792,50.4650620
          -5.0317972,50.4651140
          -5.0317996,50.4651679
          -5.0318298,50.4652161
          -5.0318597,50.4652791
          -5.0318732,50.4653335
          -5.0318924,50.4653881
          -5.0318975,50.4654496
          -5.0318916,50.4655117
          -5.0318863,50.4655634
          -5.0318996,50.4656280
          -5.0318982,50.4657021
          -5.0318908,50.4657448
          -5.0318840,50.4658000
          -5.0318862,50.4658645
          -5.0318747,50.4659215
          -5.0318582,50.4659713
          -5.0318478,50.4660274
          -5.0318393,50.4660841
          -5.0318155,50.4661297
          -5.0318042,50.4661807
          -5.0317731,50.4662232
          -5.0317259,50.4662673
          -5.0317136,50.4662882
          -5.0316628,50.4663183
          -5.0315961,50.4663391
          -5.0315494,50.4663507
          -5.0315143,50.4663327
          -5.0314667,50.4663195
          -5.0314324,50.4663116
          -5.0314043,50.4662984
          -5.0313596,50.4662996
          -5.0313479,50.4662703
          -5.0312877,50.4662644
          -5.0312065,50.4662508
          -5.0311376,50.4662396
          -5.0310709,50.4662550
          -5.0310190,50.4662673
          -5.0309591,50.4662830
          -5.0309081,50.4662908
          -5.0308706,50.4662599
          -5.0307850,50.4662488
          -5.0307167,50.4662395
          -5.0306719,50.4662019
          -5.0306765,50.4661452
          -5.0306817,50.4661172
          -5.0307035,50.4660820
          -5.0306730,50.4660442
          -5.0305864,50.4660245
          -5.0305798,50.4659780
          -5.0305896,50.4659758
          -5.0305896,50.4659758
          -5.0305896,50.4659758
        </coordinates>
      </LineString>
    </Placemark>
  </Document>
</kml>
