<?xml version="1.0" encoding="UTF-8"?>
<kml xmlns="http://www.opengis.net/kml/2.2" xmlns:xsi="http://www.w3.org/2001/XMLSchema-instance" xsi:schemaLocation="http://www.opengis.net/kml/2.2 http://schemas.opengis.net/kml/2.2.0/ogckml22.xsd">
  <Document>
    <name>GPS Wizard</name>
    <open>1</open>
    <Style id="wizard">
      <LineStyle>
        <color>a00000ff</color>
        <width>2</width>
      </LineStyle>
    </Style>
    <Placemark>
      <name>TBC</name>
      <styleUrl>#wizard</styleUrl>
      <LineString>
        <extrude>1</extrude>
        <tessellate>1</tessellate>
        <coordinates>
          -4.9936608,50.5398192
          -4.9936602,50.5398188
          -4.9936602,50.5398188
          -4.9936602,50.5398188
          -4.9936602,50.5398188
          -4.9936797,50.5398228
          -4.9936918,50.5398233
          -4.9936918,50.5398233
          -4.9936847,50.5398263
          -4.9936918,50.5398233
          -4.9936918,50.5398233
          -4.9936918,50.5398233
          -4.9936918,50.5398233
          -4.9936918,50.5398233
          -4.9937451,50.5398171
          -4.9938065,50.5398228
          -4.9938674,50.5398481
          -4.9939103,50.5398781
          -4.9939801,50.5399054
          -4.9940586,50.5399265
          -4.9941323,50.5399533
          -4.9942154,50.5399747
          -4.9942857,50.5399767
          -4.9943531,50.5399660
          -4.9944259,50.5399648
          -4.9945054,50.5399626
          -4.9945754,50.5399372
          -4.9946358,50.5399037
          -4.9946912,50.5398656
          -4.9947459,50.5398306
          -4.9947867,50.5397922
          -4.9948322,50.5397422
          -4.9948737,50.5396992
          -4.9949161,50.5396558
          -4.9949411,50.5396146
          -4.9949028,50.5395812
          -4.9949257,50.5395347
          -4.9949894,50.5395022
          -4.9950619,50.5394833
          -4.9951302,50.5394623
          -4.9951946,50.5394350
          -4.9952474,50.5394126
          -4.9953268,50.5393770
          -4.9953660,50.5393865
          -4.9953962,50.5393993
          -4.9953822,50.5394098
          -4.9953555,50.5394188
          -4.9953176,50.5394594
          -4.9953404,50.5395044
          -4.9953880,50.5395518
          -4.9954361,50.5395940
          -4.9954720,50.5396332
          -4.9955083,50.5396854
          -4.9955588,50.5397154
          -4.9956271,50.5397394
          -4.9956603,50.5397575
          -4.9956632,50.5397584
          -4.9956632,50.5397584
          -4.9956632,50.5397584
          -4.9956632,50.5397584
          -4.9956632,50.5397584
          -4.9956632,50.5397584
          -4.9956632,50.5397584
          -4.9956632,50.5397584
          -4.9956978,50.5397614
          -4.9957695,50.5397638
          -4.9958368,50.5397782
          -4.9958973,50.5397887
          -4.9959688,50.5398177
          -4.9960337,50.5398441
          -4.9961030,50.5398684
          -4.9961755,50.5398760
          -4.9962560,50.5398868
          -4.9963211,50.5398891
          -4.9963974,50.5398928
          -4.9964936,50.5399010
          -4.9965832,50.5399195
          -4.9966613,50.5399296
          -4.9967463,50.5399361
          -4.9968302,50.5399553
          -4.9969194,50.5399631
          -4.9970022,50.5399814
          -4.9970779,50.5399967
          -4.9971639,50.5400076
          -4.9972577,50.5400181
          -4.9973398,50.5400244
          -4.9974163,50.5400304
          -4.9975114,50.5400399
          -4.9975897,50.5400449
          -4.9976736,50.5400566
          -4.9977406,50.5400803
          -4.9978272,50.5401094
          -4.9978875,50.5401297
          -4.9979784,50.5401388
          -4.9980647,50.5401513
          -4.9981458,50.5401753
          -4.9982248,50.5401812
          -4.9983035,50.5401926
          -4.9983880,50.5402044
          -4.9983965,50.5402025
          -4.9984524,50.5402126
          -4.9985179,50.5402306
          -4.9985691,50.5402367
          -4.9985967,50.5402093
          -4.9986078,50.5402059
          -4.9986078,50.5402059
          -4.9986366,50.5401844
          -4.9986927,50.5401739
          -4.9987444,50.5401736
          -4.9987493,50.5401737
          -4.9987493,50.5401737
          -4.9987493,50.5401737
          -4.9987493,50.5401737
          -4.9987493,50.5401737
          -4.9987493,50.5401737
          -4.9987493,50.5401737
          -4.9987493,50.5401737
          -4.9987991,50.5401782
          -4.9988869,50.5401736
          -4.9989568,50.5401615
          -4.9990526,50.5401627
          -4.9991381,50.5401605
          -4.9992103,50.5401732
          -4.9992767,50.5402006
          -4.9993402,50.5402280
          -4.9994104,50.5402479
          -4.9994752,50.5402780
          -4.9995317,50.5402690
          -4.9995632,50.5402382
          -4.9995847,50.5402023
          -4.9995995,50.5401564
          -4.9996145,50.5401188
          -4.9996208,50.5400695
          -4.9996093,50.5400419
          -4.9995922,50.5400293
          -4.9995949,50.5400358
          -4.9995840,50.5400284
          -4.9995884,50.5400137
          -4.9995991,50.5400017
          -4.9995923,50.5400070
          -4.9995891,50.5400048
          -4.9995968,50.5400115
          -4.9995858,50.5400178
          -4.9995956,50.5400098
          -4.9996020,50.5399987
          -4.9995900,50.5400060
          -4.9995900,50.5400060
          -4.9995900,50.5400060
          -4.9995900,50.5400060
          -4.9995900,50.5400060
          -4.9995900,50.5400060
          -4.9995900,50.5400060
          -4.9995900,50.5400060
          -4.9995965,50.5399816
          -4.9996084,50.5399520
          -4.9996302,50.5399153
          -4.9996876,50.5398860
          -4.9997660,50.5398906
          -4.9998367,50.5399005
          -4.9999152,50.5399217
          -4.9999799,50.5399554
          -5.0000466,50.5399954
          -5.0001068,50.5400287
          -5.0001704,50.5400663
          -5.0002340,50.5401090
          -5.0002835,50.5401498
          -5.0003460,50.5401810
          -5.0004232,50.5401910
          -5.0005159,50.5402008
          -5.0005941,50.5402014
          -5.0006829,50.5402033
          -5.0007789,50.5402030
          -5.0008718,50.5402082
          -5.0009641,50.5402200
          -5.0010467,50.5402362
          -5.0011418,50.5402508
          -5.0012283,50.5402672
          -5.0013235,50.5402802
          -5.0014048,50.5403040
          -5.0014847,50.5403393
          -5.0015540,50.5403660
          -5.0016340,50.5404009
          -5.0017094,50.5404199
          -5.0017950,50.5404387
          -5.0018898,50.5404637
          -5.0019725,50.5404833
          -5.0020521,50.5405068
          -5.0021269,50.5405361
          -5.0021852,50.5405767
          -5.0022378,50.5406409
          -5.0022581,50.5406947
          -5.0022858,50.5407491
          -5.0023155,50.5408024
          -5.0023588,50.5408480
          -5.0023765,50.5408506
          -5.0023941,50.5408506
          -5.0024231,50.5408579
          -5.0024302,50.5409078
          -5.0024453,50.5409596
          -5.0025154,50.5409874
          -5.0026015,50.5410203
          -5.0026691,50.5410563
          -5.0027430,50.5410890
          -5.0028098,50.5411255
          -5.0028760,50.5411640
          -5.0029449,50.5411964
          -5.0030199,50.5411945
          -5.0030933,50.5411801
          -5.0031822,50.5411674
          -5.0032669,50.5411495
          -5.0033526,50.5411635
          -5.0034150,50.5411996
          -5.0034861,50.5412382
          -5.0035494,50.5412769
          -5.0035989,50.5413081
          -5.0036109,50.5413539
          -5.0035629,50.5414056
          -5.0035202,50.5414501
          -5.0035425,50.5414996
          -5.0035838,50.5415582
          -5.0036181,50.5416079
          -5.0036506,50.5416584
          -5.0036898,50.5416950
          -5.0036950,50.5416952
          -5.0037063,50.5417051
          -5.0036762,50.5417558
          -5.0036829,50.5418115
          -5.0037157,50.5418606
          -5.0037422,50.5418970
          -5.0037480,50.5419197
          -5.0037544,50.5419229
          -5.0037544,50.5419229
          -5.0037544,50.5419229
          -5.0037544,50.5419229
          -5.0037544,50.5419229
          -5.0037544,50.5419229
          -5.0038112,50.5419723
          -5.0038493,50.5420348
          -5.0038907,50.5420945
          -5.0039273,50.5421449
          -5.0039694,50.5422045
          -5.0040105,50.5422584
          -5.0040508,50.5423124
          -5.0040904,50.5423715
          -5.0041347,50.5424199
          -5.0041705,50.5424726
          -5.0042153,50.5425294
          -5.0042570,50.5425786
          -5.0043227,50.5426376
          -5.0043653,50.5426807
          -5.0044145,50.5427304
          -5.0044525,50.5427936
          -5.0045003,50.5428445
          -5.0045825,50.5428743
          -5.0046693,50.5429003
          -5.0047486,50.5429269
          -5.0048236,50.5429521
          -5.0048898,50.5429919
          -5.0049252,50.5430513
          -5.0049211,50.5430681
          -5.0049176,50.5430735
          -5.0049177,50.5430734
          -5.0049177,50.5430734
          -5.0049387,50.5430840
          -5.0049661,50.5431215
          -5.0049783,50.5431576
          -5.0049822,50.5431860
          -5.0049849,50.5431920
          -5.0049931,50.5431961
          -5.0050045,50.5432318
          -5.0050132,50.5432782
          -5.0050107,50.5433190
          -5.0050321,50.5433365
          -5.0050260,50.5433826
          -5.0049842,50.5434318
          -5.0049537,50.5434773
          -5.0048837,50.5435154
          -5.0048563,50.5435432
          -5.0048651,50.5435358
          -5.0048133,50.5435712
          -5.0047703,50.5436247
          -5.0047465,50.5436753
          -5.0047500,50.5437256
          -5.0047715,50.5437760
          -5.0047916,50.5438115
          -5.0048172,50.5438618
          -5.0048255,50.5439023
          -5.0048423,50.5439327
          -5.0048776,50.5439603
          -5.0048768,50.5439706
          -5.0048972,50.5439830
          -5.0049172,50.5439961
          -5.0049029,50.5440440
          -5.0048945,50.5440920
          -5.0048815,50.5441487
          -5.0048792,50.5442009
          -5.0048915,50.5442545
          -5.0049172,50.5443041
          -5.0049210,50.5443527
          -5.0049174,50.5444023
          -5.0048895,50.5444489
          -5.0048521,50.5444874
          -5.0048463,50.5444935
          -5.0048463,50.5444935
          -5.0048463,50.5444935
          -5.0048463,50.5444935
          -5.0048463,50.5444935
          -5.0048463,50.5444935
          -5.0048463,50.5444935
          -5.0048095,50.5445067
          -5.0047232,50.5445495
          -5.0046614,50.5445893
          -5.0045916,50.5446336
          -5.0045170,50.5446771
          -5.0044505,50.5447239
          -5.0043735,50.5447612
          -5.0042953,50.5448040
          -5.0042261,50.5448341
          -5.0041477,50.5448719
          -5.0040763,50.5449086
          -5.0039943,50.5449463
          -5.0039228,50.5449791
          -5.0038596,50.5450154
          -5.0038016,50.5450599
          -5.0037479,50.5450996
          -5.0037157,50.5451427
          -5.0037068,50.5452086
          -5.0037842,50.5452400
          -5.0038570,50.5452609
          -5.0039291,50.5452773
          -5.0040174,50.5452845
          -5.0041084,50.5452905
          -5.0041867,50.5453107
          -5.0042713,50.5453277
          -5.0043499,50.5453449
          -5.0044260,50.5453651
          -5.0044938,50.5453855
          -5.0045347,50.5454232
          -5.0045664,50.5454760
          -5.0045835,50.5455304
          -5.0045963,50.5455861
          -5.0046147,50.5456380
          -5.0046293,50.5456808
          -5.0046719,50.5457230
          -5.0047412,50.5457544
          -5.0048117,50.5457865
          -5.0048811,50.5458215
          -5.0049212,50.5458571
          -5.0049663,50.5459083
          -5.0049794,50.5459234
          -5.0049967,50.5459524
          -5.0050009,50.5459526
          -5.0049992,50.5459529
          -5.0049992,50.5459529
          -5.0049992,50.5459529
          -5.0049992,50.5459529
          -5.0049992,50.5459529
          -5.0049997,50.5459494
          -5.0049992,50.5459529
          -5.0049992,50.5459529
          -5.0049992,50.5459529
          -5.0050253,50.5459526
          -5.0051093,50.5459487
          -5.0051806,50.5459452
          -5.0052552,50.5459583
          -5.0053337,50.5459600
          -5.0054054,50.5459585
          -5.0054837,50.5459498
          -5.0055605,50.5459268
          -5.0056343,50.5459035
          -5.0057125,50.5458817
          -5.0057821,50.5458563
          -5.0058567,50.5458308
          -5.0059355,50.5458136
          -5.0060155,50.5458139
          -5.0060886,50.5457929
          -5.0061723,50.5457661
          -5.0062467,50.5457412
          -5.0063202,50.5457175
          -5.0063967,50.5456796
          -5.0064574,50.5456544
          -5.0065403,50.5456231
          -5.0066214,50.5456101
          -5.0067002,50.5455806
          -5.0067741,50.5455565
          -5.0068567,50.5455305
          -5.0069344,50.5454967
          -5.0070209,50.5454705
          -5.0071192,50.5454505
          -5.0071937,50.5454350
          -5.0072822,50.5454139
          -5.0073625,50.5453922
          -5.0074495,50.5453683
          -5.0075457,50.5453558
          -5.0076325,50.5453498
          -5.0077224,50.5453505
          -5.0078115,50.5453482
          -5.0079072,50.5453314
          -5.0080001,50.5453186
          -5.0080799,50.5452956
          -5.0081726,50.5452801
          -5.0082625,50.5452557
          -5.0083480,50.5452345
          -5.0084301,50.5452184
          -5.0085142,50.5451946
          -5.0086035,50.5451772
          -5.0086793,50.5451541
          -5.0087383,50.5451698
          -5.0087387,50.5451677
          -5.0087387,50.5451677
          -5.0088087,50.5451450
          -5.0088940,50.5451236
          -5.0089745,50.5450841
          -5.0090618,50.5450576
          -5.0091517,50.5450310
          -5.0092381,50.5450110
          -5.0093138,50.5449858
          -5.0094035,50.5449565
          -5.0094842,50.5449209
          -5.0095663,50.5449019
          -5.0096379,50.5448766
          -5.0097287,50.5448612
          -5.0098202,50.5448308
          -5.0099007,50.5448029
          -5.0099971,50.5447783
          -5.0100807,50.5447581
          -5.0101763,50.5447287
          -5.0102561,50.5447057
          -5.0103303,50.5446756
          -5.0104313,50.5446623
          -5.0105315,50.5446557
          -5.0106051,50.5446740
          -5.0106646,50.5447167
          -5.0107278,50.5447586
          -5.0108019,50.5447996
          -5.0108493,50.5448531
          -5.0108871,50.5449048
          -5.0109416,50.5449071
          -5.0110066,50.5448834
          -5.0110850,50.5448710
          -5.0111683,50.5448574
          -5.0112633,50.5448465
          -5.0113477,50.5448267
          -5.0114205,50.5448320
          -5.0115080,50.5448178
          -5.0116048,50.5448051
          -5.0116966,50.5448238
          -5.0117680,50.5448225
          -5.0118463,50.5448343
          -5.0119422,50.5448327
          -5.0120421,50.5448341
          -5.0121269,50.5448439
          -5.0122195,50.5448558
          -5.0123013,50.5448470
          -5.0123542,50.5448614
          -5.0124188,50.5448625
          -5.0124534,50.5448785
          -5.0125192,50.5448948
          -5.0125259,50.5448924
          -5.0125291,50.5448953
          -5.0125259,50.5448924
          -5.0125259,50.5448924
          -5.0125259,50.5448924
          -5.0125473,50.5448922
          -5.0125850,50.5448919
          -5.0126519,50.5448909
          -5.0127244,50.5448858
          -5.0128007,50.5448648
          -5.0128798,50.5448549
          -5.0129621,50.5448486
          -5.0130398,50.5448343
          -5.0131143,50.5448209
          -5.0131846,50.5448119
          -5.0132548,50.5447875
          -5.0133253,50.5447759
          -5.0134087,50.5447560
          -5.0134712,50.5447315
          -5.0135056,50.5447098
          -5.0135514,50.5446859
          -5.0136112,50.5446693
          -5.0136651,50.5446588
          -5.0136964,50.5446441
          -5.0136788,50.5445921
          -5.0136909,50.5445433
          -5.0137269,50.5445100
          -5.0137226,50.5444870
          -5.0137750,50.5444648
          -5.0138313,50.5444403
          -5.0138829,50.5444405
          -5.0139645,50.5444438
          -5.0140335,50.5444350
          -5.0141090,50.5444158
          -5.0141829,50.5443881
          -5.0142553,50.5443648
          -5.0143164,50.5443161
          -5.0143670,50.5442745
          -5.0144225,50.5442299
          -5.0144858,50.5441810
          -5.0145504,50.5441439
          -5.0146034,50.5440971
          -5.0146633,50.5440469
          -5.0147063,50.5439998
          -5.0147477,50.5439519
          -5.0147880,50.5438964
          -5.0148524,50.5438471
          -5.0149246,50.5438040
          -5.0150159,50.5437863
          -5.0151052,50.5438113
          -5.0151709,50.5438452
          -5.0152706,50.5438758
          -5.0153621,50.5438849
          -5.0154560,50.5438767
          -5.0155463,50.5438591
          -5.0156324,50.5438305
          -5.0157067,50.5437964
          -5.0157254,50.5437431
          -5.0157552,50.5436898
          -5.0157751,50.5436465
          -5.0157880,50.5436188
          -5.0158338,50.5435868
          -5.0158630,50.5435323
          -5.0158649,50.5434753
          -5.0159189,50.5434538
          -5.0159103,50.5435063
          -5.0159124,50.5435232
          -5.0159399,50.5435282
          -5.0159619,50.5435971
          -5.0159633,50.5436507
          -5.0159713,50.5437078
          -5.0159816,50.5437580
          -5.0160348,50.5437980
          -5.0160917,50.5438459
          -5.0161446,50.5438903
          -5.0162049,50.5439363
          -5.0162516,50.5439844
          -5.0163169,50.5440317
          -5.0163636,50.5440788
          -5.0164270,50.5441307
          -5.0164713,50.5441727
          -5.0165581,50.5441924
          -5.0166571,50.5442092
          -5.0167527,50.5442290
          -5.0168455,50.5442424
          -5.0169384,50.5442584
          -5.0170405,50.5442695
          -5.0171367,50.5442825
          -5.0172371,50.5443012
          -5.0173222,50.5443150
          -5.0174242,50.5443280
          -5.0175116,50.5443413
          -5.0175928,50.5443610
          -5.0176807,50.5443818
          -5.0177278,50.5443907
          -5.0177715,50.5443997
          -5.0178620,50.5444166
          -5.0179578,50.5444289
          -5.0180568,50.5444467
          -5.0181522,50.5444574
          -5.0182382,50.5444702
          -5.0183353,50.5444857
          -5.0184251,50.5444998
          -5.0184971,50.5445350
          -5.0185787,50.5445561
          -5.0186222,50.5446029
          -5.0186836,50.5446387
          -5.0187618,50.5446766
          -5.0188123,50.5447316
          -5.0188142,50.5447785
          -5.0188012,50.5448440
          -5.0187935,50.5448953
          -5.0188015,50.5449613
          -5.0188199,50.5450156
          -5.0188225,50.5450633
          -5.0188836,50.5451009
          -5.0189273,50.5451071
          -5.0189359,50.5451126
          -5.0189378,50.5451203
          -5.0189378,50.5451203
          -5.0189378,50.5451203
          -5.0189378,50.5451203
          -5.0189378,50.5451203
          -5.0189378,50.5451203
          -5.0189378,50.5451203
          -5.0189348,50.5451147
          -5.0189378,50.5451203
          -5.0189378,50.5451203
          -5.0189378,50.5451203
          -5.0189378,50.5451203
          -5.0189378,50.5451203
          -5.0189378,50.5451203
          -5.0189378,50.5451203
          -5.0189378,50.5451203
          -5.0189378,50.5451203
          -5.0189378,50.5451203
          -5.0189378,50.5451203
          -5.0189472,50.5451081
          -5.0189357,50.5451159
          -5.0189684,50.5451376
          -5.0190271,50.5451499
          -5.0190809,50.5451423
          -5.0191511,50.5451265
          -5.0192262,50.5451478
          -5.0193072,50.5451796
          -5.0193805,50.5452097
          -5.0194404,50.5452405
          -5.0195107,50.5452778
          -5.0195739,50.5453203
          -5.0196320,50.5453675
          -5.0196499,50.5454139
          -5.0196437,50.5454635
          -5.0196867,50.5454875
          -5.0197230,50.5455033
          -5.0197234,50.5455038
          -5.0197234,50.5455038
          -5.0197234,50.5455038
          -5.0197591,50.5455396
          -5.0198113,50.5455908
          -5.0198807,50.5456229
          -5.0199525,50.5456621
          -5.0200164,50.5456962
          -5.0200828,50.5457173
          -5.0201451,50.5457290
          -5.0201949,50.5457289
          -5.0202697,50.5457094
          -5.0203413,50.5457234
          -5.0204039,50.5457587
          -5.0204520,50.5457980
          -5.0205194,50.5458304
          -5.0205771,50.5458764
          -5.0206081,50.5459279
          -5.0206447,50.5459759
          -5.0206852,50.5460286
          -5.0207028,50.5460778
          -5.0207448,50.5461261
          -5.0207983,50.5461774
          -5.0208397,50.5462278
          -5.0208663,50.5462762
          -5.0209037,50.5463254
          -5.0209464,50.5463674
          -5.0209946,50.5464114
          -5.0210415,50.5464593
          -5.0211030,50.5465014
          -5.0211527,50.5465409
          -5.0211917,50.5465847
          -5.0212328,50.5466210
          -5.0212887,50.5466545
          -5.0213408,50.5466866
          -5.0213969,50.5467131
          -5.0214767,50.5467483
          -5.0215400,50.5467888
          -5.0216010,50.5468223
          -5.0216643,50.5468424
          -5.0217384,50.5468478
          -5.0218009,50.5468578
          -5.0218015,50.5468559
          -5.0218464,50.5468696
          -5.0218803,50.5468644
          -5.0218854,50.5468667
          -5.0218854,50.5468667
          -5.0219361,50.5468743
          -5.0219922,50.5469104
          -5.0220463,50.5469501
          -5.0221089,50.5469861
          -5.0221685,50.5470181
          -5.0222306,50.5470522
          -5.0222832,50.5470963
          -5.0223521,50.5471382
          -5.0224125,50.5471750
          -5.0224613,50.5471824
          -5.0225275,50.5471749
          -5.0225467,50.5472254
          -5.0225607,50.5472788
          -5.0225870,50.5473189
          -5.0226198,50.5473555
          -5.0226750,50.5473966
          -5.0227302,50.5474331
          -5.0227903,50.5474725
          -5.0228409,50.5475060
          -5.0228835,50.5475425
          -5.0229385,50.5475769
          -5.0229970,50.5476223
          -5.0230512,50.5476631
          -5.0231063,50.5476998
          -5.0231652,50.5477314
          -5.0232163,50.5477733
          -5.0232823,50.5478110
          -5.0233300,50.5478547
          -5.0233801,50.5478934
          -5.0234382,50.5479301
          -5.0234854,50.5479667
          -5.0235443,50.5480063
          -5.0235984,50.5480503
          -5.0236621,50.5480948
          -5.0237214,50.5481299
          -5.0237823,50.5481653
          -5.0238352,50.5481991
          -5.0238830,50.5482434
          -5.0239003,50.5482925
          -5.0239368,50.5483352
          -5.0239978,50.5483685
          -5.0240445,50.5484045
          -5.0240958,50.5484358
          -5.0241488,50.5484731
          -5.0241988,50.5485011
          -5.0242480,50.5485399
          -5.0243097,50.5485829
          -5.0243610,50.5486272
          -5.0244225,50.5486565
          -5.0244708,50.5486924
          -5.0245296,50.5487352
          -5.0245785,50.5487593
          -5.0245840,50.5487641
          -5.0245807,50.5487672
          -5.0245981,50.5487888
          -5.0246387,50.5488128
          -5.0246376,50.5488114
          -5.0246895,50.5488401
          -5.0247634,50.5488880
          -5.0248250,50.5489349
          -5.0248914,50.5489740
          -5.0249470,50.5490088
          -5.0250160,50.5490438
          -5.0250646,50.5490748
          -5.0251219,50.5491148
          -5.0251767,50.5491455
          -5.0252373,50.5491779
          -5.0252971,50.5492171
          -5.0253545,50.5492615
          -5.0254152,50.5493046
          -5.0254768,50.5493461
          -5.0255262,50.5493850
          -5.0255740,50.5494218
          -5.0255859,50.5494256
          -5.0256003,50.5494332
          -5.0256586,50.5494682
          -5.0257181,50.5495057
          -5.0257977,50.5495521
          -5.0258664,50.5495930
          -5.0259399,50.5496432
          -5.0260016,50.5496905
          -5.0260651,50.5497294
          -5.0261430,50.5497757
          -5.0262077,50.5498220
          -5.0262715,50.5498642
          -5.0263406,50.5499112
          -5.0264149,50.5499528
          -5.0264905,50.5499914
          -5.0265665,50.5500398
          -5.0266255,50.5500810
          -5.0266804,50.5501323
          -5.0267413,50.5501711
          -5.0268034,50.5502070
          -5.0268690,50.5502456
          -5.0269333,50.5502768
          -5.0269593,50.5502877
          -5.0270310,50.5502884
          -5.0270888,50.5502969
          -5.0271587,50.5503097
          -5.0272307,50.5503340
          -5.0273067,50.5503585
          -5.0273949,50.5503690
          -5.0274786,50.5503725
          -5.0275456,50.5503856
          -5.0276136,50.5503911
          -5.0276914,50.5503837
          -5.0277599,50.5503633
          -5.0278462,50.5503436
          -5.0279105,50.5503211
          -5.0280020,50.5503017
          -5.0280873,50.5502776
          -5.0281574,50.5502463
          -5.0282435,50.5502188
          -5.0283146,50.5501847
          -5.0283955,50.5501614
          -5.0284764,50.5501340
          -5.0285484,50.5501141
          -5.0286319,50.5500845
          -5.0286989,50.5500590
          -5.0287748,50.5500261
          -5.0288457,50.5500009
          -5.0289236,50.5499784
          -5.0289907,50.5499487
          -5.0290636,50.5499250
          -5.0291420,50.5499052
          -5.0292203,50.5498955
          -5.0293064,50.5498765
          -5.0293918,50.5498586
          -5.0294648,50.5498393
          -5.0295554,50.5498246
          -5.0296197,50.5498022
          -5.0296771,50.5497881
          -5.0297581,50.5497772
          -5.0298420,50.5497705
          -5.0299102,50.5497843
          -5.0299891,50.5497792
          -5.0300648,50.5497654
          -5.0301320,50.5497510
          -5.0301964,50.5497375
          -5.0302777,50.5497362
          -5.0303553,50.5497234
          -5.0304462,50.5497076
          -5.0305264,50.5496909
          -5.0306003,50.5496733
          -5.0306702,50.5496502
          -5.0307577,50.5496299
          -5.0308532,50.5496227
          -5.0309428,50.5496153
          -5.0310341,50.5496001
          -5.0311227,50.5496036
          -5.0312041,50.5496246
          -5.0312272,50.5496366
          -5.0312272,50.5496366
          -5.0312272,50.5496366
          -5.0312272,50.5496366
          -5.0312272,50.5496366
          -5.0312318,50.5496400
          -5.0312450,50.5496326
          -5.0312671,50.5496352
          -5.0313233,50.5496342
          -5.0314216,50.5496209
          -5.0315023,50.5496027
          -5.0315822,50.5495869
          -5.0316079,50.5495910
          -5.0316079,50.5495913
          -5.0316592,50.5495828
          -5.0317464,50.5495736
          -5.0318388,50.5495660
          -5.0319231,50.5495473
          -5.0320016,50.5495380
          -5.0320834,50.5495295
          -5.0321746,50.5495086
          -5.0322538,50.5494931
          -5.0323440,50.5494723
          -5.0324238,50.5494440
          -5.0324990,50.5494292
          -5.0325725,50.5494035
          -5.0326556,50.5493799
          -5.0327404,50.5493527
          -5.0328232,50.5493236
          -5.0329083,50.5493030
          -5.0330022,50.5492736
          -5.0330801,50.5492392
          -5.0331590,50.5492098
          -5.0332415,50.5491795
          -5.0333266,50.5491502
          -5.0333981,50.5491304
          -5.0334681,50.5490972
          -5.0334892,50.5490961
          -5.0334950,50.5490873
          -5.0335539,50.5490724
          -5.0336242,50.5490435
          -5.0336931,50.5490096
          -5.0337722,50.5489784
          -5.0338462,50.5489768
          -5.0339184,50.5489522
          -5.0339980,50.5489447
          -5.0340960,50.5489337
          -5.0341825,50.5489091
          -5.0342716,50.5488891
          -5.0343458,50.5488653
          -5.0344305,50.5488322
          -5.0344956,50.5487945
          -5.0345720,50.5487642
          -5.0346404,50.5487202
          -5.0346850,50.5486873
          -5.0347669,50.5486551
          -5.0347838,50.5486167
          -5.0348111,50.5485794
          -5.0348149,50.5485346
          -5.0348123,50.5484819
          -5.0348071,50.5484290
          -5.0347783,50.5483824
          -5.0347789,50.5483506
          -5.0348006,50.5483186
          -5.0348353,50.5482768
          -5.0348536,50.5482577
          -5.0348509,50.5482382
          -5.0348509,50.5482382
          -5.0348509,50.5482382
          -5.0348509,50.5482382
          -5.0348509,50.5482382
          -5.0348509,50.5482382
          -5.0348212,50.5482169
          -5.0347818,50.5481647
          -5.0347533,50.5481188
          -5.0347481,50.5481099
          -5.0347085,50.5480558
          -5.0346697,50.5480067
          -5.0346318,50.5479533
          -5.0346019,50.5479242
          -5.0345932,50.5479124
          -5.0345932,50.5479124
          -5.0345932,50.5479124
          -5.0345932,50.5479124
          -5.0345932,50.5479124
          -5.0345932,50.5479124
          -5.0345932,50.5479124
          -5.0345932,50.5479124
          -5.0345932,50.5479124
          -5.0345932,50.5479124
          -5.0345965,50.5479106
          -5.0345688,50.5478681
          -5.0345762,50.5478226
          -5.0346004,50.5477825
          -5.0346191,50.5477349
          -5.0346506,50.5476804
          -5.0346893,50.5476406
          -5.0347403,50.5476054
          -5.0347771,50.5475964
          -5.0348060,50.5475891
          -5.0348324,50.5475945
          -5.0348750,50.5475733
          -5.0349255,50.5475484
          -5.0349772,50.5475019
          -5.0349953,50.5474448
          -5.0349941,50.5473701
          -5.0350049,50.5473112
          -5.0350558,50.5472488
          -5.0350998,50.5472045
          -5.0351673,50.5471703
          -5.0352353,50.5471237
          -5.0353060,50.5470814
          -5.0353716,50.5470440
          -5.0354317,50.5470140
          -5.0354712,50.5469798
          -5.0354684,50.5469698
          -5.0354684,50.5469698
          -5.0354684,50.5469698
          -5.0354684,50.5469698
          -5.0354684,50.5469698
          -5.0354684,50.5469698
          -5.0354684,50.5469698
          -5.0354684,50.5469698
          -5.0354684,50.5469698
          -5.0354684,50.5469698
          -5.0354684,50.5469698
          -5.0354684,50.5469698
          -5.0354684,50.5469698
          -5.0354684,50.5469698
          -5.0354684,50.5469698
          -5.0354684,50.5469698
          -5.0354684,50.5469698
          -5.0354684,50.5469698
          -5.0354684,50.5469698
          -5.0354684,50.5469698
          -5.0354684,50.5469698
          -5.0354684,50.5469698
          -5.0354684,50.5469698
          -5.0354684,50.5469698
          -5.0354684,50.5469698
          -5.0354684,50.5469698
          -5.0354684,50.5469698
          -5.0354684,50.5469698
          -5.0354684,50.5469698
          -5.0354684,50.5469698
          -5.0354684,50.5469698
          -5.0354684,50.5469698
          -5.0354684,50.5469698
          -5.0354684,50.5469698
          -5.0354684,50.5469698
          -5.0354684,50.5469698
          -5.0354684,50.5469698
          -5.0354684,50.5469698
          -5.0354684,50.5469698
          -5.0354684,50.5469698
          -5.0354711,50.5469717
          -5.0354610,50.5469289
          -5.0354656,50.5468799
          -5.0354881,50.5468597
          -5.0354916,50.5468541
          -5.0355023,50.5468037
          -5.0355205,50.5467534
          -5.0355241,50.5466998
          -5.0355328,50.5466527
          -5.0355536,50.5465987
          -5.0355971,50.5465421
          -5.0356468,50.5465021
          -5.0356939,50.5464667
          -5.0357478,50.5464248
          -5.0358009,50.5463927
          -5.0358343,50.5463720
          -5.0358948,50.5463575
          -5.0359611,50.5463265
          -5.0360249,50.5462959
          -5.0360895,50.5462666
          -5.0361620,50.5462368
          -5.0362351,50.5462057
          -5.0363049,50.5461695
          -5.0363753,50.5461255
          -5.0364327,50.5460825
          -5.0365053,50.5460648
          -5.0365978,50.5460428
          -5.0366864,50.5460216
          -5.0367703,50.5460073
          -5.0368563,50.5459971
          -5.0369403,50.5459773
          -5.0370234,50.5459578
          -5.0370852,50.5459332
          -5.0371512,50.5459113
          -5.0372070,50.5458793
          -5.0372620,50.5458477
          -5.0373291,50.5458231
          -5.0373928,50.5458173
          -5.0374677,50.5458033
          -5.0375396,50.5457784
          -5.0376074,50.5457580
          -5.0376476,50.5457344
          -5.0377138,50.5457179
          -5.0377804,50.5456936
          -5.0378575,50.5456737
          -5.0379375,50.5456541
          -5.0380136,50.5456396
          -5.0380882,50.5456281
          -5.0381460,50.5456056
          -5.0382025,50.5455825
          -5.0382347,50.5455620
          -5.0382349,50.5455615
          -5.0382436,50.5455411
          -5.0382514,50.5455332
          -5.0382514,50.5455332
          -5.0382514,50.5455332
          -5.0382399,50.5455590
          -5.0381961,50.5455925
          -5.0381335,50.5456183
          -5.0380716,50.5456328
          -5.0380126,50.5456419
          -5.0379503,50.5456549
          -5.0378900,50.5456702
          -5.0378215,50.5456890
          -5.0377585,50.5457103
          -5.0377019,50.5457341
          -5.0376445,50.5457606
          -5.0375924,50.5457732
          -5.0375381,50.5457927
          -5.0374765,50.5458169
          -5.0374151,50.5458354
          -5.0373486,50.5458556
          -5.0372751,50.5458820
          -5.0372177,50.5459057
          -5.0371603,50.5459276
          -5.0370837,50.5459526
          -5.0370151,50.5459688
          -5.0369072,50.5459949
          -5.0368248,50.5460131
          -5.0367262,50.5460232
          -5.0366306,50.5460391
          -5.0365396,50.5460507
          -5.0364472,50.5460716
          -5.0363568,50.5460724
          -5.0362543,50.5460889
          -5.0361809,50.5461145
          -5.0361012,50.5461325
          -5.0360327,50.5461401
          -5.0359664,50.5461555
          -5.0359041,50.5461657
          -5.0358380,50.5461757
          -5.0357889,50.5461853
          -5.0357544,50.5461945
          -5.0357081,50.5462088
          -5.0356482,50.5462172
          -5.0356071,50.5462213
          -5.0355541,50.5462364
          -5.0355104,50.5462306
          -5.0354611,50.5462344
          -5.0354174,50.5462244
          -5.0353832,50.5462269
          -5.0353355,50.5462109
          -5.0352692,50.5462151
          -5.0352128,50.5462151
          -5.0351597,50.5462170
          -5.0350910,50.5462265
          -5.0350263,50.5462270
          -5.0349690,50.5462411
          -5.0349247,50.5462205
          -5.0348697,50.5461939
          -5.0348261,50.5461583
          -5.0347516,50.5461204
          -5.0346876,50.5460886
          -5.0346343,50.5460613
          -5.0345730,50.5460074
          -5.0345185,50.5459580
          -5.0344473,50.5459225
          -5.0343925,50.5458727
          -5.0343376,50.5458243
          -5.0342668,50.5457740
          -5.0342122,50.5457282
          -5.0341415,50.5456753
          -5.0340954,50.5456308
          -5.0340317,50.5455834
          -5.0339695,50.5455369
          -5.0339093,50.5454912
          -5.0338626,50.5454399
          -5.0338252,50.5453845
          -5.0337857,50.5453310
          -5.0337566,50.5452704
          -5.0337367,50.5452145
          -5.0337191,50.5451580
          -5.0337184,50.5451028
          -5.0337498,50.5450758
          -5.0337799,50.5450446
          -5.0337790,50.5450381
          -5.0337794,50.5450372
          -5.0337794,50.5450372
          -5.0337771,50.5450235
          -5.0337431,50.5449771
          -5.0337451,50.5449211
          -5.0337483,50.5448663
          -5.0337624,50.5448036
          -5.0337702,50.5447477
          -5.0337742,50.5446917
          -5.0337664,50.5446390
          -5.0337547,50.5445788
          -5.0337474,50.5445210
          -5.0336958,50.5444782
          -5.0336386,50.5444333
          -5.0335929,50.5443778
          -5.0335515,50.5443243
          -5.0335028,50.5442756
          -5.0334448,50.5442340
          -5.0333757,50.5441907
          -5.0333231,50.5441381
          -5.0332791,50.5440885
          -5.0332370,50.5440337
          -5.0332054,50.5439820
          -5.0331410,50.5439363
          -5.0330722,50.5438985
          -5.0329885,50.5438709
          -5.0329107,50.5438286
          -5.0328426,50.5437948
          -5.0327607,50.5437587
          -5.0326994,50.5437241
          -5.0326165,50.5436851
          -5.0325474,50.5436435
          -5.0324779,50.5435966
          -5.0324138,50.5435605
          -5.0323488,50.5435119
          -5.0322730,50.5434693
          -5.0321925,50.5434375
          -5.0321119,50.5434054
          -5.0320392,50.5433797
          -5.0319622,50.5433545
          -5.0318912,50.5433173
          -5.0318384,50.5432663
          -5.0317458,50.5432302
          -5.0316814,50.5431989
          -5.0315893,50.5431669
          -5.0315107,50.5431505
          -5.0314269,50.5431259
          -5.0313339,50.5430981
          -5.0312546,50.5430714
          -5.0311646,50.5430389
          -5.0310890,50.5430080
          -5.0309948,50.5429843
          -5.0309179,50.5429588
          -5.0308153,50.5429490
          -5.0307363,50.5429132
          -5.0306753,50.5428738
          -5.0306011,50.5428294
          -5.0305313,50.5427882
          -5.0304470,50.5427495
          -5.0303693,50.5427164
          -5.0302788,50.5426828
          -5.0301976,50.5426615
          -5.0301140,50.5426377
          -5.0300248,50.5426230
          -5.0299555,50.5425888
          -5.0298914,50.5425369
          -5.0299132,50.5425204
          -5.0298656,50.5425091
          -5.0298210,50.5424627
          -5.0297662,50.5424090
          -5.0297023,50.5423610
          -5.0296388,50.5423147
          -5.0295887,50.5422730
          -5.0295219,50.5422320
          -5.0294603,50.5421801
          -5.0293989,50.5421394
          -5.0293256,50.5421048
          -5.0292499,50.5420753
          -5.0291748,50.5420451
          -5.0290970,50.5420205
          -5.0290101,50.5419987
          -5.0289267,50.5419844
          -5.0288350,50.5419768
          -5.0287318,50.5419683
          -5.0286546,50.5419643
          -5.0285563,50.5419618
          -5.0284837,50.5419653
          -5.0284003,50.5419744
          -5.0283031,50.5419770
          -5.0282189,50.5419841
          -5.0281355,50.5419925
          -5.0280352,50.5420002
          -5.0279523,50.5420113
          -5.0278669,50.5420202
          -5.0277850,50.5420145
          -5.0276928,50.5420284
          -5.0276027,50.5420338
          -5.0275077,50.5420321
          -5.0274041,50.5420440
          -5.0273118,50.5420484
          -5.0272144,50.5420322
          -5.0271463,50.5420088
          -5.0270758,50.5419726
          -5.0270100,50.5419399
          -5.0269241,50.5419261
          -5.0268356,50.5419161
          -5.0267444,50.5419161
          -5.0266505,50.5419165
          -5.0265599,50.5419146
          -5.0264592,50.5419057
          -5.0263668,50.5419032
          -5.0262817,50.5418990
          -5.0261975,50.5418752
          -5.0261255,50.5418557
          -5.0260847,50.5418467
          -5.0260864,50.5418467
          -5.0260864,50.5418467
          -5.0260864,50.5418467
          -5.0260864,50.5418467
          -5.0260864,50.5418467
          -5.0260864,50.5418467
          -5.0260864,50.5418467
          -5.0260864,50.5418467
          -5.0260864,50.5418467
          -5.0260864,50.5418467
          -5.0260864,50.5418467
          -5.0260864,50.5418467
          -5.0260864,50.5418467
          -5.0260787,50.5418310
          -5.0260378,50.5418062
          -5.0260026,50.5417987
          -5.0259979,50.5417980
          -5.0259834,50.5417968
          -5.0259793,50.5418022
          -5.0259793,50.5418022
          -5.0259793,50.5418022
          -5.0259793,50.5418022
          -5.0259793,50.5418022
          -5.0259793,50.5418022
          -5.0259660,50.5418083
          -5.0259793,50.5418022
          -5.0259793,50.5418022
          -5.0259793,50.5418022
          -5.0259793,50.5418022
          -5.0259793,50.5418022
          -5.0259739,50.5417991
          -5.0259547,50.5417258
          -5.0259328,50.5416642
          -5.0258751,50.5416183
          -5.0258138,50.5415953
          -5.0257442,50.5415591
          -5.0256607,50.5415197
          -5.0255904,50.5414820
          -5.0255180,50.5414353
          -5.0254443,50.5414028
          -5.0253656,50.5413655
          -5.0252975,50.5413202
          -5.0252506,50.5412743
          -5.0251948,50.5412202
          -5.0251310,50.5411719
          -5.0251229,50.5411054
          -5.0251363,50.5410437
          -5.0251344,50.5409826
          -5.0251193,50.5409194
          -5.0251064,50.5408840
          -5.0251143,50.5408233
          -5.0250957,50.5407563
          -5.0250860,50.5406993
          -5.0250440,50.5406411
          -5.0250095,50.5405859
          -5.0249691,50.5405262
          -5.0249329,50.5404636
          -5.0249052,50.5404035
          -5.0248614,50.5403460
          -5.0248319,50.5402897
          -5.0247924,50.5402292
          -5.0247616,50.5401665
          -5.0247146,50.5401145
          -5.0246650,50.5400578
          -5.0246472,50.5399964
          -5.0246070,50.5399368
          -5.0245510,50.5398813
          -5.0244828,50.5398326
          -5.0244234,50.5397793
          -5.0244070,50.5397216
          -5.0244022,50.5396580
          -5.0243820,50.5395955
          -5.0243672,50.5395378
          -5.0243516,50.5394784
          -5.0243098,50.5394336
          -5.0242464,50.5394004
          -5.0241853,50.5393482
          -5.0241470,50.5392933
          -5.0241097,50.5392263
          -5.0240910,50.5391843
          -5.0240908,50.5391453
          -5.0240949,50.5391246
          -5.0240949,50.5391246
          -5.0240963,50.5391086
          -5.0240899,50.5390534
          -5.0240786,50.5389901
          -5.0240817,50.5389311
          -5.0240702,50.5388645
          -5.0240538,50.5388067
          -5.0240475,50.5387423
          -5.0240719,50.5386784
          -5.0240921,50.5386184
          -5.0241258,50.5385600
          -5.0241413,50.5384989
          -5.0241471,50.5384364
          -5.0241624,50.5383788
          -5.0241760,50.5383177
          -5.0241959,50.5382526
          -5.0242169,50.5382008
          -5.0242551,50.5381375
          -5.0242894,50.5380834
          -5.0243002,50.5380265
          -5.0243236,50.5379605
          -5.0243648,50.5379005
          -5.0244057,50.5378397
          -5.0244314,50.5377826
          -5.0244666,50.5377206
          -5.0244975,50.5376675
          -5.0245318,50.5376108
          -5.0245487,50.5375580
          -5.0245650,50.5374970
          -5.0245764,50.5374400
          -5.0245428,50.5373911
          -5.0245022,50.5373482
          -5.0244666,50.5372889
          -5.0244314,50.5372312
          -5.0243944,50.5371758
          -5.0243407,50.5371410
          -5.0242552,50.5371297
          -5.0241735,50.5371458
          -5.0240887,50.5371512
          -5.0240210,50.5371381
          -5.0239768,50.5371149
          -5.0239361,50.5370655
          -5.0239177,50.5370051
          -5.0239098,50.5369457
          -5.0239041,50.5368781
          -5.0239054,50.5368203
          -5.0239061,50.5367665
          -5.0239093,50.5367148
          -5.0238958,50.5366588
          -5.0239041,50.5366033
          -5.0238809,50.5365451
          -5.0238490,50.5364951
          -5.0238145,50.5364454
          -5.0237714,50.5363872
          -5.0237462,50.5363348
          -5.0237232,50.5362793
          -5.0237070,50.5362189
          -5.0236861,50.5361705
          -5.0236603,50.5361157
          -5.0236256,50.5360625
          -5.0235953,50.5360056
          -5.0235669,50.5359513
          -5.0235379,50.5358974
          -5.0235172,50.5358461
          -5.0234762,50.5357864
          -5.0234415,50.5357414
          -5.0234120,50.5356845
          -5.0233830,50.5356296
          -5.0233627,50.5355762
          -5.0233425,50.5355206
          -5.0233146,50.5354659
          -5.0233023,50.5354119
          -5.0232857,50.5353567
          -5.0232645,50.5353074
          -5.0232415,50.5352543
          -5.0232400,50.5352023
          -5.0232281,50.5351378
          -5.0232272,50.5350777
          -5.0232157,50.5350287
          -5.0232117,50.5349805
          -5.0232080,50.5349167
          -5.0232115,50.5348588
          -5.0232065,50.5347990
          -5.0232112,50.5347458
          -5.0232183,50.5346930
          -5.0232209,50.5346414
          -5.0232227,50.5345874
          -5.0232209,50.5345380
          -5.0232188,50.5344863
          -5.0232238,50.5344298
          -5.0232239,50.5343844
          -5.0232311,50.5343364
          -5.0232348,50.5342897
          -5.0232287,50.5342407
          -5.0232205,50.5341863
          -5.0232052,50.5341386
          -5.0232169,50.5341123
          -5.0232106,50.5340806
          -5.0232138,50.5340255
          -5.0232170,50.5339714
          -5.0232039,50.5339225
          -5.0231856,50.5338673
          -5.0231550,50.5338003
          -5.0231262,50.5337462
          -5.0231101,50.5336903
          -5.0231013,50.5336437
          -5.0230913,50.5335918
          -5.0230949,50.5335351
          -5.0230934,50.5334820
          -5.0230873,50.5334235
          -5.0230778,50.5333633
          -5.0230801,50.5333111
          -5.0230715,50.5332590
          -5.0230645,50.5332060
          -5.0230707,50.5331467
          -5.0230672,50.5330927
          -5.0230729,50.5330342
          -5.0230637,50.5329949
          -5.0230459,50.5329415
          -5.0230395,50.5328901
          -5.0230312,50.5328409
          -5.0230245,50.5327940
          -5.0230294,50.5327468
          -5.0230233,50.5326928
          -5.0230333,50.5326427
          -5.0230392,50.5325894
          -5.0230429,50.5325296
          -5.0230380,50.5324848
          -5.0230272,50.5324298
          -5.0230334,50.5323801
          -5.0230380,50.5323251
          -5.0230382,50.5322772
          -5.0230248,50.5322177
          -5.0230274,50.5321673
          -5.0230234,50.5321235
          -5.0230212,50.5320728
          -5.0230181,50.5320346
          -5.0230303,50.5319857
          -5.0230242,50.5319400
          -5.0230198,50.5318942
          -5.0230104,50.5318563
          -5.0229986,50.5317996
          -5.0229929,50.5317458
          -5.0229784,50.5316977
          -5.0229669,50.5316505
          -5.0229670,50.5315981
          -5.0229581,50.5315505
          -5.0229587,50.5315015
          -5.0229762,50.5314596
          -5.0229891,50.5314160
          -5.0230021,50.5313803
          -5.0229794,50.5313479
          -5.0229212,50.5313401
          -5.0228665,50.5313273
          -5.0227966,50.5313196
          -5.0227167,50.5313032
          -5.0226353,50.5312861
          -5.0225506,50.5312800
          -5.0224711,50.5312760
          -5.0223762,50.5312653
          -5.0223055,50.5312587
          -5.0222208,50.5312318
          -5.0221706,50.5311965
          -5.0221489,50.5311665
          -5.0221616,50.5311378
          -5.0221559,50.5311312
          -5.0221487,50.5311348
          -5.0221014,50.5311042
          -5.0221003,50.5311095
          -5.0221318,50.5311256
          -5.0221417,50.5311342
          -5.0221397,50.5311755
          -5.0221379,50.5311758
          -5.0221484,50.5311648
          -5.0221489,50.5311618
          -5.0221490,50.5311629
          -5.0221490,50.5311629
          -5.0221490,50.5311629
          -5.0221610,50.5311456
          -5.0221209,50.5311272
          -5.0220784,50.5311286
          -5.0220709,50.5311377
          -5.0220711,50.5311467
          -5.0220822,50.5311353
          -5.0220686,50.5311234
          -5.0220675,50.5311226
          -5.0220675,50.5311226
          -5.0220675,50.5311226
          -5.0220675,50.5311226
          -5.0220675,50.5311226
          -5.0220675,50.5311226
          -5.0220675,50.5311226
          -5.0220675,50.5311226
          -5.0220675,50.5311226
          -5.0220675,50.5311226
          -5.0220675,50.5311226
          -5.0220675,50.5311226
          -5.0220675,50.5311226
          -5.0220675,50.5311226
          -5.0220675,50.5311226
          -5.0220675,50.5311226
          -5.0220675,50.5311226
          -5.0220747,50.5311193
          -5.0220752,50.5311099
          -5.0220966,50.5311192
          -5.0221251,50.5311343
          -5.0221295,50.5311356
          -5.0221394,50.5311400
          -5.0221295,50.5311356
          -5.0221348,50.5311310
          -5.0221532,50.5311484
          -5.0221527,50.5311804
          -5.0221231,50.5311941
          -5.0220418,50.5312088
          -5.0219762,50.5311857
          -5.0219879,50.5311837
          -5.0220182,50.5312037
          -5.0220799,50.5312206
          -5.0220978,50.5312255
          -5.0220961,50.5312256
          -5.0221050,50.5312197
          -5.0220977,50.5311933
          -5.0220977,50.5311933
          -5.0220977,50.5311933
          -5.0220977,50.5311933
          -5.0220977,50.5311933
          -5.0220977,50.5311933
          -5.0220977,50.5311933
          -5.0220977,50.5311933
          -5.0220977,50.5311933
          -5.0220977,50.5311933
          -5.0220977,50.5311933
          -5.0220977,50.5311933
          -5.0221019,50.5312193
          -5.0221764,50.5312459
          -5.0222464,50.5312721
          -5.0223246,50.5312897
          -5.0224050,50.5312986
          -5.0224889,50.5312980
          -5.0225857,50.5313092
          -5.0226778,50.5313126
          -5.0227678,50.5313225
          -5.0228577,50.5313286
          -5.0229425,50.5313539
          -5.0230001,50.5313544
          -5.0230081,50.5313627
          -5.0230380,50.5314017
          -5.0230369,50.5314310
          -5.0230431,50.5314417
          -5.0230428,50.5314419
          -5.0230428,50.5314419
          -5.0230428,50.5314419
          -5.0230428,50.5314419
          -5.0230428,50.5314419
          -5.0230428,50.5314419
          -5.0230428,50.5314419
          -5.0230428,50.5314419
          -5.0230428,50.5314419
          -5.0230216,50.5314263
          -5.0230339,50.5313746
          -5.0230595,50.5313599
          -5.0230804,50.5313550
          -5.0230817,50.5313551
          -5.0230817,50.5313551
          -5.0230817,50.5313551
          -5.0230817,50.5313551
          -5.0230817,50.5313551
          -5.0230817,50.5313551
          -5.0230817,50.5313551
          -5.0230817,50.5313551
          -5.0230817,50.5313551
          -5.0230817,50.5313551
          -5.0230817,50.5313551
          -5.0230817,50.5313551
          -5.0230817,50.5313551
          -5.0230817,50.5313551
          -5.0230857,50.5313520
          -5.0231060,50.5313586
          -5.0231063,50.5313588
          -5.0231063,50.5313588
          -5.0231063,50.5313588
          -5.0231063,50.5313588
          -5.0231063,50.5313588
          -5.0231063,50.5313588
          -5.0231063,50.5313588
          -5.0231173,50.5313731
          -5.0231190,50.5313752
          -5.0231190,50.5313752
          -5.0231190,50.5313752
          -5.0231190,50.5313752
          -5.0231040,50.5313746
          -5.0231257,50.5313616
          -5.0232126,50.5313591
          -5.0232850,50.5313627
          -5.0233257,50.5313762
          -5.0233249,50.5313770
          -5.0233249,50.5313770
          -5.0233249,50.5313770
          -5.0233249,50.5313770
          -5.0233123,50.5313664
          -5.0234016,50.5313541
          -5.0234209,50.5313616
          -5.0234198,50.5313593
          -5.0234198,50.5313593
          -5.0234198,50.5313593
          -5.0234198,50.5313593
          -5.0234529,50.5313580
          -5.0234605,50.5313615
          -5.0234605,50.5313615
          -5.0234605,50.5313615
          -5.0234605,50.5313615
          -5.0234605,50.5313615
          -5.0234605,50.5313615
          -5.0234605,50.5313615
          -5.0234605,50.5313615
          -5.0234605,50.5313615
          -5.0234605,50.5313615
          -5.0234503,50.5313621
          -5.0233768,50.5313580
          -5.0232735,50.5313594
          -5.0231985,50.5313588
          -5.0231172,50.5313619
          -5.0230364,50.5313747
          -5.0230206,50.5314185
          -5.0229967,50.5314604
          -5.0229797,50.5314962
          -5.0229899,50.5315422
          -5.0230014,50.5315817
          -5.0230110,50.5316220
          -5.0230222,50.5316715
          -5.0230246,50.5317180
          -5.0230429,50.5317716
          -5.0230372,50.5318258
          -5.0230119,50.5318689
          -5.0230122,50.5319129
          -5.0230235,50.5319438
          -5.0230348,50.5319828
          -5.0230476,50.5320103
          -5.0230828,50.5320446
          -5.0231157,50.5320873
          -5.0231302,50.5321448
          -5.0231389,50.5321920
          -5.0231578,50.5322383
          -5.0231821,50.5322964
          -5.0231882,50.5323511
          -5.0231953,50.5324079
          -5.0232024,50.5324602
          -5.0232068,50.5325130
          -5.0232016,50.5325632
          -5.0231982,50.5326070
          -5.0231882,50.5326711
          -5.0231846,50.5327267
          -5.0231896,50.5327743
          -5.0231905,50.5328241
          -5.0231793,50.5328777
          -5.0231674,50.5329325
          -5.0231607,50.5329840
          -5.0231540,50.5330322
          -5.0231514,50.5330910
          -5.0231476,50.5331503
          -5.0231544,50.5331989
          -5.0231565,50.5332540
          -5.0231677,50.5333058
          -5.0231640,50.5333615
          -5.0231760,50.5334159
          -5.0231509,50.5334714
          -5.0231022,50.5335207
          -5.0231024,50.5335756
          -5.0231070,50.5336052
          -5.0231068,50.5336052
          -5.0231068,50.5336052
          -5.0231068,50.5336052
          -5.0231068,50.5336052
          -5.0231068,50.5336052
          -5.0231068,50.5336052
          -5.0231300,50.5336265
          -5.0231291,50.5336668
          -5.0231421,50.5337168
          -5.0231381,50.5337644
          -5.0231415,50.5338071
          -5.0231467,50.5338542
          -5.0231493,50.5339075
          -5.0231556,50.5339558
          -5.0231559,50.5340038
          -5.0231569,50.5340558
          -5.0231637,50.5341047
          -5.0231601,50.5341582
          -5.0231644,50.5342101
          -5.0231713,50.5342563
          -5.0231804,50.5343094
          -5.0231794,50.5343631
          -5.0231839,50.5344091
          -5.0232019,50.5344618
          -5.0232048,50.5345225
          -5.0232169,50.5345744
          -5.0232151,50.5346241
          -5.0232208,50.5346813
          -5.0232198,50.5347375
          -5.0232240,50.5347892
          -5.0232182,50.5348534
          -5.0232242,50.5349053
          -5.0232201,50.5349620
          -5.0232214,50.5350255
          -5.0232349,50.5350855
          -5.0232550,50.5351400
          -5.0232788,50.5351945
          -5.0232869,50.5352488
          -5.0233098,50.5352993
          -5.0233427,50.5353477
          -5.0233686,50.5354132
          -5.0233807,50.5354586
          -5.0234010,50.5355099
          -5.0234130,50.5355767
          -5.0234441,50.5356253
          -5.0234753,50.5356869
          -5.0235031,50.5357328
          -5.0235381,50.5357807
          -5.0235698,50.5358382
          -5.0235932,50.5358901
          -5.0236109,50.5359388
          -5.0236383,50.5359947
          -5.0236759,50.5360460
          -5.0237043,50.5360907
          -5.0237409,50.5361379
          -5.0237806,50.5361926
          -5.0238237,50.5362325
          -5.0238823,50.5362765
          -5.0239124,50.5363192
          -5.0239367,50.5363708
          -5.0239640,50.5364159
          -5.0239711,50.5364579
          -5.0239735,50.5365102
          -5.0239798,50.5365564
          -5.0239731,50.5365781
          -5.0239747,50.5366255
          -5.0239978,50.5366723
          -5.0239927,50.5367122
          -5.0240092,50.5367518
          -5.0240030,50.5367566
          -5.0240030,50.5367566
          -5.0240114,50.5367730
          -5.0240114,50.5367730
          -5.0240494,50.5367947
          -5.0241118,50.5368249
          -5.0241573,50.5368412
          -5.0242164,50.5368660
          -5.0242733,50.5368984
          -5.0243320,50.5369161
          -5.0244039,50.5369364
          -5.0244606,50.5369525
          -5.0244852,50.5369576
          -5.0244839,50.5369574
          -5.0245117,50.5369822
          -5.0245205,50.5370014
          -5.0245205,50.5370014
          -5.0245101,50.5370347
          -5.0245203,50.5370697
          -5.0245495,50.5370869
          -5.0245579,50.5370990
          -5.0245579,50.5370990
          -5.0245579,50.5370990
          -5.0245579,50.5370990
          -5.0245579,50.5370990
          -5.0245579,50.5370990
          -5.0245579,50.5370990
          -5.0245834,50.5371267
          -5.0246070,50.5371472
          -5.0246229,50.5371701
          -5.0246371,50.5371985
          -5.0245876,50.5372330
          -5.0245808,50.5372436
          -5.0246189,50.5372718
          -5.0246152,50.5373138
          -5.0246091,50.5373618
          -5.0246011,50.5374173
          -5.0245904,50.5374649
          -5.0245802,50.5375081
          -5.0245756,50.5375365
          -5.0245936,50.5375464
          -5.0245936,50.5375464
          -5.0245875,50.5375582
          -5.0245809,50.5375630
          -5.0245694,50.5375788
          -5.0245475,50.5376146
          -5.0245269,50.5376524
          -5.0245069,50.5376956
          -5.0244876,50.5377288
          -5.0244854,50.5377548
          -5.0245061,50.5377575
          -5.0245120,50.5377577
          -5.0245151,50.5377585
          -5.0245150,50.5377583
          -5.0245120,50.5377577
          -5.0245120,50.5377577
          -5.0245120,50.5377577
          -5.0245120,50.5377577
          -5.0245120,50.5377577
          -5.0245120,50.5377577
          -5.0245120,50.5377577
          -5.0245120,50.5377577
          -5.0245120,50.5377577
          -5.0245120,50.5377577
          -5.0245120,50.5377577
          -5.0244802,50.5377602
          -5.0244543,50.5378131
          -5.0244113,50.5378572
          -5.0243622,50.5379112
          -5.0243328,50.5379490
          -5.0243157,50.5379932
          -5.0242998,50.5380408
          -5.0242894,50.5380485
          -5.0242894,50.5380485
          -5.0242894,50.5380485
          -5.0242894,50.5380485
          -5.0242854,50.5380579
          -5.0242808,50.5380628
          -5.0242815,50.5380636
          -5.0242815,50.5380636
          -5.0242815,50.5380636
          -5.0242815,50.5380636
          -5.0242815,50.5380636
          -5.0242815,50.5380636
          -5.0242863,50.5380717
          -5.0242709,50.5381284
          -5.0242452,50.5381906
          -5.0242176,50.5382400
          -5.0242025,50.5382947
          -5.0241750,50.5383548
          -5.0241680,50.5384095
          -5.0241735,50.5384719
          -5.0241799,50.5385172
          -5.0241601,50.5385745
          -5.0241300,50.5386249
          -5.0240913,50.5386641
          -5.0240619,50.5387159
          -5.0240807,50.5387708
          -5.0240947,50.5388258
          -5.0240893,50.5388812
          -5.0241017,50.5389357
          -5.0241035,50.5389933
          -5.0241082,50.5390506
          -5.0241070,50.5391038
          -5.0241124,50.5391570
          -5.0241284,50.5392163
          -5.0241589,50.5392655
          -5.0242086,50.5393012
          -5.0242258,50.5393560
          -5.0242722,50.5394079
          -5.0243153,50.5394664
          -5.0243547,50.5395053
          -5.0244014,50.5395628
          -5.0244209,50.5396204
          -5.0244141,50.5396855
          -5.0244190,50.5397425
          -5.0244620,50.5397861
          -5.0245195,50.5398242
          -5.0245660,50.5398666
          -5.0246058,50.5399185
          -5.0246324,50.5399078
          -5.0246351,50.5399052
          -5.0246436,50.5399052
          -5.0246790,50.5399108
          -5.0246742,50.5399093
          -5.0247028,50.5399114
          -5.0247029,50.5399360
          -5.0246867,50.5399850
          -5.0246785,50.5400387
          -5.0247189,50.5400974
          -5.0247598,50.5401419
          -5.0247954,50.5402130
          -5.0248233,50.5402680
          -5.0248608,50.5403229
          -5.0249025,50.5403760
          -5.0249374,50.5404308
          -5.0249701,50.5404864
          -5.0250246,50.5405207
          -5.0250775,50.5405729
          -5.0250962,50.5406225
          -5.0251323,50.5406724
          -5.0251694,50.5407206
          -5.0251687,50.5407703
          -5.0251797,50.5407654
          -5.0251796,50.5407636
          -5.0251796,50.5407636
          -5.0251670,50.5407641
          -5.0251672,50.5407648
          -5.0251648,50.5407641
          -5.0251796,50.5407636
          -5.0251796,50.5407636
          -5.0251796,50.5407636
          -5.0251796,50.5407636
          -5.0251641,50.5407801
          -5.0251641,50.5407801
          -5.0251641,50.5407801
          -5.0251641,50.5407801
          -5.0251641,50.5407801
          -5.0251641,50.5407801
          -5.0251641,50.5407801
          -5.0251641,50.5407801
          -5.0251641,50.5407801
          -5.0251641,50.5407801
          -5.0251641,50.5407801
          -5.0251641,50.5407801
          -5.0251641,50.5407801
          -5.0251641,50.5407801
          -5.0251641,50.5407801
          -5.0251641,50.5407801
          -5.0251641,50.5407801
          -5.0251641,50.5407801
          -5.0251641,50.5407801
          -5.0251641,50.5407801
          -5.0251641,50.5407801
          -5.0251641,50.5407801
          -5.0251641,50.5407801
          -5.0251641,50.5407801
          -5.0251641,50.5407801
          -5.0251641,50.5407801
          -5.0251641,50.5407801
          -5.0251641,50.5407801
          -5.0251641,50.5407801
          -5.0251641,50.5407801
          -5.0251641,50.5407801
          -5.0251641,50.5407801
          -5.0251641,50.5407801
          -5.0251641,50.5407801
          -5.0251641,50.5407801
          -5.0251641,50.5407801
          -5.0251641,50.5407801
          -5.0251641,50.5407801
          -5.0251641,50.5407801
          -5.0251641,50.5407801
          -5.0251641,50.5407801
          -5.0251641,50.5407801
          -5.0251641,50.5407801
          -5.0251641,50.5407801
          -5.0251641,50.5407801
          -5.0251641,50.5407801
          -5.0251641,50.5407801
          -5.0251641,50.5407801
          -5.0251641,50.5407801
          -5.0251641,50.5407801
          -5.0251641,50.5407801
          -5.0251641,50.5407801
          -5.0251641,50.5407801
          -5.0251641,50.5407801
          -5.0251641,50.5407801
          -5.0251641,50.5407801
          -5.0251641,50.5407801
          -5.0251641,50.5407801
          -5.0251641,50.5407801
          -5.0251641,50.5407801
          -5.0251641,50.5407801
          -5.0251641,50.5407801
          -5.0251641,50.5407801
          -5.0251641,50.5407801
          -5.0251641,50.5407801
          -5.0251641,50.5407801
          -5.0251641,50.5407801
          -5.0251641,50.5407801
          -5.0251641,50.5407801
          -5.0251641,50.5407801
          -5.0251641,50.5407801
          -5.0251641,50.5407801
          -5.0251641,50.5407801
          -5.0251641,50.5407801
          -5.0251641,50.5407801
          -5.0251641,50.5407801
          -5.0251641,50.5407801
          -5.0251641,50.5407801
          -5.0251641,50.5407801
          -5.0251641,50.5407801
          -5.0251641,50.5407801
          -5.0251641,50.5407801
          -5.0251641,50.5407801
          -5.0251641,50.5407801
          -5.0251641,50.5407801
          -5.0251641,50.5407801
          -5.0251641,50.5407801
          -5.0251641,50.5407801
          -5.0251641,50.5407801
          -5.0251641,50.5407801
          -5.0251641,50.5407801
          -5.0251641,50.5407801
          -5.0251641,50.5407801
          -5.0251641,50.5407801
          -5.0251641,50.5407801
          -5.0251641,50.5407801
          -5.0251641,50.5407801
          -5.0251641,50.5407801
          -5.0251641,50.5407801
          -5.0251641,50.5407801
          -5.0251641,50.5407801
          -5.0251641,50.5407801
          -5.0251641,50.5407801
          -5.0251641,50.5407801
          -5.0251641,50.5407801
          -5.0251641,50.5407801
          -5.0251641,50.5407801
          -5.0251641,50.5407801
          -5.0251641,50.5407801
          -5.0251641,50.5407801
          -5.0251641,50.5407801
          -5.0251641,50.5407801
          -5.0251641,50.5407801
          -5.0251641,50.5407801
          -5.0251641,50.5407801
          -5.0251641,50.5407801
          -5.0251641,50.5407801
          -5.0251641,50.5407801
          -5.0251641,50.5407801
          -5.0251641,50.5407801
          -5.0251641,50.5407801
          -5.0251641,50.5407801
          -5.0251641,50.5407801
          -5.0251641,50.5407801
          -5.0251641,50.5407801
          -5.0251641,50.5407801
          -5.0251641,50.5407801
          -5.0251641,50.5407801
          -5.0251641,50.5407801
          -5.0251641,50.5407801
          -5.0251641,50.5407801
          -5.0251641,50.5407801
          -5.0251641,50.5407801
          -5.0251641,50.5407801
          -5.0251641,50.5407801
          -5.0251641,50.5407801
          -5.0251641,50.5407801
          -5.0251641,50.5407801
          -5.0251641,50.5407801
          -5.0251641,50.5407801
          -5.0251641,50.5407801
          -5.0251641,50.5407801
          -5.0251641,50.5407801
          -5.0251641,50.5407773
          -5.0251641,50.5407801
          -5.0251641,50.5407801
          -5.0251641,50.5407801
          -5.0251641,50.5407801
          -5.0251641,50.5407801
          -5.0251641,50.5407801
          -5.0251641,50.5407801
          -5.0251641,50.5407801
          -5.0251641,50.5407801
          -5.0251641,50.5407801
          -5.0251641,50.5407801
          -5.0251641,50.5407801
          -5.0251641,50.5407801
          -5.0251641,50.5407801
          -5.0251641,50.5407801
          -5.0251641,50.5407801
          -5.0251641,50.5407801
          -5.0251641,50.5407801
          -5.0251641,50.5407801
          -5.0251641,50.5407801
          -5.0251641,50.5407801
          -5.0251641,50.5407801
          -5.0251641,50.5407801
          -5.0251641,50.5407801
          -5.0251641,50.5407801
          -5.0251641,50.5407801
          -5.0251650,50.5407799
          -5.0251641,50.5407801
          -5.0251641,50.5407801
          -5.0251641,50.5407801
          -5.0251641,50.5407801
          -5.0251641,50.5407801
          -5.0251641,50.5407801
          -5.0251641,50.5407801
          -5.0251641,50.5407801
          -5.0251641,50.5407801
          -5.0251641,50.5407801
          -5.0251641,50.5407801
          -5.0251641,50.5407801
          -5.0251641,50.5407801
          -5.0251641,50.5407801
          -5.0251641,50.5407801
          -5.0251641,50.5407801
          -5.0251641,50.5407801
          -5.0251641,50.5407801
          -5.0251641,50.5407801
          -5.0251641,50.5407801
          -5.0251641,50.5407801
          -5.0251641,50.5407801
          -5.0251641,50.5407801
          -5.0251641,50.5407801
          -5.0251641,50.5407801
          -5.0251641,50.5407801
          -5.0251745,50.5407733
          -5.0251641,50.5407801
          -5.0251641,50.5407801
          -5.0251641,50.5407801
          -5.0251641,50.5407801
          -5.0251641,50.5407801
          -5.0251641,50.5407801
          -5.0251641,50.5407801
          -5.0251641,50.5407801
          -5.0251641,50.5407801
          -5.0251641,50.5407801
          -5.0251641,50.5407801
          -5.0251641,50.5407801
          -5.0251641,50.5407801
          -5.0251641,50.5407801
          -5.0251641,50.5407801
          -5.0251641,50.5407801
          -5.0251641,50.5407801
          -5.0251641,50.5407801
          -5.0251641,50.5407801
          -5.0251641,50.5407801
          -5.0251641,50.5407801
          -5.0251641,50.5407801
          -5.0251674,50.5407735
          -5.0251719,50.5407644
          -5.0251918,50.5407610
          -5.0251924,50.5407636
          -5.0251917,50.5407610
          -5.0251917,50.5407610
          -5.0251917,50.5407610
          -5.0251917,50.5407610
          -5.0251917,50.5407610
          -5.0251917,50.5407610
          -5.0251917,50.5407610
          -5.0251917,50.5407610
          -5.0251917,50.5407610
          -5.0251917,50.5407610
          -5.0251882,50.5407777
          -5.0251296,50.5408018
          -5.0251096,50.5408318
          -5.0251134,50.5408531
          -5.0251259,50.5408736
          -5.0251309,50.5408927
          -5.0251461,50.5409536
          -5.0251538,50.5410213
          -5.0251513,50.5410664
          -5.0251271,50.5411153
          -5.0251475,50.5411563
          -5.0252131,50.5411877
          -5.0252654,50.5412417
          -5.0252979,50.5412916
          -5.0253452,50.5413299
          -5.0254165,50.5413605
          -5.0254949,50.5413953
          -5.0255665,50.5414350
          -5.0255541,50.5414420
          -5.0255542,50.5414419
          -5.0255542,50.5414419
          -5.0255542,50.5414419
          -5.0256228,50.5414679
          -5.0256744,50.5415152
          -5.0257397,50.5415498
          -5.0257939,50.5416038
          -5.0258312,50.5416442
          -5.0258896,50.5416941
          -5.0259446,50.5417320
          -5.0260315,50.5417676
          -5.0260838,50.5417959
          -5.0261294,50.5418293
          -5.0261517,50.5418497
          -5.0261574,50.5418279
          -5.0261574,50.5418279
          -5.0261574,50.5418279
          -5.0261574,50.5418279
          -5.0261089,50.5418319
          -5.0260295,50.5418651
          -5.0259524,50.5419021
          -5.0259000,50.5419257
          -5.0258915,50.5419287
          -5.0258263,50.5419627
          -5.0257513,50.5419943
          -5.0256937,50.5420240
          -5.0256285,50.5420586
          -5.0255811,50.5420945
          -5.0255352,50.5421242
          -5.0254743,50.5421663
          -5.0254054,50.5422065
          -5.0253389,50.5422450
          -5.0252813,50.5422777
          -5.0252514,50.5423005
          -5.0251923,50.5423286
          -5.0251310,50.5423580
          -5.0250655,50.5423828
          -5.0250317,50.5424026
          -5.0249722,50.5424394
          -5.0249264,50.5424702
          -5.0248420,50.5425176
          -5.0247810,50.5425609
          -5.0247266,50.5425844
          -5.0246596,50.5426103
          -5.0245853,50.5426387
          -5.0245187,50.5426786
          -5.0244539,50.5427192
          -5.0244049,50.5427501
          -5.0243421,50.5427830
          -5.0242593,50.5428165
          -5.0241871,50.5428511
          -5.0241175,50.5428852
          -5.0240575,50.5429200
          -5.0239855,50.5429540
          -5.0239250,50.5429923
          -5.0238585,50.5430267
          -5.0237879,50.5430656
          -5.0237286,50.5431041
          -5.0236657,50.5431377
          -5.0236010,50.5431776
          -5.0235392,50.5432044
          -5.0234748,50.5432386
          -5.0234223,50.5432689
          -5.0233541,50.5433016
          -5.0232835,50.5433268
          -5.0231900,50.5433679
          -5.0231199,50.5433950
          -5.0230848,50.5434252
          -5.0230501,50.5434604
          -5.0230300,50.5434679
          -5.0229815,50.5435034
          -5.0229224,50.5435371
          -5.0228696,50.5435589
          -5.0228188,50.5435865
          -5.0227587,50.5436147
          -5.0226893,50.5436520
          -5.0226215,50.5436919
          -5.0225584,50.5437188
          -5.0224940,50.5437557
          -5.0224152,50.5437958
          -5.0223500,50.5438357
          -5.0222942,50.5438811
          -5.0222272,50.5439290
          -5.0221677,50.5439832
          -5.0220941,50.5440245
          -5.0220394,50.5440664
          -5.0219843,50.5441051
          -5.0219199,50.5441506
          -5.0218686,50.5441866
          -5.0218188,50.5442213
          -5.0217323,50.5442767
          -5.0216703,50.5443249
          -5.0216411,50.5443676
          -5.0216166,50.5444201
          -5.0216026,50.5444646
          -5.0215801,50.5444880
          -5.0215775,50.5444950
          -5.0215624,50.5444988
          -5.0215015,50.5445301
          -5.0214984,50.5445339
          -5.0214779,50.5445398
          -5.0213979,50.5445632
          -5.0213114,50.5445919
          -5.0212605,50.5446411
          -5.0212156,50.5446859
          -5.0211710,50.5447327
          -5.0211277,50.5447843
          -5.0210752,50.5448340
          -5.0210292,50.5448852
          -5.0209880,50.5449334
          -5.0209353,50.5449887
          -5.0208950,50.5450451
          -5.0208312,50.5451065
          -5.0207929,50.5451513
          -5.0207470,50.5452028
          -5.0207112,50.5452532
          -5.0206582,50.5453151
          -5.0206145,50.5453684
          -5.0205644,50.5454130
          -5.0205221,50.5454603
          -5.0204743,50.5455076
          -5.0204347,50.5455493
          -5.0203931,50.5455976
          -5.0203613,50.5456464
          -5.0203265,50.5456826
          -5.0203234,50.5457005
          -5.0203162,50.5456964
          -5.0202713,50.5456928
          -5.0202713,50.5456928
          -5.0202713,50.5456928
          -5.0202138,50.5457018
          -5.0201444,50.5457089
          -5.0201082,50.5457223
          -5.0200811,50.5457199
          -5.0200491,50.5457211
          -5.0200474,50.5457245
          -5.0200474,50.5457245
          -5.0200474,50.5457245
          -5.0200474,50.5457245
          -5.0200474,50.5457245
          -5.0200474,50.5457245
          -5.0200474,50.5457245
          -5.0200474,50.5457245
          -5.0200474,50.5457245
          -5.0200474,50.5457245
          -5.0200474,50.5457245
          -5.0200474,50.5457245
          -5.0200474,50.5457245
          -5.0200474,50.5457245
          -5.0200328,50.5457287
          -5.0200265,50.5457308
          -5.0200265,50.5457308
          -5.0200265,50.5457308
          -5.0200265,50.5457308
          -5.0200079,50.5457167
          -5.0200079,50.5457167
          -5.0200079,50.5457167
          -5.0200079,50.5457167
          -5.0199936,50.5457137
          -5.0199494,50.5456908
          -5.0199144,50.5456834
          -5.0198751,50.5456712
          -5.0198239,50.5456334
          -5.0197706,50.5455973
          -5.0197385,50.5455387
          -5.0196892,50.5454933
          -5.0196354,50.5454695
          -5.0196362,50.5454703
          -5.0196362,50.5454703
          -5.0196362,50.5454703
          -5.0196362,50.5454703
          -5.0196362,50.5454703
          -5.0196239,50.5454515
          -5.0196398,50.5454168
          -5.0196035,50.5453685
          -5.0195504,50.5453275
          -5.0194916,50.5452874
          -5.0194479,50.5452586
          -5.0194505,50.5452578
          -5.0194008,50.5452227
          -5.0193239,50.5451940
          -5.0192529,50.5451618
          -5.0191744,50.5451325
          -5.0190960,50.5451356
          -5.0190301,50.5451403
          -5.0189463,50.5451188
          -5.0188732,50.5450923
          -5.0188041,50.5450565
          -5.0187986,50.5450096
          -5.0187837,50.5449594
          -5.0187768,50.5449010
          -5.0187858,50.5448453
          -5.0187887,50.5447969
          -5.0187920,50.5447262
          -5.0187509,50.5446766
          -5.0186780,50.5446433
          -5.0186193,50.5445984
          -5.0185629,50.5445441
          -5.0184644,50.5445378
          -5.0184178,50.5445060
          -5.0183803,50.5445082
          -5.0182871,50.5444900
          -5.0182004,50.5444774
          -5.0181154,50.5444604
          -5.0180264,50.5444523
          -5.0179361,50.5444352
          -5.0178467,50.5444166
          -5.0177631,50.5443995
          -5.0177257,50.5443912
          -5.0177288,50.5443912
          -5.0177288,50.5443912
          -5.0177288,50.5443912
          -5.0177278,50.5443886
          -5.0177288,50.5443912
          -5.0176807,50.5443891
          -5.0175761,50.5443636
          -5.0174829,50.5443539
          -5.0173761,50.5443383
          -5.0172813,50.5443233
          -5.0171854,50.5443044
          -5.0171000,50.5442896
          -5.0169933,50.5442690
          -5.0169089,50.5442567
          -5.0168244,50.5442394
          -5.0167449,50.5442230
          -5.0166611,50.5442113
          -5.0165701,50.5441933
          -5.0164794,50.5441813
          -5.0164173,50.5441406
          -5.0163667,50.5440938
          -5.0163151,50.5440635
          -5.0163238,50.5440633
          -5.0163181,50.5440607
          -5.0163238,50.5440633
          -5.0163238,50.5440633
          -5.0163238,50.5440633
          -5.0163238,50.5440633
          -5.0163238,50.5440633
          -5.0163238,50.5440633
          -5.0163238,50.5440633
          -5.0163238,50.5440633
          -5.0163238,50.5440633
          -5.0163238,50.5440633
          -5.0163238,50.5440633
          -5.0163238,50.5440633
          -5.0163238,50.5440633
          -5.0163238,50.5440633
          -5.0163238,50.5440633
          -5.0163238,50.5440633
          -5.0163238,50.5440633
          -5.0163238,50.5440633
          -5.0163162,50.5440632
          -5.0162956,50.5440167
          -5.0162323,50.5439732
          -5.0161876,50.5439321
          -5.0161448,50.5438893
          -5.0160746,50.5438324
          -5.0160142,50.5437916
          -5.0159630,50.5437404
          -5.0159615,50.5436881
          -5.0159534,50.5436117
          -5.0159533,50.5435520
          -5.0159287,50.5435118
          -5.0159081,50.5435068
          -5.0159060,50.5435078
          -5.0158938,50.5434621
          -5.0158811,50.5434564
          -5.0158610,50.5435088
          -5.0158408,50.5435514
          -5.0158181,50.5435831
          -5.0157962,50.5435834
          -5.0157758,50.5436030
          -5.0157625,50.5436424
          -5.0157429,50.5436950
          -5.0157029,50.5437516
          -5.0156385,50.5437909
          -5.0155653,50.5438216
          -5.0154897,50.5438389
          -5.0154080,50.5438604
          -5.0153169,50.5438628
          -5.0152453,50.5438525
          -5.0151729,50.5438296
          -5.0150962,50.5437978
          -5.0150191,50.5437735
          -5.0149307,50.5437894
          -5.0148631,50.5438213
          -5.0148007,50.5438628
          -5.0147497,50.5439146
          -5.0147062,50.5439733
          -5.0146548,50.5440136
          -5.0146003,50.5440637
          -5.0145346,50.5441228
          -5.0144802,50.5441554
          -5.0144064,50.5442108
          -5.0143488,50.5442544
          -5.0142837,50.5443114
          -5.0142240,50.5443530
          -5.0141223,50.5443823
          -5.0140463,50.5443974
          -5.0139695,50.5444165
          -5.0139262,50.5444280
          -5.0138586,50.5444316
          -5.0138011,50.5444362
          -5.0137452,50.5444441
          -5.0137118,50.5444607
          -5.0137018,50.5444895
          -5.0136579,50.5445445
          -5.0136619,50.5445961
          -5.0136759,50.5446398
          -5.0136320,50.5446445
          -5.0135826,50.5446507
          -5.0135433,50.5446647
          -5.0134807,50.5446986
          -5.0134475,50.5447097
          -5.0134422,50.5447149
          -5.0133692,50.5447352
          -5.0132997,50.5447527
          -5.0132494,50.5447684
          -5.0131877,50.5447825
          -5.0131208,50.5447994
          -5.0130658,50.5448085
          -5.0129861,50.5448247
          -5.0129093,50.5448304
          -5.0128420,50.5448382
          -5.0127720,50.5448543
          -5.0126926,50.5448704
          -5.0126168,50.5448670
          -5.0125487,50.5448754
          -5.0125291,50.5448715
          -5.0125285,50.5448737
          -5.0125285,50.5448737
          -5.0125285,50.5448737
          -5.0125285,50.5448737
          -5.0125285,50.5448737
          -5.0125285,50.5448737
          -5.0125285,50.5448737
          -5.0125285,50.5448737
          -5.0125285,50.5448737
          -5.0125285,50.5448737
          -5.0125285,50.5448737
          -5.0125285,50.5448737
          -5.0125285,50.5448737
          -5.0125285,50.5448737
          -5.0125285,50.5448737
          -5.0125285,50.5448737
          -5.0125285,50.5448737
          -5.0125285,50.5448737
          -5.0125285,50.5448737
          -5.0125285,50.5448737
          -5.0125285,50.5448737
          -5.0125285,50.5448737
          -5.0125285,50.5448737
          -5.0125285,50.5448737
          -5.0125285,50.5448737
          -5.0125285,50.5448737
          -5.0125285,50.5448737
          -5.0125285,50.5448737
          -5.0125285,50.5448737
          -5.0125285,50.5448737
          -5.0125285,50.5448737
          -5.0125285,50.5448737
          -5.0125285,50.5448737
          -5.0125285,50.5448737
          -5.0125285,50.5448737
          -5.0125285,50.5448737
          -5.0125285,50.5448737
          -5.0125285,50.5448737
          -5.0125285,50.5448737
          -5.0125285,50.5448737
          -5.0125285,50.5448737
          -5.0125285,50.5448737
          -5.0125285,50.5448737
          -5.0125285,50.5448737
          -5.0125285,50.5448737
          -5.0125285,50.5448737
          -5.0125285,50.5448737
          -5.0125285,50.5448737
          -5.0125285,50.5448737
          -5.0125285,50.5448737
          -5.0125285,50.5448737
          -5.0125285,50.5448737
          -5.0125285,50.5448737
          -5.0125285,50.5448737
          -5.0125285,50.5448737
          -5.0125285,50.5448737
          -5.0125285,50.5448737
          -5.0125285,50.5448737
          -5.0125285,50.5448737
          -5.0125285,50.5448737
          -5.0125285,50.5448737
          -5.0125285,50.5448737
          -5.0125285,50.5448737
          -5.0125285,50.5448737
          -5.0125285,50.5448737
          -5.0125285,50.5448737
          -5.0125285,50.5448737
          -5.0125285,50.5448737
          -5.0125285,50.5448737
          -5.0125285,50.5448737
          -5.0125285,50.5448737
          -5.0125285,50.5448737
          -5.0125285,50.5448737
          -5.0125285,50.5448737
          -5.0125285,50.5448736
          -5.0125285,50.5448736
          -5.0125285,50.5448736
          -5.0125285,50.5448736
          -5.0125285,50.5448737
          -5.0125285,50.5448737
          -5.0125285,50.5448737
          -5.0125285,50.5448737
          -5.0125285,50.5448737
          -5.0125285,50.5448737
          -5.0125285,50.5448737
          -5.0125285,50.5448737
          -5.0125285,50.5448737
          -5.0125285,50.5448737
          -5.0125285,50.5448737
          -5.0125285,50.5448737
          -5.0125285,50.5448737
          -5.0125361,50.5448764
          -5.0125285,50.5448737
          -5.0125389,50.5448828
          -5.0125285,50.5448737
          -5.0124836,50.5448563
          -5.0124239,50.5448525
          -5.0123690,50.5448494
          -5.0123193,50.5448338
          -5.0122402,50.5448370
          -5.0121539,50.5448377
          -5.0120762,50.5448361
          -5.0119840,50.5448309
          -5.0119033,50.5448282
          -5.0118226,50.5448268
          -5.0117355,50.5448242
          -5.0116653,50.5448188
          -5.0115825,50.5448134
          -5.0114989,50.5448097
          -5.0114004,50.5448182
          -5.0113123,50.5448247
          -5.0112268,50.5448361
          -5.0111481,50.5448555
          -5.0110590,50.5448596
          -5.0109752,50.5448843
          -5.0108975,50.5449002
          -5.0108458,50.5448701
          -5.0107863,50.5448389
          -5.0107600,50.5447952
          -5.0106957,50.5447460
          -5.0106373,50.5447046
          -5.0105785,50.5446631
          -5.0104980,50.5446507
          -5.0103998,50.5446485
          -5.0103402,50.5446580
          -5.0102633,50.5446781
          -5.0101857,50.5446984
          -5.0101656,50.5446931
          -5.0101656,50.5446931
          -5.0101656,50.5446931
          -5.0101656,50.5446931
          -5.0101656,50.5446931
          -5.0101656,50.5446931
          -5.0101291,50.5447119
          -5.0100387,50.5447401
          -5.0099572,50.5447649
          -5.0098634,50.5447844
          -5.0097723,50.5448176
          -5.0096808,50.5448446
          -5.0096000,50.5448771
          -5.0095160,50.5449112
          -5.0094259,50.5449397
          -5.0093815,50.5449585
          -5.0093600,50.5449884
          -5.0093593,50.5449895
          -5.0093593,50.5449895
          -5.0093593,50.5449895
          -5.0093593,50.5449895
          -5.0093593,50.5449895
          -5.0093593,50.5449895
          -5.0093593,50.5449895
          -5.0093759,50.5449810
          -5.0093787,50.5449745
          -5.0093787,50.5449745
          -5.0093787,50.5449745
          -5.0093787,50.5449745
          -5.0093787,50.5449745
          -5.0093787,50.5449745
          -5.0093787,50.5449745
          -5.0093780,50.5449817
          -5.0093787,50.5449745
          -5.0093787,50.5449745
          -5.0093787,50.5449745
          -5.0093787,50.5449745
          -5.0093787,50.5449745
          -5.0093787,50.5449745
          -5.0093787,50.5449745
          -5.0093787,50.5449745
          -5.0093787,50.5449745
          -5.0093787,50.5449745
          -5.0093787,50.5449745
          -5.0093787,50.5449745
          -5.0093787,50.5449745
          -5.0093787,50.5449745
          -5.0093787,50.5449745
          -5.0093787,50.5449745
          -5.0093787,50.5449745
          -5.0093787,50.5449745
          -5.0093787,50.5449745
          -5.0093787,50.5449745
          -5.0093787,50.5449745
          -5.0093787,50.5449745
          -5.0093787,50.5449745
          -5.0093787,50.5449745
          -5.0093787,50.5449745
          -5.0093787,50.5449745
          -5.0093787,50.5449745
          -5.0093787,50.5449745
          -5.0093787,50.5449745
          -5.0093787,50.5449745
          -5.0093787,50.5449745
          -5.0093787,50.5449745
          -5.0093787,50.5449745
          -5.0093787,50.5449745
          -5.0093787,50.5449745
          -5.0093787,50.5449745
          -5.0093787,50.5449745
          -5.0093787,50.5449745
          -5.0093787,50.5449745
          -5.0093787,50.5449745
          -5.0093787,50.5449745
          -5.0093787,50.5449745
          -5.0093787,50.5449745
          -5.0093787,50.5449745
          -5.0093807,50.5449824
          -5.0093721,50.5449878
          -5.0093787,50.5449745
          -5.0093787,50.5449745
          -5.0093630,50.5449838
          -5.0093630,50.5449838
          -5.0093524,50.5449885
          -5.0093630,50.5449838
          -5.0093630,50.5449838
          -5.0093630,50.5449838
          -5.0093630,50.5449838
          -5.0093630,50.5449838
          -5.0093677,50.5449827
          -5.0092815,50.5449859
          -5.0092064,50.5450116
          -5.0091136,50.5450280
          -5.0090356,50.5450547
          -5.0089444,50.5450694
          -5.0088547,50.5450999
          -5.0087735,50.5451194
          -5.0086776,50.5451445
          -5.0085991,50.5451712
          -5.0085177,50.5451994
          -5.0084287,50.5452175
          -5.0083403,50.5452220
          -5.0082461,50.5452374
          -5.0081700,50.5452666
          -5.0080824,50.5452901
          -5.0079945,50.5453110
          -5.0078955,50.5453294
          -5.0077981,50.5453407
          -5.0077171,50.5453511
          -5.0076209,50.5453486
          -5.0075289,50.5453535
          -5.0074315,50.5453700
          -5.0073472,50.5453902
          -5.0072516,50.5454090
          -5.0071697,50.5454307
          -5.0070729,50.5454591
          -5.0069849,50.5454800
          -5.0068963,50.5455095
          -5.0068195,50.5455353
          -5.0067421,50.5455629
          -5.0066389,50.5455959
          -5.0065549,50.5456201
          -5.0064480,50.5456361
          -5.0063596,50.5456512
          -5.0062635,50.5456722
          -5.0061797,50.5456971
          -5.0060871,50.5457219
          -5.0059963,50.5457525
          -5.0059137,50.5457793
          -5.0058229,50.5458051
          -5.0057473,50.5458249
          -5.0056601,50.5458629
          -5.0055938,50.5459080
          -5.0055173,50.5459417
          -5.0054291,50.5459631
          -5.0053210,50.5459629
          -5.0052339,50.5459580
          -5.0051513,50.5459456
          -5.0050671,50.5459271
          -5.0049889,50.5459074
          -5.0049073,50.5458718
          -5.0048402,50.5458292
          -5.0047639,50.5457936
          -5.0046956,50.5457610
          -5.0046139,50.5457270
          -5.0045675,50.5456572
          -5.0045471,50.5455913
          -5.0045434,50.5455347
          -5.0045155,50.5454674
          -5.0044801,50.5454134
          -5.0044066,50.5453678
          -5.0043513,50.5453334
          -5.0042708,50.5453146
          -5.0041680,50.5453022
          -5.0040856,50.5452961
          -5.0039856,50.5452927
          -5.0039012,50.5452812
          -5.0038001,50.5452610
          -5.0037188,50.5452360
          -5.0036838,50.5451713
          -5.0037068,50.5451084
          -5.0037577,50.5450563
          -5.0038107,50.5450175
          -5.0038853,50.5449801
          -5.0039522,50.5449486
          -5.0040228,50.5449195
          -5.0041161,50.5448749
          -5.0041839,50.5448378
          -5.0042593,50.5447957
          -5.0043409,50.5447537
          -5.0044088,50.5447094
          -5.0044940,50.5446712
          -5.0045723,50.5446337
          -5.0046340,50.5445872
          -5.0047142,50.5445448
          -5.0047840,50.5445073
          -5.0048491,50.5444704
          -5.0048919,50.5444211
          -5.0048967,50.5443649
          -5.0048861,50.5443012
          -5.0048592,50.5442465
          -5.0048546,50.5441820
          -5.0048588,50.5441258
          -5.0048709,50.5440842
          -5.0048890,50.5440285
          -5.0048604,50.5439920
          -5.0048157,50.5439434
          -5.0047796,50.5438940
          -5.0047538,50.5438417
          -5.0047277,50.5437864
          -5.0047177,50.5437271
          -5.0047111,50.5436694
          -5.0047242,50.5436074
          -5.0047498,50.5435607
          -5.0048080,50.5435380
          -5.0048361,50.5435465
          -5.0048625,50.5435412
          -5.0048957,50.5435395
          -5.0048975,50.5435400
          -5.0048954,50.5435285
          -5.0048927,50.5435105
          -5.0048927,50.5435105
          -5.0048927,50.5435105
          -5.0048822,50.5435189
          -5.0048904,50.5435231
          -5.0048927,50.5435105
          -5.0048927,50.5435105
          -5.0048927,50.5435105
          -5.0048927,50.5435105
          -5.0048927,50.5435105
          -5.0049315,50.5434800
          -5.0049633,50.5434327
          -5.0050064,50.5433868
          -5.0050121,50.5433566
          -5.0049942,50.5433163
          -5.0049936,50.5432682
          -5.0049757,50.5432129
          -5.0049537,50.5431619
          -5.0049231,50.5430990
          -5.0048984,50.5430390
          -5.0048542,50.5429775
          -5.0047740,50.5429410
          -5.0047017,50.5429187
          -5.0046221,50.5429001
          -5.0045427,50.5428715
          -5.0044786,50.5428386
          -5.0044384,50.5427850
          -5.0043967,50.5427246
          -5.0043489,50.5426727
          -5.0042943,50.5426272
          -5.0042465,50.5425867
          -5.0042010,50.5425298
          -5.0041529,50.5424630
          -5.0041125,50.5424014
          -5.0040746,50.5423496
          -5.0040160,50.5422922
          -5.0039846,50.5422414
          -5.0039386,50.5421963
          -5.0039019,50.5421304
          -5.0039037,50.5421213
          -5.0038612,50.5420762
          -5.0038242,50.5420190
          -5.0037873,50.5419673
          -5.0037461,50.5419355
          -5.0036958,50.5418823
          -5.0036773,50.5418607
          -5.0036416,50.5418262
          -5.0036314,50.5417664
          -5.0036628,50.5417239
          -5.0036504,50.5417102
          -5.0036476,50.5417112
          -5.0036077,50.5416791
          -5.0035906,50.5416326
          -5.0035639,50.5415782
          -5.0035312,50.5415322
          -5.0034988,50.5414847
          -5.0034963,50.5414326
          -5.0035585,50.5413996
          -5.0035690,50.5413418
          -5.0035188,50.5413017
          -5.0034571,50.5412541
          -5.0033919,50.5412076
          -5.0033239,50.5411621
          -5.0032327,50.5411577
          -5.0031412,50.5411748
          -5.0030544,50.5411867
          -5.0029649,50.5412002
          -5.0028819,50.5411752
          -5.0028107,50.5411404
          -5.0028023,50.5411372
          -5.0028023,50.5411372
          -5.0027744,50.5411284
          -5.0027055,50.5410997
          -5.0026320,50.5410644
          -5.0025564,50.5410381
          -5.0024798,50.5410064
          -5.0024140,50.5409680
          -5.0023996,50.5409086
          -5.0024073,50.5408801
          -5.0023999,50.5408880
          -5.0023678,50.5408782
          -5.0023222,50.5408739
          -5.0022912,50.5408313
          -5.0022663,50.5407864
          -5.0022335,50.5407326
          -5.0021913,50.5406718
          -5.0021580,50.5406161
          -5.0020988,50.5405620
          -5.0020149,50.5405242
          -5.0019355,50.5404937
          -5.0018421,50.5404729
          -5.0017558,50.5404496
          -5.0016617,50.5404279
          -5.0015842,50.5404015
          -5.0014992,50.5403764
          -5.0014131,50.5403479
          -5.0013143,50.5403184
          -5.0012365,50.5402922
          -5.0011582,50.5402756
          -5.0010642,50.5402525
          -5.0009721,50.5402377
          -5.0008706,50.5402220
          -5.0007648,50.5402217
          -5.0006644,50.5402185
          -5.0005852,50.5402196
          -5.0004929,50.5402213
          -5.0004097,50.5402174
          -5.0003046,50.5402003
          -5.0002455,50.5401564
          -5.0001774,50.5401177
          -5.0001036,50.5400696
          -5.0000328,50.5400303
          -4.9999645,50.5399892
          -4.9999042,50.5399515
          -4.9998129,50.5399209
          -4.9997341,50.5399069
          -4.9996301,50.5399026
          -4.9996185,50.5398783
          -4.9996343,50.5399060
          -4.9996146,50.5399262
          -4.9995918,50.5399525
          -4.9995811,50.5399825
          -4.9995829,50.5400128
          -4.9995930,50.5400354
          -4.9996074,50.5400502
          -4.9996198,50.5401004
          -4.9996071,50.5401440
          -4.9995736,50.5401813
          -4.9995219,50.5402219
          -4.9994621,50.5402819
          -4.9993763,50.5402821
          -4.9992944,50.5402514
          -4.9992204,50.5402333
          -4.9991488,50.5402202
          -4.9990536,50.5401989
          -4.9989716,50.5401715
          -4.9988923,50.5401629
          -4.9988111,50.5401585
          -4.9987288,50.5401481
          -4.9986548,50.5401425
          -4.9985600,50.5401304
          -4.9984827,50.5401378
          -4.9984035,50.5401380
          -4.9983123,50.5401392
          -4.9982373,50.5401461
          -4.9981719,50.5401632
          -4.9980901,50.5401658
          -4.9980170,50.5401521
          -4.9979336,50.5401485
          -4.9978575,50.5401484
          -4.9977637,50.5401369
          -4.9976906,50.5401118
          -4.9976126,50.5400890
          -4.9975138,50.5400886
          -4.9974151,50.5400871
          -4.9973374,50.5400901
          -4.9972413,50.5400894
          -4.9971606,50.5400782
          -4.9970840,50.5400743
          -4.9969995,50.5400636
          -4.9968981,50.5400663
          -4.9968054,50.5400691
          -4.9967108,50.5400663
          -4.9966208,50.5400612
          -4.9965483,50.5400659
          -4.9964699,50.5400593
          -4.9963819,50.5400518
          -4.9962887,50.5400446
          -4.9962038,50.5400383
          -4.9961323,50.5400393
          -4.9960579,50.5400343
          -4.9959687,50.5400333
          -4.9958803,50.5400370
          -4.9957968,50.5400387
          -4.9957268,50.5400441
          -4.9956391,50.5400488
          -4.9955563,50.5400629
          -4.9954731,50.5400714
          -4.9953948,50.5400590
          -4.9953243,50.5400625
          -4.9952439,50.5400613
          -4.9951742,50.5400678
          -4.9951105,50.5400684
          -4.9950365,50.5400735
          -4.9949698,50.5400785
          -4.9949011,50.5400663
          -4.9948128,50.5400560
          -4.9947368,50.5400450
          -4.9946565,50.5400327
          -4.9945804,50.5400209
          -4.9944957,50.5400077
          -4.9944183,50.5399935
          -4.9943462,50.5399836
          -4.9942748,50.5399799
          -4.9941940,50.5399677
          -4.9941197,50.5399538
          -4.9940377,50.5399378
          -4.9939587,50.5399106
          -4.9938877,50.5398868
          -4.9938077,50.5398676
          -4.9937212,50.5398411
          -4.9936673,50.5398188
        </coordinates>
      </LineString>
    </Placemark>
  </Document>
</kml>
