<?xml version="1.0" encoding="UTF-8"?>
<kml xmlns="http://www.opengis.net/kml/2.2" xmlns:xsi="http://www.w3.org/2001/XMLSchema-instance" xsi:schemaLocation="http://www.opengis.net/kml/2.2 http://schemas.opengis.net/kml/2.2.0/ogckml22.xsd">
  <Document>
    <name>GPS Wizard</name>
    <open>1</open>
    <Style id="wizard">
      <LineStyle>
        <color>a00000ff</color>
        <width>2</width>
      </LineStyle>
    </Style>
    <Placemark>
      <name>TBC</name>
      <styleUrl>#wizard</styleUrl>
      <LineString>
        <extrude>1</extrude>
        <tessellate>1</tessellate>
        <coordinates>
          -5.0317334,50.4664799
          -5.0317270,50.4664783
          -5.0317202,50.4665115
          -5.0317188,50.4665538
          -5.0317172,50.4666085
          -5.0317129,50.4666733
          -5.0317167,50.4667304
          -5.0317160,50.4667852
          -5.0317084,50.4668368
          -5.0317110,50.4668830
          -5.0317084,50.4669402
          -5.0317086,50.4669940
          -5.0317108,50.4670448
          -5.0317156,50.4670954
          -5.0317212,50.4671543
          -5.0317398,50.4672030
          -5.0317643,50.4672512
          -5.0317901,50.4672947
          -5.0318202,50.4673382
          -5.0318431,50.4673797
          -5.0318593,50.4674319
          -5.0318800,50.4674871
          -5.0319029,50.4675299
          -5.0319363,50.4675812
          -5.0319721,50.4676314
          -5.0320036,50.4676850
          -5.0320203,50.4677360
          -5.0320546,50.4677811
          -5.0320987,50.4678167
          -5.0321358,50.4678607
          -5.0321675,50.4679054
          -5.0322222,50.4679342
          -5.0322681,50.4679717
          -5.0322971,50.4680038
          -5.0323596,50.4680292
          -5.0323916,50.4680597
          -5.0323865,50.4680836
          -5.0324048,50.4680662
          -5.0324411,50.4680257
          -5.0325092,50.4680247
          -5.0325611,50.4680604
          -5.0326010,50.4681088
          -5.0326346,50.4681573
          -5.0326364,50.4681973
          -5.0326429,50.4682384
          -5.0326243,50.4682861
          -5.0325620,50.4683315
          -5.0325079,50.4683698
          -5.0325095,50.4684150
          -5.0324866,50.4684708
          -5.0324707,50.4685180
          -5.0325020,50.4685628
          -5.0325410,50.4686158
          -5.0325721,50.4686610
          -5.0325968,50.4687058
          -5.0326206,50.4687542
          -5.0326579,50.4687967
          -5.0326824,50.4688451
          -5.0327108,50.4688919
          -5.0327553,50.4689412
          -5.0327672,50.4689922
          -5.0327741,50.4690475
          -5.0328190,50.4690878
          -5.0328330,50.4691440
          -5.0328432,50.4691975
          -5.0328743,50.4692402
          -5.0328833,50.4692849
          -5.0329046,50.4693353
          -5.0329268,50.4693555
          -5.0329293,50.4693561
          -5.0329304,50.4693561
          -5.0329322,50.4693555
          -5.0329350,50.4693507
          -5.0329343,50.4693479
          -5.0329357,50.4693476
          -5.0329374,50.4693561
          -5.0329565,50.4693921
          -5.0329791,50.4694009
          -5.0329796,50.4694018
          -5.0329806,50.4694009
          -5.0329827,50.4693996
          -5.0329848,50.4693984
          -5.0329863,50.4693978
          -5.0329908,50.4693989
          -5.0330297,50.4694201
          -5.0330477,50.4694573
          -5.0330794,50.4694893
          -5.0331183,50.4695063
          -5.0331627,50.4695290
          -5.0332015,50.4695447
          -5.0332390,50.4695696
          -5.0332719,50.4696006
          -5.0332987,50.4696338
          -5.0333246,50.4696622
          -5.0333520,50.4696916
          -5.0333790,50.4697161
          -5.0334075,50.4697425
          -5.0334004,50.4697889
          -5.0333788,50.4697954
          -5.0333810,50.4697960
          -5.0333833,50.4697965
          -5.0333839,50.4698008
          -5.0333909,50.4698267
          -5.0334224,50.4698580
          -5.0334562,50.4698822
          -5.0334823,50.4699078
          -5.0335057,50.4699359
          -5.0335285,50.4699698
          -5.0335573,50.4700031
          -5.0336097,50.4700257
          -5.0336623,50.4700432
          -5.0337087,50.4700758
          -5.0337412,50.4701109
          -5.0337543,50.4701562
          -5.0337794,50.4701966
          -5.0338347,50.4702279
          -5.0338899,50.4702572
          -5.0339495,50.4702805
          -5.0340059,50.4703047
          -5.0340540,50.4703389
          -5.0341074,50.4703718
          -5.0341696,50.4704043
          -5.0342214,50.4704333
          -5.0342864,50.4704637
          -5.0343409,50.4704954
          -5.0343948,50.4705238
          -5.0344576,50.4705520
          -5.0345107,50.4705771
          -5.0345537,50.4706102
          -5.0345967,50.4706534
          -5.0346474,50.4706953
          -5.0347122,50.4707318
          -5.0347628,50.4707571
          -5.0348323,50.4707768
          -5.0349059,50.4707941
          -5.0349807,50.4708032
          -5.0350531,50.4708077
          -5.0351296,50.4708209
          -5.0352098,50.4708353
          -5.0352932,50.4708434
          -5.0353783,50.4708474
          -5.0354626,50.4708419
          -5.0355485,50.4708320
          -5.0356271,50.4708213
          -5.0357013,50.4708165
          -5.0357399,50.4708405
          -5.0357584,50.4708762
          -5.0357988,50.4708890
          -5.0358073,50.4708899
          -5.0358131,50.4708916
          -5.0358219,50.4708868
          -5.0358437,50.4708648
          -5.0358543,50.4708401
          -5.0358507,50.4708363
          -5.0358537,50.4708241
          -5.0358640,50.4708111
          -5.0358649,50.4708160
          -5.0358819,50.4708407
          -5.0358598,50.4708626
          -5.0358624,50.4708642
          -5.0358628,50.4708658
          -5.0358541,50.4708711
          -5.0358420,50.4708771
          -5.0358486,50.4708896
          -5.0358301,50.4708929
          -5.0358310,50.4708917
          -5.0358312,50.4709001
          -5.0358379,50.4709058
          -5.0358413,50.4709030
          -5.0358504,50.4709002
          -5.0358810,50.4708892
          -5.0358836,50.4708787
          -5.0358986,50.4708688
          -5.0359363,50.4708555
          -5.0359519,50.4708367
          -5.0359426,50.4708410
          -5.0359234,50.4708516
          -5.0359323,50.4708569
          -5.0359684,50.4708688
          -5.0360281,50.4708653
          -5.0360940,50.4708586
          -5.0361610,50.4708757
          -5.0362015,50.4708784
          -5.0362026,50.4708801
          -5.0362027,50.4708796
          -5.0362068,50.4708791
          -5.0362650,50.4708864
          -5.0363517,50.4708938
          -5.0364503,50.4709053
          -5.0365329,50.4709185
          -5.0366015,50.4709435
          -5.0366567,50.4709835
          -5.0366856,50.4710313
          -5.0366989,50.4710833
          -5.0367139,50.4711303
          -5.0367049,50.4711702
          -5.0366796,50.4712103
          -5.0367054,50.4712513
          -5.0367324,50.4713010
          -5.0367515,50.4713547
          -5.0367698,50.4714131
          -5.0368174,50.4714590
          -5.0368550,50.4715061
          -5.0368917,50.4715540
          -5.0369042,50.4716028
          -5.0369156,50.4716448
          -5.0369732,50.4716911
          -5.0370421,50.4717222
          -5.0371043,50.4717478
          -5.0371707,50.4717813
          -5.0372291,50.4718280
          -5.0372882,50.4718595
          -5.0373543,50.4718888
          -5.0374078,50.4719168
          -5.0374762,50.4719451
          -5.0375424,50.4719768
          -5.0375999,50.4719994
          -5.0376657,50.4720201
          -5.0377417,50.4720378
          -5.0378005,50.4720505
          -5.0378714,50.4720594
          -5.0378998,50.4720621
          -5.0378991,50.4720628
          -5.0378974,50.4720627
          -5.0379318,50.4720614
          -5.0379843,50.4720635
          -5.0379898,50.4720647
          -5.0379915,50.4720629
          -5.0379995,50.4720625
          -5.0380018,50.4720630
          -5.0379992,50.4720630
          -5.0379899,50.4720629
          -5.0380022,50.4720537
          -5.0379965,50.4720494
          -5.0379613,50.4720195
          -5.0379427,50.4719808
          -5.0379412,50.4719324
          -5.0379525,50.4718836
          -5.0379570,50.4718436
          -5.0379695,50.4718071
          -5.0379972,50.4717610
          -5.0380126,50.4717117
          -5.0380062,50.4716600
          -5.0380091,50.4716082
          -5.0380126,50.4715540
          -5.0380224,50.4715020
          -5.0380461,50.4714501
          -5.0380618,50.4713960
          -5.0380668,50.4713455
          -5.0380552,50.4712938
          -5.0380447,50.4712378
          -5.0380511,50.4711844
          -5.0380507,50.4711283
          -5.0380517,50.4710742
          -5.0380642,50.4710153
          -5.0380678,50.4709648
          -5.0380682,50.4709095
          -5.0380727,50.4708508
          -5.0380803,50.4707970
          -5.0380833,50.4707441
          -5.0380850,50.4706924
          -5.0380783,50.4706386
          -5.0380768,50.4705847
          -5.0380861,50.4705338
          -5.0380981,50.4704815
          -5.0380961,50.4704271
          -5.0380922,50.4703756
          -5.0380926,50.4703154
          -5.0381082,50.4702632
          -5.0381259,50.4702134
          -5.0381474,50.4701650
          -5.0381807,50.4701212
          -5.0382053,50.4700691
          -5.0382193,50.4700164
          -5.0382395,50.4699713
          -5.0382482,50.4699218
          -5.0382606,50.4698666
          -5.0382716,50.4698113
          -5.0382918,50.4697616
          -5.0383052,50.4697174
          -5.0383225,50.4696650
          -5.0383409,50.4696161
          -5.0383534,50.4695728
          -5.0383736,50.4695201
          -5.0384032,50.4694692
          -5.0384290,50.4694206
          -5.0384492,50.4693732
          -5.0384666,50.4693253
          -5.0384846,50.4692755
          -5.0385026,50.4692278
          -5.0385233,50.4691795
          -5.0385407,50.4691288
          -5.0385557,50.4690767
          -5.0385680,50.4690265
          -5.0385800,50.4689747
          -5.0385970,50.4689301
          -5.0386261,50.4688762
          -5.0386460,50.4688257
          -5.0386614,50.4687737
          -5.0386749,50.4687265
          -5.0386877,50.4686788
          -5.0386976,50.4686331
          -5.0387111,50.4685835
          -5.0387269,50.4685368
          -5.0387360,50.4684919
          -5.0387392,50.4684468
          -5.0387402,50.4684026
          -5.0387292,50.4683565
          -5.0387285,50.4683059
          -5.0387274,50.4682567
          -5.0387155,50.4682026
          -5.0387071,50.4681529
          -5.0387047,50.4680981
          -5.0386958,50.4680477
          -5.0386865,50.4680013
          -5.0386765,50.4679476
          -5.0386700,50.4679015
          -5.0386709,50.4678515
          -5.0386744,50.4677999
          -5.0386777,50.4677513
          -5.0386746,50.4676967
          -5.0386694,50.4676535
          -5.0386640,50.4676042
          -5.0386562,50.4675506
          -5.0386208,50.4675130
          -5.0385689,50.4674818
          -5.0385329,50.4674428
          -5.0384945,50.4674062
          -5.0384293,50.4673879
          -5.0384062,50.4673569
          -5.0384025,50.4673311
          -5.0383925,50.4672926
          -5.0384147,50.4672388
          -5.0384487,50.4671996
          -5.0384589,50.4671656
          -5.0384861,50.4671216
          -5.0385178,50.4670758
          -5.0385570,50.4670322
          -5.0385956,50.4669849
          -5.0386357,50.4669354
          -5.0386513,50.4668901
          -5.0386371,50.4668425
          -5.0386450,50.4667902
          -5.0386539,50.4667574
          -5.0386718,50.4667165
          -5.0386858,50.4666726
          -5.0387083,50.4666235
          -5.0387419,50.4665780
          -5.0387891,50.4665301
          -5.0388313,50.4664871
          -5.0388689,50.4664483
          -5.0389103,50.4664066
          -5.0389533,50.4663651
          -5.0389930,50.4663183
          -5.0390359,50.4662776
          -5.0390826,50.4662343
          -5.0391263,50.4661876
          -5.0391462,50.4661432
          -5.0391553,50.4661003
          -5.0391516,50.4660533
          -5.0391932,50.4660112
          -5.0392299,50.4659799
          -5.0392514,50.4659509
          -5.0392466,50.4659491
          -5.0392599,50.4659538
          -5.0392464,50.4659615
          -5.0392448,50.4659605
          -5.0392460,50.4659557
          -5.0392460,50.4659553
          -5.0392496,50.4659522
          -5.0392664,50.4659383
          -5.0392947,50.4658955
          -5.0392891,50.4658740
          -5.0392903,50.4658769
          -5.0392812,50.4658728
          -5.0392717,50.4658660
          -5.0392473,50.4658369
          -5.0392856,50.4658129
          -5.0393396,50.4658060
          -5.0393843,50.4657775
          -5.0394153,50.4657410
          -5.0394477,50.4656991
          -5.0395075,50.4656745
          -5.0395552,50.4656636
          -5.0395911,50.4656472
          -5.0396077,50.4656454
          -5.0396582,50.4656563
          -5.0397016,50.4656853
          -5.0397197,50.4657316
          -5.0396818,50.4657719
          -5.0396241,50.4658052
          -5.0395566,50.4658370
          -5.0394978,50.4658699
          -5.0394388,50.4658986
          -5.0393814,50.4659212
          -5.0393119,50.4659468
          -5.0392560,50.4659810
          -5.0392078,50.4660125
          -5.0391577,50.4660522
          -5.0391114,50.4660855
          -5.0390859,50.4660994
          -5.0390600,50.4661177
          -5.0390009,50.4661441
          -5.0389437,50.4661764
          -5.0389087,50.4661943
          -5.0388510,50.4662096
          -5.0387892,50.4662019
          -5.0387590,50.4661670
          -5.0387257,50.4661620
          -5.0386792,50.4661700
          -5.0386371,50.4661792
          -5.0385797,50.4662002
          -5.0385168,50.4662210
          -5.0384514,50.4662450
          -5.0383852,50.4662761
          -5.0383319,50.4663101
          -5.0382633,50.4663331
          -5.0381840,50.4663232
          -5.0381258,50.4663126
          -5.0380633,50.4662742
          -5.0380107,50.4662444
          -5.0379591,50.4662256
          -5.0379615,50.4662275
          -5.0379651,50.4662279
          -5.0379670,50.4662318
          -5.0379574,50.4662540
          -5.0378980,50.4662858
          -5.0378299,50.4663106
          -5.0377501,50.4663347
          -5.0376911,50.4663724
          -5.0376419,50.4664068
          -5.0375985,50.4664482
          -5.0376196,50.4664929
          -5.0376647,50.4665253
          -5.0376952,50.4665723
          -5.0376844,50.4666237
          -5.0376606,50.4666653
          -5.0376308,50.4667089
          -5.0376369,50.4667415
          -5.0376405,50.4667653
          -5.0376361,50.4667879
          -5.0376190,50.4668034
          -5.0376199,50.4668216
          -5.0376065,50.4668627
          -5.0375645,50.4669018
          -5.0374984,50.4669298
          -5.0374179,50.4669561
          -5.0373367,50.4669806
          -5.0372599,50.4670024
          -5.0371771,50.4670152
          -5.0371091,50.4670310
          -5.0370211,50.4670399
          -5.0369452,50.4670573
          -5.0368624,50.4670709
          -5.0367856,50.4670897
          -5.0367167,50.4671084
          -5.0366307,50.4671215
          -5.0365451,50.4671387
          -5.0364627,50.4671520
          -5.0363806,50.4671638
          -5.0363156,50.4671805
          -5.0362354,50.4672004
          -5.0361590,50.4672233
          -5.0360847,50.4672391
          -5.0360023,50.4672477
          -5.0359251,50.4672613
          -5.0358394,50.4672779
          -5.0357695,50.4672975
          -5.0356838,50.4673147
          -5.0356105,50.4673330
          -5.0355377,50.4673448
          -5.0354650,50.4673484
          -5.0353831,50.4673421
          -5.0352977,50.4673480
          -5.0352153,50.4673466
          -5.0351386,50.4673410
          -5.0350608,50.4673300
          -5.0349841,50.4673268
          -5.0349057,50.4673255
          -5.0348284,50.4673336
          -5.0347403,50.4673458
          -5.0346580,50.4673586
          -5.0345973,50.4673355
          -5.0345981,50.4672940
          -5.0346212,50.4672550
          -5.0346133,50.4672147
          -5.0345906,50.4671727
          -5.0345626,50.4671367
          -5.0345337,50.4670916
          -5.0344745,50.4670551
          -5.0343980,50.4670248
          -5.0343140,50.4670093
          -5.0342356,50.4669958
          -5.0341690,50.4669788
          -5.0340887,50.4669590
          -5.0340145,50.4669375
          -5.0339423,50.4669222
          -5.0338778,50.4669013
          -5.0337997,50.4668781
          -5.0337255,50.4668610
          -5.0336463,50.4668454
          -5.0335779,50.4668318
          -5.0335011,50.4668140
          -5.0334288,50.4667975
          -5.0333593,50.4667694
          -5.0332823,50.4667465
          -5.0332035,50.4667225
          -5.0331352,50.4667013
          -5.0330807,50.4667110
          -5.0330366,50.4667326
          -5.0330084,50.4667273
          -5.0329493,50.4667143
          -5.0329396,50.4666923
          -5.0328824,50.4666709
          -5.0328204,50.4666581
          -5.0327544,50.4666386
          -5.0326834,50.4666120
          -5.0326226,50.4665917
          -5.0325551,50.4665630
          -5.0324769,50.4665395
          -5.0324097,50.4665239
          -5.0323378,50.4665092
          -5.0322612,50.4664952
          -5.0321849,50.4664726
          -5.0321145,50.4664550
          -5.0320539,50.4664342
          -5.0319982,50.4664052
          -5.0319565,50.4663845
          -5.0318927,50.4663754
          -5.0318141,50.4663638
          -5.0317473,50.4663468
          -5.0316931,50.4663395
          -5.0316510,50.4663452
          -5.0316485,50.4663468
          -5.0316156,50.4663456
          -5.0315975,50.4663432
          -5.0315571,50.4663388
          -5.0315246,50.4663395
          -5.0314986,50.4663323
          -5.0314680,50.4663170
          -5.0314349,50.4663013
          -5.0314100,50.4662929
          -5.0313722,50.4662921
          -5.0313519,50.4662681
          -5.0313333,50.4662587
          -5.0312819,50.4662545
          -5.0312127,50.4662451
          -5.0311603,50.4662341
          -5.0311013,50.4662433
          -5.0310402,50.4662642
          -5.0309792,50.4662807
          -5.0309177,50.4662893
          -5.0308625,50.4662634
          -5.0308028,50.4662447
          -5.0307408,50.4662387
          -5.0306900,50.4662120
          -5.0306721,50.4661660
          -5.0306736,50.4661260
          -5.0306736,50.4660993
          -5.0306819,50.4660681
          -5.0306855,50.4660310
          -5.0306348,50.4660239
          -5.0305934,50.4660055
          -5.0305895,50.4659665
          -5.0305372,50.4659450
          -5.0305069,50.4659428
          -5.0304798,50.4659344
          -5.0304809,50.4659353
          -5.0305045,50.4659536
          -5.0305021,50.4659511
          -5.0305020,50.4659508
          -5.0304947,50.4659427
          -5.0304893,50.4659401
          -5.0304878,50.4659340
          -5.0304870,50.4659325
          -5.0304881,50.4659323
          -5.0304902,50.4659336
          -5.0304899,50.4659315
          -5.0304962,50.4659183
          -5.0304955,50.4659091
          -5.0304918,50.4659033
          -5.0304896,50.4659049
          -5.0304811,50.4659183
          -5.0304807,50.4659220
          -5.0304787,50.4659219
          -5.0304749,50.4659209
          -5.0304517,50.4659209
          -5.0304715,50.4659008
          -5.0304887,50.4658940
          -5.0304810,50.4659037
          -5.0304571,50.4659195
          -5.0304476,50.4659121
          -5.0304499,50.4658989
          -5.0304460,50.4659142
          -5.0304395,50.4658995
          -5.0304263,50.4658683
          -5.0304114,50.4658653
          -5.0303904,50.4658560
        </coordinates>
      </LineString>
    </Placemark>
  </Document>
</kml>
