<?xml version="1.0" encoding="UTF-8"?>
<kml xmlns="http://www.opengis.net/kml/2.2" xmlns:xsi="http://www.w3.org/2001/XMLSchema-instance" xsi:schemaLocation="http://www.opengis.net/kml/2.2 http://schemas.opengis.net/kml/2.2.0/ogckml22.xsd">
  <Document>
    <name>GPS Wizard</name>
    <open>1</open>
    <Style id="wizard">
      <LineStyle>
        <color>a00000ff</color>
        <width>2</width>
      </LineStyle>
    </Style>
    <Placemark>
      <name>TBC</name>
      <styleUrl>#wizard</styleUrl>
      <LineString>
        <extrude>1</extrude>
        <tessellate>1</tessellate>
        <coordinates>
          -2.4699163,50.5860722
          -2.4698325,50.5860864
          -2.4698095,50.5860765
          -2.4698303,50.5860197
          -2.4698570,50.5859611
          -2.4698984,50.5858999
          -2.4699282,50.5858421
          -2.4699515,50.5857888
          -2.4699753,50.5857305
          -2.4699871,50.5856702
          -2.4700269,50.5856131
          -2.4700501,50.5855536
          -2.4700687,50.5854965
          -2.4700717,50.5854354
          -2.4701013,50.5853764
          -2.4701857,50.5853532
          -2.4702885,50.5853526
          -2.4703869,50.5853499
          -2.4704798,50.5853415
          -2.4705733,50.5853336
          -2.4706790,50.5853266
          -2.4707815,50.5853209
          -2.4708796,50.5853149
          -2.4709770,50.5853096
          -2.4710742,50.5853008
          -2.4711715,50.5852932
          -2.4712641,50.5852863
          -2.4713592,50.5852862
          -2.4714542,50.5852767
          -2.4715471,50.5852710
          -2.4716492,50.5852682
          -2.4717255,50.5852630
          -2.4718141,50.5852541
          -2.4719122,50.5852420
          -2.4719888,50.5852205
          -2.4719926,50.5852228
          -2.4719926,50.5852228
          -2.4719926,50.5852228
          -2.4719926,50.5852228
          -2.4720591,50.5852213
          -2.4721408,50.5852475
          -2.4721615,50.5852994
          -2.4722035,50.5853494
          -2.4722867,50.5853758
          -2.4723853,50.5853533
          -2.4724900,50.5853382
          -2.4725848,50.5853336
          -2.4726873,50.5853475
          -2.4727746,50.5853383
          -2.4728191,50.5852862
          -2.4728759,50.5852376
          -2.4729610,50.5852189
          -2.4730262,50.5851786
          -2.4730769,50.5851282
          -2.4731569,50.5851050
          -2.4732583,50.5851220
          -2.4733372,50.5851462
          -2.4734166,50.5851667
          -2.4734343,50.5851780
          -2.4734343,50.5851780
          -2.4734343,50.5851780
          -2.4734627,50.5851858
          -2.4735384,50.5852186
          -2.4736143,50.5852534
          -2.4736954,50.5852763
          -2.4737766,50.5852998
          -2.4738639,50.5853212
          -2.4739497,50.5853436
          -2.4740404,50.5853644
          -2.4741075,50.5853843
          -2.4741775,50.5854057
          -2.4742515,50.5854306
          -2.4743381,50.5854528
          -2.4744252,50.5854735
          -2.4745094,50.5854942
          -2.4746009,50.5855202
          -2.4746828,50.5855459
          -2.4747681,50.5855687
          -2.4748536,50.5855943
          -2.4749359,50.5856033
          -2.4750282,50.5856279
          -2.4751254,50.5856398
          -2.4752051,50.5856484
          -2.4752193,50.5856507
          -2.4752193,50.5856507
          -2.4752200,50.5856498
          -2.4752649,50.5856748
          -2.4753385,50.5856937
          -2.4754023,50.5857151
          -2.4754179,50.5857351
          -2.4754217,50.5857486
          -2.4754260,50.5857629
          -2.4754358,50.5857891
          -2.4754431,50.5858164
          -2.4754738,50.5858480
          -2.4755348,50.5858714
          -2.4756197,50.5858777
          -2.4757027,50.5858769
          -2.4757863,50.5858766
          -2.4758763,50.5858786
          -2.4759553,50.5858746
          -2.4760359,50.5858625
          -2.4761155,50.5858549
          -2.4761957,50.5858473
          -2.4762752,50.5858497
          -2.4763321,50.5858411
          -2.4763911,50.5858354
          -2.4764761,50.5858299
          -2.4765676,50.5858255
          -2.4766424,50.5858374
          -2.4767109,50.5858479
          -2.4767190,50.5858464
          -2.4767683,50.5858442
          -2.4767942,50.5858371
          -2.4768475,50.5858417
          -2.4768595,50.5858432
          -2.4768595,50.5858432
          -2.4768595,50.5858432
          -2.4768595,50.5858432
          -2.4768945,50.5858536
          -2.4769346,50.5858702
          -2.4769345,50.5858720
          -2.4769345,50.5858720
          -2.4769345,50.5858720
          -2.4769345,50.5858720
          -2.4769345,50.5858720
          -2.4769345,50.5858720
          -2.4769345,50.5858720
          -2.4769345,50.5858720
          -2.4769325,50.5858726
          -2.4768826,50.5858592
          -2.4768773,50.5858588
          -2.4768273,50.5858500
          -2.4768087,50.5858468
          -2.4768087,50.5858468
          -2.4768087,50.5858468
          -2.4768087,50.5858468
          -2.4768087,50.5858468
          -2.4768087,50.5858468
          -2.4768087,50.5858468
          -2.4768087,50.5858468
          -2.4768389,50.5858424
          -2.4768389,50.5858424
          -2.4768389,50.5858424
          -2.4768389,50.5858424
          -2.4768389,50.5858424
          -2.4768698,50.5858492
          -2.4769228,50.5858611
          -2.4769613,50.5858924
          -2.4769724,50.5859257
          -2.4770049,50.5859542
          -2.4770536,50.5859849
          -2.4771086,50.5860210
          -2.4771138,50.5860479
          -2.4771225,50.5860796
          -2.4771726,50.5861200
          -2.4772171,50.5861558
          -2.4772518,50.5861901
          -2.4772970,50.5862346
          -2.4773411,50.5862792
          -2.4773928,50.5863244
          -2.4774403,50.5863518
          -2.4775042,50.5863878
          -2.4775496,50.5864250
          -2.4775776,50.5864685
          -2.4776135,50.5864983
          -2.4776322,50.5865166
          -2.4776843,50.5865478
          -2.4777466,50.5865869
          -2.4778143,50.5866228
          -2.4778767,50.5866480
          -2.4778954,50.5866927
          -2.4779068,50.5867349
          -2.4779534,50.5867807
          -2.4779948,50.5868271
          -2.4780484,50.5868721
          -2.4780988,50.5869229
          -2.4781420,50.5869654
          -2.4782001,50.5870050
          -2.4782517,50.5870433
          -2.4783057,50.5870767
          -2.4783123,50.5870796
          -2.4783123,50.5870796
          -2.4783123,50.5870796
          -2.4783123,50.5870796
          -2.4783123,50.5870796
          -2.4783123,50.5870796
          -2.4783123,50.5870796
          -2.4783331,50.5870906
          -2.4783796,50.5871238
          -2.4784284,50.5871630
          -2.4784726,50.5871984
          -2.4785273,50.5872330
          -2.4785915,50.5872724
          -2.4786436,50.5873097
          -2.4787013,50.5873501
          -2.4787624,50.5873875
          -2.4788226,50.5874279
          -2.4788716,50.5874625
          -2.4789267,50.5875022
          -2.4789826,50.5875455
          -2.4790394,50.5875783
          -2.4791036,50.5876218
          -2.4791529,50.5876593
          -2.4792041,50.5876960
          -2.4792598,50.5877353
          -2.4793106,50.5877793
          -2.4793547,50.5878253
          -2.4793888,50.5878730
          -2.4794322,50.5879244
          -2.4794735,50.5879626
          -2.4795251,50.5879963
          -2.4795668,50.5880326
          -2.4796212,50.5880635
          -2.4796814,50.5880952
          -2.4797431,50.5881076
          -2.4798046,50.5881272
          -2.4798615,50.5881594
          -2.4799116,50.5881990
          -2.4799612,50.5882387
          -2.4800170,50.5882754
          -2.4800542,50.5883070
          -2.4801012,50.5883468
          -2.4801518,50.5883865
          -2.4802114,50.5884211
          -2.4802518,50.5884470
          -2.4802821,50.5884712
          -2.4803378,50.5885163
          -2.4803950,50.5885561
          -2.4804466,50.5885931
          -2.4805079,50.5886281
          -2.4805776,50.5886637
          -2.4806517,50.5886906
          -2.4807191,50.5887188
          -2.4807890,50.5887489
          -2.4808564,50.5887764
          -2.4809264,50.5887986
          -2.4809901,50.5888215
          -2.4810541,50.5888480
          -2.4811310,50.5888728
          -2.4812064,50.5888862
          -2.4812574,50.5889014
          -2.4813368,50.5889057
          -2.4814131,50.5889289
          -2.4814683,50.5889416
          -2.4815401,50.5889449
          -2.4816210,50.5889341
          -2.4816920,50.5889184
          -2.4817595,50.5888989
          -2.4818425,50.5888857
          -2.4819218,50.5888771
          -2.4820040,50.5888681
          -2.4820933,50.5888639
          -2.4821778,50.5888756
          -2.4822544,50.5888944
          -2.4823238,50.5889186
          -2.4824010,50.5889394
          -2.4824797,50.5889622
          -2.4825483,50.5889794
          -2.4826280,50.5889973
          -2.4827115,50.5890135
          -2.4827909,50.5890245
          -2.4828739,50.5890335
          -2.4829572,50.5890483
          -2.4830411,50.5890633
          -2.4831236,50.5890761
          -2.4832031,50.5890865
          -2.4832853,50.5891007
          -2.4833609,50.5891168
          -2.4834233,50.5891304
          -2.4834310,50.5891358
          -2.4834310,50.5891358
          -2.4834310,50.5891358
          -2.4834864,50.5891592
          -2.4835356,50.5891717
          -2.4835435,50.5891719
          -2.4835629,50.5891900
          -2.4835917,50.5892395
          -2.4836061,50.5892823
          -2.4836148,50.5893108
          -2.4836261,50.5893486
          -2.4836398,50.5893886
          -2.4836583,50.5894375
          -2.4836693,50.5894822
          -2.4836869,50.5895287
          -2.4837079,50.5895806
          -2.4837240,50.5896262
          -2.4837385,50.5896730
          -2.4837673,50.5897176
          -2.4837877,50.5897574
          -2.4838073,50.5897896
          -2.4838161,50.5898107
          -2.4838384,50.5898629
          -2.4838538,50.5899099
          -2.4838563,50.5899538
          -2.4838591,50.5900021
          -2.4838613,50.5900529
          -2.4838604,50.5900957
          -2.4838680,50.5901455
          -2.4838764,50.5901617
          -2.4838840,50.5901990
          -2.4838670,50.5902396
          -2.4838341,50.5902591
          -2.4838126,50.5902799
          -2.4837899,50.5903064
          -2.4837610,50.5903544
          -2.4837406,50.5903911
          -2.4837216,50.5904392
          -2.4837020,50.5904831
          -2.4836936,50.5905219
          -2.4836800,50.5905588
          -2.4836555,50.5906021
          -2.4836494,50.5906148
          -2.4836319,50.5906382
          -2.4836090,50.5906770
          -2.4835875,50.5907161
          -2.4835728,50.5907447
          -2.4835725,50.5907836
          -2.4835931,50.5908137
          -2.4836012,50.5908237
          -2.4836318,50.5908631
          -2.4836354,50.5908717
          -2.4836354,50.5908717
          -2.4836354,50.5908717
          -2.4836354,50.5908717
          -2.4836493,50.5908841
          -2.4836748,50.5909156
          -2.4837059,50.5909566
          -2.4837308,50.5909939
          -2.4837611,50.5910306
          -2.4837779,50.5910597
          -2.4838055,50.5910975
          -2.4838423,50.5911307
          -2.4838961,50.5911432
          -2.4839504,50.5911404
          -2.4840179,50.5911628
          -2.4840625,50.5912128
          -2.4841068,50.5912654
          -2.4841571,50.5913063
          -2.4842100,50.5913488
          -2.4842699,50.5913819
          -2.4843000,50.5914262
          -2.4843558,50.5914572
          -2.4844294,50.5914453
          -2.4845058,50.5914645
          -2.4845708,50.5914992
          -2.4846261,50.5915358
          -2.4846938,50.5915719
          -2.4847533,50.5916148
          -2.4848042,50.5916518
          -2.4848786,50.5916773
          -2.4849685,50.5916937
          -2.4850475,50.5917135
          -2.4851277,50.5917406
          -2.4852000,50.5917644
          -2.4852708,50.5917870
          -2.4853479,50.5918005
          -2.4854029,50.5918108
          -2.4854200,50.5918171
          -2.4854200,50.5918163
          -2.4854201,50.5918163
          -2.4854201,50.5918163
          -2.4854201,50.5918163
          -2.4854201,50.5918163
          -2.4854201,50.5918163
          -2.4854643,50.5918092
          -2.4855525,50.5917978
          -2.4856394,50.5917989
          -2.4857235,50.5917978
          -2.4857383,50.5918372
          -2.4857484,50.5918672
          -2.4857667,50.5918997
          -2.4857413,50.5919429
          -2.4857275,50.5919901
          -2.4857210,50.5920435
          -2.4857152,50.5920916
          -2.4856867,50.5921284
          -2.4856540,50.5921802
          -2.4856319,50.5922272
          -2.4856244,50.5922725
          -2.4856284,50.5923264
          -2.4856442,50.5923752
          -2.4856608,50.5924188
          -2.4856940,50.5924744
          -2.4857180,50.5925167
          -2.4857489,50.5925641
          -2.4857891,50.5926029
          -2.4858451,50.5926397
          -2.4859043,50.5926714
          -2.4859557,50.5927060
          -2.4860203,50.5927429
          -2.4860746,50.5927764
          -2.4861297,50.5928117
          -2.4861888,50.5928444
          -2.4862610,50.5928844
          -2.4863320,50.5929240
          -2.4863989,50.5929608
          -2.4864620,50.5929935
          -2.4864897,50.5930107
          -2.4865433,50.5930449
          -2.4866043,50.5930784
          -2.4866588,50.5931157
          -2.4867098,50.5931357
          -2.4867570,50.5931707
          -2.4868090,50.5932029
          -2.4868653,50.5932367
          -2.4869335,50.5932695
          -2.4870035,50.5932882
          -2.4870895,50.5932993
          -2.4871696,50.5932949
          -2.4872576,50.5932832
          -2.4873387,50.5932641
          -2.4874196,50.5932415
          -2.4874795,50.5932097
          -2.4875371,50.5931768
          -2.4875982,50.5931405
          -2.4876454,50.5931093
          -2.4876994,50.5930803
          -2.4877577,50.5930478
          -2.4878075,50.5930111
          -2.4878595,50.5929805
          -2.4879137,50.5929464
          -2.4879723,50.5929120
          -2.4879924,50.5929049
          -2.4879926,50.5929045
          -2.4880633,50.5928687
          -2.4881401,50.5928637
          -2.4882172,50.5928600
          -2.4882940,50.5928867
          -2.4883540,50.5929240
          -2.4884098,50.5929628
          -2.4884651,50.5929986
          -2.4885253,50.5930442
          -2.4885809,50.5930841
          -2.4886341,50.5931243
          -2.4886895,50.5931661
          -2.4887393,50.5932045
          -2.4887973,50.5932468
          -2.4888481,50.5932887
          -2.4889071,50.5933298
          -2.4889597,50.5933706
          -2.4890062,50.5934128
          -2.4890581,50.5934560
          -2.4891109,50.5934980
          -2.4891624,50.5935384
          -2.4892175,50.5935786
          -2.4892637,50.5936176
          -2.4893083,50.5936544
          -2.4893573,50.5936955
          -2.4894128,50.5937373
          -2.4894662,50.5937811
          -2.4895201,50.5938236
          -2.4895710,50.5938658
          -2.4896177,50.5939062
          -2.4896601,50.5939422
          -2.4897112,50.5939839
          -2.4897576,50.5940232
          -2.4897971,50.5940566
          -2.4898458,50.5940949
          -2.4899004,50.5941381
          -2.4899543,50.5941738
          -2.4900147,50.5942099
          -2.4900578,50.5942414
          -2.4900840,50.5942563
          -2.4901371,50.5942984
          -2.4901910,50.5943441
          -2.4902545,50.5943891
          -2.4903165,50.5944304
          -2.4903793,50.5944704
          -2.4904358,50.5945134
          -2.4905015,50.5945524
          -2.4905613,50.5945926
          -2.4906078,50.5946297
          -2.4906463,50.5946561
          -2.4906981,50.5946985
          -2.4907652,50.5947381
          -2.4908327,50.5947707
          -2.4908993,50.5948001
          -2.4909456,50.5948035
          -2.4909378,50.5947704
          -2.4909259,50.5947534
          -2.4908864,50.5947089
          -2.4908447,50.5946630
          -2.4908246,50.5946402
          -2.4908218,50.5946352
          -2.4908157,50.5946231
          -2.4908172,50.5946132
          -2.4908715,50.5945980
          -2.4909605,50.5945814
          -2.4910399,50.5945676
          -2.4911131,50.5945571
          -2.4911765,50.5945323
          -2.4912305,50.5945007
          -2.4912867,50.5944731
          -2.4913404,50.5944342
          -2.4913937,50.5943985
          -2.4914511,50.5943681
          -2.4914969,50.5943343
          -2.4915317,50.5943010
          -2.4915798,50.5942688
          -2.4916059,50.5942506
          -2.4916501,50.5942253
          -2.4917044,50.5941968
          -2.4917624,50.5941635
          -2.4918157,50.5941350
          -2.4918605,50.5941044
          -2.4919037,50.5940720
          -2.4919460,50.5940394
          -2.4919884,50.5940005
          -2.4919994,50.5939616
          -2.4920013,50.5939528
          -2.4919888,50.5939388
          -2.4919758,50.5939020
          -2.4919531,50.5938611
          -2.4919323,50.5938316
          -2.4919083,50.5937790
          -2.4918894,50.5937298
          -2.4918657,50.5936813
          -2.4918277,50.5936261
          -2.4917915,50.5935827
          -2.4917568,50.5935308
          -2.4917290,50.5934865
          -2.4916951,50.5934374
          -2.4916658,50.5933880
          -2.4916307,50.5933413
          -2.4915970,50.5932896
          -2.4915516,50.5932434
          -2.4915097,50.5931986
          -2.4914599,50.5931580
          -2.4914117,50.5931052
          -2.4913635,50.5930580
          -2.4913177,50.5930190
          -2.4912687,50.5929718
          -2.4912246,50.5929257
          -2.4911766,50.5928762
          -2.4911320,50.5928283
          -2.4910842,50.5927830
          -2.4910355,50.5927311
          -2.4909834,50.5926847
          -2.4909352,50.5926439
          -2.4908743,50.5925941
          -2.4908167,50.5925532
          -2.4907658,50.5925204
          -2.4907094,50.5924738
          -2.4906427,50.5924304
          -2.4905850,50.5923934
          -2.4905164,50.5923474
          -2.4904479,50.5923069
          -2.4903773,50.5922762
          -2.4903016,50.5922440
          -2.4902312,50.5922061
          -2.4901599,50.5921731
          -2.4900810,50.5921410
          -2.4900095,50.5921119
          -2.4899379,50.5920757
          -2.4898728,50.5920361
          -2.4897940,50.5919952
          -2.4897243,50.5919595
          -2.4896562,50.5919278
          -2.4895709,50.5918906
          -2.4894937,50.5918708
          -2.4894137,50.5918370
          -2.4893317,50.5918092
          -2.4892559,50.5917805
          -2.4891823,50.5917518
          -2.4891132,50.5917231
          -2.4890276,50.5916879
          -2.4889537,50.5916549
          -2.4888762,50.5916218
          -2.4887973,50.5916026
          -2.4887248,50.5915609
          -2.4886559,50.5915287
          -2.4885813,50.5914946
          -2.4885068,50.5914588
          -2.4884293,50.5914378
          -2.4883602,50.5914045
          -2.4882840,50.5913706
          -2.4882061,50.5913438
          -2.4881286,50.5913131
          -2.4880471,50.5912870
          -2.4879656,50.5912753
          -2.4878775,50.5912706
          -2.4877826,50.5912531
          -2.4876891,50.5912519
          -2.4876087,50.5912398
          -2.4875919,50.5912372
          -2.4875919,50.5912372
          -2.4875052,50.5912286
          -2.4874258,50.5912373
          -2.4873337,50.5912457
          -2.4872548,50.5912514
          -2.4871646,50.5912543
          -2.4870837,50.5912600
          -2.4869978,50.5912695
          -2.4869139,50.5912749
          -2.4868217,50.5912866
          -2.4867386,50.5913043
          -2.4866564,50.5913161
          -2.4865882,50.5913569
          -2.4864984,50.5913698
          -2.4864248,50.5913957
          -2.4863525,50.5914311
          -2.4863052,50.5914724
          -2.4862591,50.5915235
          -2.4862176,50.5915761
          -2.4861757,50.5916240
          -2.4861323,50.5916761
          -2.4861059,50.5917204
          -2.4860674,50.5917624
          -2.4860333,50.5918096
          -2.4860043,50.5918362
          -2.4859612,50.5918230
          -2.4859141,50.5918038
          -2.4858219,50.5918031
          -2.4857342,50.5918025
          -2.4856433,50.5917893
          -2.4855548,50.5917789
          -2.4854695,50.5917725
          -2.4853817,50.5917741
          -2.4853105,50.5917787
          -2.4852858,50.5918003
          -2.4852840,50.5918013
          -2.4852840,50.5918013
          -2.4852840,50.5918013
          -2.4852840,50.5918013
          -2.4852840,50.5918013
          -2.4852810,50.5918032
          -2.4852603,50.5918015
          -2.4851951,50.5917831
          -2.4851274,50.5917619
          -2.4850528,50.5917362
          -2.4849864,50.5917116
          -2.4849141,50.5916720
          -2.4848479,50.5916568
          -2.4847779,50.5916415
          -2.4847180,50.5916047
          -2.4846516,50.5915743
          -2.4845856,50.5915461
          -2.4845107,50.5915127
          -2.4844704,50.5914662
          -2.4844181,50.5914241
          -2.4843616,50.5914017
          -2.4842993,50.5913980
          -2.4842446,50.5913678
          -2.4841955,50.5913354
          -2.4841349,50.5912936
          -2.4840802,50.5912571
          -2.4840408,50.5912086
          -2.4840036,50.5911566
          -2.4839815,50.5911198
          -2.4839675,50.5910652
          -2.4839679,50.5910122
          -2.4839732,50.5909640
          -2.4839859,50.5909040
          -2.4840042,50.5908454
          -2.4840142,50.5907923
          -2.4840453,50.5907396
          -2.4840859,50.5906862
          -2.4841134,50.5906293
          -2.4841424,50.5905832
          -2.4841760,50.5905367
          -2.4841814,50.5904816
          -2.4841851,50.5904247
          -2.4841785,50.5903752
          -2.4841689,50.5903293
          -2.4841702,50.5902827
          -2.4841821,50.5902315
          -2.4841917,50.5901808
          -2.4841750,50.5901269
          -2.4841829,50.5900752
          -2.4841396,50.5900348
          -2.4841043,50.5899913
          -2.4840902,50.5899503
          -2.4840935,50.5899050
          -2.4840812,50.5898635
          -2.4840544,50.5898243
          -2.4840316,50.5897771
          -2.4840224,50.5897243
          -2.4840083,50.5896764
          -2.4840121,50.5896238
          -2.4839923,50.5895806
          -2.4839760,50.5895332
          -2.4839419,50.5894865
          -2.4838955,50.5894462
          -2.4838659,50.5893907
          -2.4838507,50.5893378
          -2.4838183,50.5892885
          -2.4838017,50.5892374
          -2.4837915,50.5891905
          -2.4837540,50.5891435
          -2.4837195,50.5890961
          -2.4836935,50.5890433
          -2.4836589,50.5889961
          -2.4836012,50.5889602
          -2.4835422,50.5889461
          -2.4834826,50.5889354
          -2.4834029,50.5889263
          -2.4833217,50.5889205
          -2.4832272,50.5889156
          -2.4831371,50.5889033
          -2.4830560,50.5889034
          -2.4829785,50.5888998
          -2.4829003,50.5888863
          -2.4828144,50.5888809
          -2.4827250,50.5888664
          -2.4826551,50.5888413
          -2.4825792,50.5888126
          -2.4825001,50.5888072
          -2.4824239,50.5888062
          -2.4823636,50.5887974
          -2.4822927,50.5887593
          -2.4822273,50.5887445
          -2.4821513,50.5887458
          -2.4820793,50.5887564
          -2.4819992,50.5887722
          -2.4819220,50.5887836
          -2.4818350,50.5887884
          -2.4817590,50.5887883
          -2.4816764,50.5887897
          -2.4815980,50.5887888
          -2.4815147,50.5887906
          -2.4814294,50.5887799
          -2.4813538,50.5887671
          -2.4812855,50.5887572
          -2.4812081,50.5887376
          -2.4811427,50.5887076
          -2.4810728,50.5886774
          -2.4810094,50.5886422
          -2.4809552,50.5886058
          -2.4809020,50.5885765
          -2.4808347,50.5885411
          -2.4807747,50.5885048
          -2.4807166,50.5884706
          -2.4806543,50.5884354
          -2.4805791,50.5884080
          -2.4805132,50.5883786
          -2.4804501,50.5883496
          -2.4803920,50.5883146
          -2.4803292,50.5882796
          -2.4802768,50.5882388
          -2.4802309,50.5882025
          -2.4801924,50.5881605
          -2.4801499,50.5881236
          -2.4801052,50.5880918
          -2.4801104,50.5880926
          -2.4801104,50.5880926
          -2.4801104,50.5880926
          -2.4801104,50.5880926
          -2.4801104,50.5880926
          -2.4801104,50.5880926
          -2.4801104,50.5880926
          -2.4801104,50.5880926
          -2.4800802,50.5880563
          -2.4800295,50.5880189
          -2.4799892,50.5879797
          -2.4799458,50.5879335
          -2.4799074,50.5878905
          -2.4798574,50.5878512
          -2.4798098,50.5878086
          -2.4797746,50.5877668
          -2.4797421,50.5877208
          -2.4796908,50.5877037
          -2.4796377,50.5876821
          -2.4795841,50.5876611
          -2.4795423,50.5876144
          -2.4795074,50.5875703
          -2.4795213,50.5875326
          -2.4795071,50.5874879
          -2.4795028,50.5874451
          -2.4794869,50.5874026
          -2.4794526,50.5873674
          -2.4794264,50.5873337
          -2.4794265,50.5872949
          -2.4793851,50.5872562
          -2.4793504,50.5872166
          -2.4793129,50.5871874
          -2.4792753,50.5871635
          -2.4792430,50.5871352
          -2.4792152,50.5870979
          -2.4791695,50.5870540
          -2.4791212,50.5870233
          -2.4790666,50.5869867
          -2.4790207,50.5869523
          -2.4789665,50.5869194
          -2.4789158,50.5868845
          -2.4788870,50.5868560
          -2.4788345,50.5868255
          -2.4787709,50.5868013
          -2.4787119,50.5867685
          -2.4786553,50.5867347
          -2.4785917,50.5866978
          -2.4785416,50.5866661
          -2.4784899,50.5866283
          -2.4784419,50.5865969
          -2.4783866,50.5865632
          -2.4783481,50.5865295
          -2.4782916,50.5864986
          -2.4782704,50.5864515
          -2.4782610,50.5864094
          -2.4782123,50.5863857
          -2.4781476,50.5863691
          -2.4780786,50.5863592
          -2.4780043,50.5863363
          -2.4779442,50.5863110
          -2.4778996,50.5862806
          -2.4778287,50.5862505
          -2.4777603,50.5862196
          -2.4776997,50.5861949
          -2.4776407,50.5861646
          -2.4775757,50.5861308
          -2.4775243,50.5861085
          -2.4774571,50.5860705
          -2.4774195,50.5860283
          -2.4773720,50.5859816
          -2.4773338,50.5859674
          -2.4773666,50.5859502
          -2.4773792,50.5859236
          -2.4773745,50.5858915
          -2.4773499,50.5858819
          -2.4773186,50.5858741
          -2.4773186,50.5858741
          -2.4773186,50.5858741
          -2.4773186,50.5858741
          -2.4773186,50.5858741
          -2.4773186,50.5858741
          -2.4773186,50.5858741
          -2.4773592,50.5858972
          -2.4773862,50.5859283
          -2.4774158,50.5859734
          -2.4774270,50.5860179
          -2.4774703,50.5860666
          -2.4775322,50.5861025
          -2.4775933,50.5861381
          -2.4776660,50.5861672
          -2.4777415,50.5861989
          -2.4778235,50.5862262
          -2.4778926,50.5862639
          -2.4779502,50.5863034
          -2.4780299,50.5863396
          -2.4781046,50.5863723
          -2.4781863,50.5863900
          -2.4782705,50.5864058
          -2.4782988,50.5864610
          -2.4783412,50.5865069
          -2.4783878,50.5865473
          -2.4784375,50.5865896
          -2.4785066,50.5866334
          -2.4785707,50.5866722
          -2.4786237,50.5867118
          -2.4786797,50.5867556
          -2.4787400,50.5868027
          -2.4788050,50.5868368
          -2.4788642,50.5868656
          -2.4789365,50.5868965
          -2.4789895,50.5869398
          -2.4790403,50.5869811
          -2.4791084,50.5870038
          -2.4791702,50.5870449
          -2.4792320,50.5870889
          -2.4792683,50.5871416
          -2.4793048,50.5871940
          -2.4793506,50.5872395
          -2.4794009,50.5872796
          -2.4794495,50.5873284
          -2.4794851,50.5873772
          -2.4795245,50.5874317
          -2.4795596,50.5874824
          -2.4795582,50.5875356
          -2.4795447,50.5875803
          -2.4795794,50.5876239
          -2.4796202,50.5876681
          -2.4796772,50.5877041
          -2.4797296,50.5877374
          -2.4797854,50.5877784
          -2.4798148,50.5878297
          -2.4798653,50.5878711
          -2.4798958,50.5879324
          -2.4799426,50.5879822
          -2.4799928,50.5880279
          -2.4800471,50.5880682
          -2.4800857,50.5881081
          -2.4801362,50.5881593
          -2.4801781,50.5882022
          -2.4802305,50.5882436
          -2.4802940,50.5882838
          -2.4803589,50.5883170
          -2.4803945,50.5883482
          -2.4803792,50.5883660
          -2.4803792,50.5883660
          -2.4803616,50.5883838
          -2.4803086,50.5883938
          -2.4802414,50.5884007
          -2.4801697,50.5883995
          -2.4801326,50.5883864
          -2.4801044,50.5883623
          -2.4800515,50.5883319
          -2.4800076,50.5882904
          -2.4799567,50.5882521
          -2.4799089,50.5882198
          -2.4798767,50.5881963
          -2.4798202,50.5881577
          -2.4797603,50.5881244
          -2.4796888,50.5881187
          -2.4796201,50.5880807
          -2.4795570,50.5880370
          -2.4794991,50.5879931
          -2.4794395,50.5879496
          -2.4793928,50.5878997
          -2.4793517,50.5878503
          -2.4793127,50.5878019
          -2.4792661,50.5877538
          -2.4792023,50.5877108
          -2.4791402,50.5876662
          -2.4790808,50.5876258
          -2.4790189,50.5875920
          -2.4789580,50.5875497
          -2.4788979,50.5874997
          -2.4788359,50.5874542
          -2.4787687,50.5874166
          -2.4786996,50.5873808
          -2.4786397,50.5873262
          -2.4785822,50.5872880
          -2.4785217,50.5872494
          -2.4784600,50.5872052
          -2.4784034,50.5871612
          -2.4783489,50.5871248
          -2.4782794,50.5870768
          -2.4782205,50.5870364
          -2.4781612,50.5870052
          -2.4781064,50.5869522
          -2.4780513,50.5869061
          -2.4780006,50.5868638
          -2.4779496,50.5868105
          -2.4779024,50.5867643
          -2.4778841,50.5867211
          -2.4778614,50.5866608
          -2.4777911,50.5866379
          -2.4777281,50.5866015
          -2.4776617,50.5865582
          -2.4776304,50.5865334
          -2.4776182,50.5865201
          -2.4776174,50.5865273
          -2.4776228,50.5865288
          -2.4776227,50.5865289
          -2.4776227,50.5865289
          -2.4776227,50.5865289
          -2.4776069,50.5865093
          -2.4775696,50.5864701
          -2.4775268,50.5864199
          -2.4774685,50.5863859
          -2.4774011,50.5863524
          -2.4773462,50.5863179
          -2.4773082,50.5862793
          -2.4772573,50.5862272
          -2.4772059,50.5861780
          -2.4771513,50.5861444
          -2.4771122,50.5860992
          -2.4771082,50.5860659
          -2.4771043,50.5860449
          -2.4770545,50.5860043
          -2.4770045,50.5859678
          -2.4769710,50.5859319
          -2.4769303,50.5858959
          -2.4769215,50.5858788
          -2.4769647,50.5859025
          -2.4769671,50.5859083
          -2.4769150,50.5858767
          -2.4768560,50.5858544
          -2.4767874,50.5858568
          -2.4767389,50.5858653
          -2.4766682,50.5858570
          -2.4765780,50.5858398
          -2.4764886,50.5858351
          -2.4764048,50.5858417
          -2.4763449,50.5858404
          -2.4762920,50.5858537
          -2.4762134,50.5858548
          -2.4761254,50.5858578
          -2.4760375,50.5858677
          -2.4759505,50.5858793
          -2.4758537,50.5858825
          -2.4757673,50.5858844
          -2.4756818,50.5858863
          -2.4755966,50.5858804
          -2.4755100,50.5858757
          -2.4754576,50.5858607
          -2.4754296,50.5858228
          -2.4754240,50.5857981
          -2.4754212,50.5857745
          -2.4754181,50.5857571
          -2.4754063,50.5857308
          -2.4753901,50.5857134
          -2.4753068,50.5856986
          -2.4752304,50.5856674
          -2.4751338,50.5856520
          -2.4750541,50.5856441
          -2.4749675,50.5856299
          -2.4748791,50.5856097
          -2.4747873,50.5855941
          -2.4747083,50.5855772
          -2.4746332,50.5855571
          -2.4745515,50.5855370
          -2.4744790,50.5855167
          -2.4743936,50.5854909
          -2.4743153,50.5854741
          -2.4742276,50.5854445
          -2.4741487,50.5854412
          -2.4741048,50.5854070
          -2.4740118,50.5853844
          -2.4739240,50.5853599
          -2.4738447,50.5853374
          -2.4737566,50.5852990
          -2.4736715,50.5852787
          -2.4735987,50.5852473
          -2.4735179,50.5852148
          -2.4734412,50.5851881
          -2.4733656,50.5851665
          -2.4732826,50.5851524
          -2.4732177,50.5851436
          -2.4731667,50.5851171
          -2.4730921,50.5850837
          -2.4730187,50.5850575
          -2.4729418,50.5850227
          -2.4728657,50.5849842
          -2.4727888,50.5849504
          -2.4727090,50.5849130
          -2.4726363,50.5848732
          -2.4725625,50.5848321
          -2.4724987,50.5847904
          -2.4724371,50.5847457
          -2.4723753,50.5847053
          -2.4723165,50.5846608
          -2.4722664,50.5846175
          -2.4722133,50.5845680
          -2.4721587,50.5845183
          -2.4721054,50.5844751
          -2.4720507,50.5844262
          -2.4719950,50.5843805
          -2.4719370,50.5843384
          -2.4718571,50.5843038
          -2.4718059,50.5842787
          -2.4717740,50.5842523
          -2.4717562,50.5842136
          -2.4717471,50.5842103
          -2.4717638,50.5842733
          -2.4717800,50.5843189
          -2.4717809,50.5843395
          -2.4717806,50.5843377
          -2.4717806,50.5843377
          -2.4717806,50.5843377
          -2.4717806,50.5843377
          -2.4717806,50.5843377
          -2.4717806,50.5843377
          -2.4717806,50.5843377
          -2.4717806,50.5843377
          -2.4717806,50.5843377
          -2.4716882,50.5843618
          -2.4716087,50.5843515
          -2.4715832,50.5842943
          -2.4715566,50.5842412
          -2.4715374,50.5841691
          -2.4715149,50.5841060
          -2.4714951,50.5840397
          -2.4714601,50.5839781
          -2.4714355,50.5839143
          -2.4714254,50.5838563
          -2.4714104,50.5837901
          -2.4714069,50.5837576
          -2.4714010,50.5837499
          -2.4714058,50.5837534
          -2.4713987,50.5837493
          -2.4713874,50.5836789
          -2.4713663,50.5836240
          -2.4713389,50.5835581
          -2.4713155,50.5834986
          -2.4712846,50.5834381
          -2.4712669,50.5833809
          -2.4712467,50.5833122
          -2.4712258,50.5832533
          -2.4712012,50.5831881
          -2.4711722,50.5831336
          -2.4711477,50.5830704
          -2.4711267,50.5830097
          -2.4711116,50.5829550
          -2.4710874,50.5828950
          -2.4710779,50.5828788
          -2.4710624,50.5828442
          -2.4710343,50.5827750
          -2.4710213,50.5827268
          -2.4709999,50.5826599
          -2.4709726,50.5826054
          -2.4709455,50.5825391
          -2.4709293,50.5824809
          -2.4709089,50.5824193
          -2.4708903,50.5823602
          -2.4708678,50.5823027
          -2.4708442,50.5822381
          -2.4708229,50.5821717
          -2.4708012,50.5821097
          -2.4707852,50.5820519
          -2.4707647,50.5819846
          -2.4707412,50.5819227
          -2.4707111,50.5818564
          -2.4706854,50.5818117
          -2.4706401,50.5817403
          -2.4705852,50.5817003
          -2.4705360,50.5816668
          -2.4704408,50.5816527
          -2.4703460,50.5816575
          -2.4702454,50.5816742
          -2.4701570,50.5816812
          -2.4700624,50.5816891
          -2.4699741,50.5816915
          -2.4698902,50.5816978
          -2.4697986,50.5817088
          -2.4697109,50.5817206
          -2.4696424,50.5817356
          -2.4696135,50.5817612
          -2.4696033,50.5817718
          -2.4695974,50.5817709
          -2.4695984,50.5817761
          -2.4695984,50.5817761
          -2.4695932,50.5817751
          -2.4696275,50.5817246
        </coordinates>
      </LineString>
    </Placemark>
  </Document>
</kml>
