<?xml version="1.0" encoding="UTF-8"?>
<kml xmlns="http://www.opengis.net/kml/2.2" xmlns:xsi="http://www.w3.org/2001/XMLSchema-instance" xsi:schemaLocation="http://www.opengis.net/kml/2.2 http://schemas.opengis.net/kml/2.2.0/ogckml22.xsd">
  <Document>
    <name>GPS Wizard</name>
    <open>1</open>
    <Style id="wizard">
      <LineStyle>
        <color>a00000ff</color>
        <width>2</width>
      </LineStyle>
    </Style>
    <Placemark>
      <name>TBC</name>
      <styleUrl>#wizard</styleUrl>
      <LineString>
        <extrude>1</extrude>
        <tessellate>1</tessellate>
        <coordinates>
          -2.4396874,50.5566331
          -2.4396887,50.5566504
          -2.4396430,50.5566241
          -2.4396336,50.5566375
          -2.4396408,50.5566419
          -2.4395914,50.5566681
          -2.4396072,50.5566547
          -2.4395809,50.5565872
          -2.4395441,50.5565252
          -2.4395129,50.5564721
          -2.4394653,50.5564536
          -2.4393947,50.5564099
          -2.4393642,50.5563621
          -2.4393332,50.5563069
          -2.4392724,50.5562564
          -2.4392168,50.5562074
          -2.4391725,50.5561711
          -2.4391215,50.5561237
          -2.4390690,50.5560674
          -2.4390026,50.5559999
          -2.4389503,50.5559411
          -2.4388918,50.5558919
          -2.4388182,50.5558357
          -2.4387735,50.5557974
          -2.4387019,50.5557494
          -2.4386324,50.5557072
          -2.4385555,50.5556715
          -2.4384647,50.5556501
          -2.4383721,50.5556442
          -2.4382643,50.5556308
          -2.4381697,50.5556154
          -2.4380687,50.5555994
          -2.4379823,50.5555819
          -2.4378892,50.5555437
          -2.4378138,50.5555164
          -2.4377504,50.5555013
          -2.4377125,50.5554692
          -2.4376839,50.5554404
          -2.4376460,50.5554138
          -2.4376361,50.5553701
          -2.4376115,50.5553087
          -2.4375589,50.5552621
          -2.4375307,50.5552143
          -2.4375828,50.5551720
          -2.4376324,50.5551255
          -2.4376759,50.5550781
          -2.4377299,50.5550181
          -2.4377516,50.5549529
          -2.4377643,50.5548890
          -2.4377799,50.5548301
          -2.4378105,50.5547666
          -2.4378257,50.5547104
          -2.4378303,50.5546457
          -2.4377973,50.5545892
          -2.4377189,50.5545413
          -2.4376509,50.5545079
          -2.4375594,50.5544743
          -2.4374617,50.5544506
          -2.4373823,50.5544421
          -2.4373072,50.5544345
          -2.4372204,50.5544246
          -2.4371235,50.5544259
          -2.4370259,50.5544272
          -2.4369474,50.5544189
          -2.4368697,50.5544090
          -2.4367977,50.5544022
          -2.4367241,50.5543879
          -2.4366360,50.5543708
          -2.4365467,50.5543628
          -2.4364597,50.5543521
          -2.4363810,50.5543421
          -2.4362843,50.5543572
          -2.4361775,50.5543588
          -2.4360745,50.5543567
          -2.4359684,50.5543592
          -2.4358650,50.5543692
          -2.4357666,50.5543696
          -2.4356732,50.5543754
          -2.4355760,50.5543870
          -2.4354812,50.5543996
          -2.4353796,50.5544145
          -2.4352793,50.5544349
          -2.4352030,50.5544606
          -2.4351495,50.5544969
          -2.4351370,50.5545272
          -2.4351178,50.5545815
          -2.4350872,50.5546433
          -2.4350830,50.5547012
          -2.4350895,50.5547682
          -2.4350705,50.5548292
          -2.4350336,50.5548871
          -2.4349991,50.5549518
          -2.4349378,50.5550074
          -2.4348435,50.5550380
          -2.4347337,50.5550412
          -2.4346296,50.5550245
          -2.4345354,50.5550007
          -2.4344403,50.5549858
          -2.4343499,50.5549756
          -2.4342514,50.5549740
          -2.4341545,50.5549626
          -2.4340584,50.5549482
          -2.4339737,50.5549292
          -2.4338772,50.5549381
          -2.4337790,50.5549385
          -2.4336837,50.5549315
          -2.4335784,50.5549289
          -2.4334994,50.5549268
          -2.4334149,50.5549206
          -2.4333229,50.5549316
          -2.4332189,50.5549277
          -2.4331195,50.5549103
          -2.4330223,50.5548783
          -2.4329261,50.5548533
          -2.4328307,50.5548392
          -2.4327347,50.5548223
          -2.4326331,50.5548064
          -2.4325306,50.5548006
          -2.4324348,50.5547902
          -2.4323412,50.5547773
          -2.4322596,50.5547617
          -2.4321991,50.5547155
          -2.4321260,50.5546629
          -2.4320493,50.5546467
          -2.4319949,50.5546216
          -2.4319567,50.5545851
          -2.4319071,50.5545424
          -2.4318701,50.5544854
          -2.4318449,50.5544276
          -2.4317953,50.5543739
          -2.4317360,50.5543207
          -2.4317171,50.5542617
          -2.4316911,50.5541998
          -2.4316538,50.5541354
          -2.4316676,50.5540735
          -2.4316990,50.5540386
          -2.4316617,50.5540284
          -2.4315735,50.5540492
          -2.4315007,50.5540854
          -2.4314291,50.5541319
          -2.4313583,50.5541845
          -2.4312801,50.5542250
          -2.4311982,50.5542642
          -2.4311206,50.5542915
          -2.4310413,50.5543150
          -2.4309573,50.5543319
          -2.4308624,50.5543492
          -2.4307645,50.5543674
          -2.4306707,50.5543845
          -2.4305693,50.5544054
          -2.4304685,50.5544162
          -2.4303753,50.5544299
          -2.4302761,50.5544549
          -2.4301903,50.5544717
          -2.4301013,50.5544942
          -2.4300149,50.5545138
          -2.4299295,50.5545408
          -2.4298530,50.5545659
          -2.4297598,50.5545994
          -2.4296714,50.5546264
          -2.4295695,50.5546480
          -2.4294669,50.5546651
          -2.4293743,50.5546748
          -2.4292754,50.5546899
          -2.4291723,50.5547156
          -2.4290753,50.5547438
          -2.4289783,50.5547632
          -2.4288919,50.5547881
          -2.4287942,50.5548115
          -2.4286863,50.5547954
          -2.4285904,50.5547639
          -2.4284919,50.5547441
          -2.4283992,50.5547053
          -2.4283075,50.5546791
          -2.4282103,50.5546641
          -2.4281050,50.5546416
          -2.4280104,50.5546078
          -2.4279136,50.5545829
          -2.4278151,50.5545585
          -2.4277184,50.5545284
          -2.4276165,50.5544954
          -2.4275080,50.5544750
          -2.4273997,50.5544601
          -2.4272964,50.5544527
          -2.4271799,50.5544425
          -2.4270831,50.5544302
          -2.4269760,50.5544101
          -2.4268714,50.5543995
          -2.4267602,50.5543955
          -2.4266585,50.5543812
          -2.4265594,50.5543610
          -2.4264605,50.5543460
          -2.4263564,50.5543284
          -2.4262459,50.5542981
          -2.4261685,50.5542754
          -2.4260664,50.5542593
          -2.4259710,50.5542261
          -2.4258718,50.5542006
          -2.4257722,50.5541826
          -2.4256770,50.5541591
          -2.4255790,50.5541462
          -2.4254836,50.5541500
          -2.4253785,50.5541609
          -2.4252840,50.5541708
          -2.4251940,50.5541835
          -2.4250947,50.5542011
          -2.4249959,50.5542230
          -2.4249187,50.5542476
          -2.4248362,50.5542738
          -2.4247657,50.5543133
          -2.4246978,50.5543384
          -2.4246497,50.5543582
          -2.4246133,50.5543737
          -2.4246036,50.5543773
          -2.4246036,50.5543773
          -2.4246036,50.5543773
          -2.4246036,50.5543773
          -2.4246036,50.5543773
          -2.4246036,50.5543773
          -2.4246036,50.5543773
          -2.4246036,50.5543773
          -2.4246036,50.5543773
          -2.4246036,50.5543773
          -2.4246036,50.5543773
          -2.4246036,50.5543773
          -2.4246284,50.5543665
          -2.4246827,50.5543292
          -2.4247232,50.5542878
          -2.4247757,50.5542357
          -2.4248624,50.5542049
          -2.4249553,50.5541696
          -2.4250172,50.5541283
          -2.4250408,50.5540692
          -2.4250429,50.5539994
          -2.4250450,50.5539368
          -2.4250509,50.5538733
          -2.4250482,50.5538031
          -2.4250144,50.5537444
          -2.4249397,50.5536917
          -2.4248721,50.5536418
          -2.4247979,50.5535964
          -2.4247183,50.5535468
          -2.4246507,50.5535044
          -2.4245994,50.5534525
          -2.4245483,50.5534008
          -2.4244689,50.5533786
          -2.4243926,50.5533356
          -2.4243334,50.5532730
          -2.4242487,50.5532316
          -2.4241496,50.5532205
          -2.4240363,50.5532195
          -2.4239316,50.5532108
          -2.4238318,50.5531975
          -2.4237276,50.5531936
          -2.4236035,50.5532244
          -2.4235060,50.5532420
          -2.4234039,50.5532466
          -2.4232918,50.5532365
          -2.4232078,50.5531957
          -2.4231405,50.5531433
          -2.4230916,50.5530909
          -2.4230334,50.5530230
          -2.4229735,50.5529685
          -2.4229172,50.5529131
          -2.4228547,50.5528725
          -2.4227771,50.5528156
          -2.4227220,50.5527592
          -2.4226516,50.5526938
          -2.4225892,50.5526362
          -2.4225250,50.5525705
          -2.4224725,50.5525134
          -2.4224092,50.5524646
          -2.4223498,50.5524006
          -2.4222894,50.5523463
          -2.4222321,50.5522863
          -2.4221758,50.5522302
          -2.4221184,50.5521729
          -2.4220538,50.5521167
          -2.4219893,50.5520534
          -2.4219375,50.5519946
          -2.4218790,50.5519385
          -2.4218006,50.5518816
          -2.4217243,50.5518282
          -2.4216582,50.5517728
          -2.4215946,50.5517205
          -2.4215317,50.5516596
          -2.4214706,50.5516043
          -2.4214127,50.5515482
          -2.4213475,50.5514900
          -2.4212895,50.5514393
          -2.4212170,50.5513829
          -2.4211479,50.5513221
          -2.4210841,50.5512675
          -2.4210250,50.5512129
          -2.4209660,50.5511482
          -2.4209164,50.5510895
          -2.4208656,50.5510271
          -2.4208182,50.5509637
          -2.4207756,50.5508979
          -2.4207418,50.5508315
          -2.4207112,50.5507664
          -2.4206784,50.5507067
          -2.4206390,50.5506420
          -2.4206001,50.5505805
          -2.4205549,50.5505215
          -2.4204990,50.5504598
          -2.4204449,50.5503992
          -2.4203900,50.5503377
          -2.4203423,50.5502820
          -2.4202892,50.5502261
          -2.4202398,50.5501665
          -2.4201999,50.5501061
          -2.4201608,50.5500391
          -2.4201225,50.5499755
          -2.4200821,50.5499205
          -2.4200342,50.5498578
          -2.4199905,50.5497938
          -2.4199444,50.5497359
          -2.4199103,50.5496764
          -2.4198702,50.5496099
          -2.4198386,50.5495526
          -2.4198362,50.5494922
          -2.4198451,50.5494366
          -2.4198631,50.5493946
          -2.4199008,50.5493522
          -2.4199544,50.5493168
          -2.4200242,50.5492792
          -2.4200294,50.5492418
          -2.4199964,50.5492061
          -2.4199940,50.5491945
          -2.4199940,50.5491945
          -2.4200240,50.5492093
          -2.4200502,50.5492579
          -2.4200010,50.5493010
          -2.4199548,50.5493635
          -2.4199074,50.5494218
          -2.4198720,50.5494770
          -2.4198865,50.5495345
          -2.4199077,50.5495949
          -2.4199419,50.5496623
          -2.4199802,50.5497292
          -2.4200273,50.5497912
          -2.4200757,50.5498505
          -2.4201287,50.5499256
          -2.4201595,50.5499804
          -2.4202233,50.5500446
          -2.4202755,50.5501089
          -2.4203181,50.5501758
          -2.4203598,50.5502437
          -2.4203981,50.5503120
          -2.4204498,50.5503690
          -2.4205040,50.5504340
          -2.4205422,50.5504902
          -2.4205921,50.5505454
          -2.4206361,50.5506050
          -2.4206762,50.5506734
          -2.4207298,50.5507290
          -2.4207672,50.5507874
          -2.4208042,50.5508516
          -2.4208373,50.5509084
          -2.4208822,50.5509740
          -2.4209153,50.5510309
          -2.4209636,50.5510972
          -2.4210181,50.5511522
          -2.4210702,50.5512022
          -2.4211425,50.5512593
          -2.4212033,50.5513081
          -2.4212655,50.5513627
          -2.4213289,50.5514130
          -2.4213939,50.5514664
          -2.4214494,50.5515217
          -2.4215008,50.5515659
          -2.4215645,50.5516293
          -2.4216265,50.5516900
          -2.4216775,50.5517464
          -2.4217367,50.5518044
          -2.4217881,50.5518572
          -2.4218484,50.5519118
          -2.4219142,50.5519678
          -2.4219777,50.5520173
          -2.4220408,50.5520685
          -2.4220970,50.5521271
          -2.4221569,50.5521830
          -2.4222108,50.5522379
          -2.4222726,50.5522983
          -2.4223332,50.5523511
          -2.4223916,50.5524023
          -2.4224446,50.5524539
          -2.4225142,50.5525063
          -2.4225740,50.5525622
          -2.4226308,50.5526179
          -2.4226841,50.5526792
          -2.4227460,50.5527353
          -2.4228081,50.5527896
          -2.4228661,50.5528466
          -2.4229281,50.5529030
          -2.4229889,50.5529528
          -2.4230431,50.5530137
          -2.4231000,50.5530690
          -2.4231490,50.5531233
          -2.4232127,50.5531797
          -2.4232981,50.5532126
          -2.4233948,50.5532136
          -2.4235121,50.5531866
          -2.4236096,50.5531650
          -2.4237208,50.5531523
          -2.4238239,50.5531502
          -2.4239373,50.5531425
          -2.4240414,50.5531413
          -2.4241453,50.5531523
          -2.4242426,50.5531891
          -2.4243202,50.5532445
          -2.4243744,50.5533036
          -2.4244344,50.5533580
          -2.4245082,50.5533879
          -2.4245383,50.5534017
          -2.4246118,50.5534329
          -2.4246747,50.5534902
          -2.4247423,50.5535461
          -2.4248163,50.5535923
          -2.4248809,50.5536300
          -2.4249515,50.5536758
          -2.4250128,50.5537324
          -2.4250682,50.5537894
          -2.4251310,50.5538454
          -2.4252068,50.5538868
          -2.4252784,50.5539406
          -2.4253458,50.5539892
          -2.4254095,50.5540421
          -2.4254774,50.5540840
          -2.4255668,50.5541178
          -2.4256647,50.5541339
          -2.4257634,50.5541601
          -2.4258643,50.5541821
          -2.4259570,50.5542129
          -2.4260542,50.5542463
          -2.4261453,50.5542712
          -2.4262480,50.5542976
          -2.4263371,50.5543336
          -2.4264410,50.5543586
          -2.4265438,50.5543697
          -2.4266419,50.5543751
          -2.4267485,50.5543811
          -2.4268509,50.5543955
          -2.4269630,50.5544022
          -2.4270647,50.5544063
          -2.4271870,50.5544139
          -2.4272915,50.5544292
          -2.4273837,50.5544479
          -2.4275007,50.5544579
          -2.4275888,50.5544723
          -2.4276975,50.5544901
          -2.4278167,50.5545152
          -2.4279146,50.5545379
          -2.4280220,50.5545670
          -2.4281106,50.5545928
          -2.4281942,50.5546248
          -2.4282906,50.5546545
          -2.4283912,50.5546876
          -2.4284862,50.5547194
          -2.4285813,50.5547472
          -2.4286787,50.5547714
          -2.4287697,50.5547854
          -2.4287957,50.5547922
          -2.4287889,50.5547841
          -2.4288724,50.5547711
          -2.4289585,50.5547520
          -2.4290586,50.5547280
          -2.4291654,50.5547161
          -2.4292620,50.5546984
          -2.4293625,50.5546759
          -2.4294820,50.5546569
          -2.4295862,50.5546405
          -2.4296874,50.5546174
          -2.4297812,50.5545837
          -2.4298772,50.5545463
          -2.4299764,50.5545197
          -2.4300763,50.5544954
          -2.4301820,50.5544676
          -2.4302959,50.5544385
          -2.4303935,50.5544129
          -2.4305111,50.5543958
          -2.4306207,50.5543727
          -2.4307258,50.5543552
          -2.4308244,50.5543413
          -2.4309386,50.5543260
          -2.4310332,50.5543011
          -2.4311284,50.5542727
          -2.4312151,50.5542441
          -2.4313122,50.5542156
          -2.4314055,50.5541919
          -2.4314557,50.5541349
          -2.4315178,50.5540829
          -2.4315885,50.5540473
          -2.4316640,50.5540235
          -2.4317049,50.5540545
          -2.4316671,50.5540994
          -2.4316609,50.5541489
          -2.4316985,50.5542045
          -2.4317158,50.5542601
          -2.4317313,50.5543179
          -2.4317938,50.5543596
          -2.4318450,50.5544178
          -2.4318712,50.5544712
          -2.4319033,50.5545252
          -2.4319557,50.5545733
          -2.4319893,50.5546060
          -2.4320312,50.5546382
          -2.4320944,50.5546519
          -2.4321640,50.5546852
          -2.4322235,50.5547348
          -2.4322813,50.5547694
          -2.4323778,50.5547763
          -2.4324291,50.5547857
          -2.4324434,50.5547928
          -2.4324496,50.5547907
          -2.4325454,50.5547952
          -2.4326389,50.5548024
          -2.4327350,50.5548206
          -2.4328314,50.5548357
          -2.4329221,50.5548423
          -2.4330295,50.5548676
          -2.4331112,50.5548959
          -2.4331864,50.5549137
          -2.4332153,50.5549438
          -2.4332774,50.5549998
          -2.4333340,50.5550548
          -2.4333993,50.5551093
          -2.4334553,50.5551658
          -2.4335089,50.5552305
          -2.4335596,50.5552718
          -2.4336197,50.5553261
          -2.4337025,50.5553728
          -2.4337857,50.5554030
          -2.4338780,50.5554167
          -2.4339648,50.5554187
          -2.4339960,50.5554158
          -2.4339960,50.5554158
          -2.4339960,50.5554158
          -2.4339960,50.5554158
          -2.4340320,50.5554061
          -2.4340370,50.5553767
          -2.4340370,50.5553767
          -2.4340370,50.5553767
          -2.4340370,50.5553767
          -2.4340370,50.5553767
          -2.4340370,50.5553767
          -2.4340370,50.5553767
          -2.4340370,50.5553767
          -2.4340370,50.5553767
          -2.4340639,50.5553205
          -2.4340861,50.5552651
          -2.4340646,50.5552184
          -2.4340566,50.5551933
          -2.4340566,50.5551933
          -2.4340629,50.5551838
          -2.4340950,50.5551734
          -2.4341537,50.5551427
          -2.4341851,50.5550959
          -2.4341969,50.5550410
          -2.4342198,50.5549914
          -2.4342920,50.5549655
          -2.4343815,50.5549743
          -2.4344825,50.5549891
          -2.4345773,50.5550031
          -2.4346688,50.5550214
          -2.4347553,50.5550376
          -2.4348429,50.5550465
          -2.4349202,50.5550211
          -2.4349846,50.5549844
          -2.4350027,50.5549772
          -2.4350723,50.5549612
          -2.4351431,50.5549500
          -2.4351730,50.5549203
          -2.4351575,50.5548663
          -2.4351119,50.5548252
          -2.4350797,50.5547750
          -2.4350751,50.5547098
          -2.4350770,50.5546443
          -2.4351124,50.5545854
          -2.4351262,50.5545351
          -2.4351633,50.5544864
          -2.4352280,50.5544433
          -2.4353268,50.5544143
          -2.4354331,50.5544002
          -2.4355336,50.5543842
          -2.4356428,50.5543820
          -2.4357441,50.5543694
          -2.4358530,50.5543697
          -2.4359622,50.5543552
          -2.4360661,50.5543535
          -2.4361775,50.5543534
          -2.4362826,50.5543453
          -2.4363931,50.5543400
          -2.4364898,50.5543567
          -2.4365870,50.5543675
          -2.4366924,50.5543752
          -2.4367817,50.5543911
          -2.4368663,50.5544030
          -2.4369610,50.5544135
          -2.4370469,50.5544250
          -2.4371530,50.5544300
          -2.4372492,50.5544335
          -2.4373531,50.5544427
          -2.4374631,50.5544535
          -2.4375726,50.5544732
          -2.4376584,50.5545120
          -2.4377368,50.5545530
          -2.4378135,50.5545990
          -2.4378435,50.5546633
          -2.4378418,50.5547281
          -2.4378288,50.5547922
          -2.4377905,50.5548528
          -2.4377725,50.5549115
          -2.4377553,50.5549777
          -2.4377321,50.5550301
          -2.4376864,50.5550863
          -2.4376428,50.5551385
          -2.4376001,50.5551902
          -2.4375643,50.5552307
          -2.4375587,50.5552772
          -2.4376076,50.5553270
          -2.4376327,50.5553766
          -2.4376521,50.5554213
          -2.4376813,50.5554589
          -2.4377302,50.5554827
          -2.4377841,50.5555014
          -2.4378361,50.5555245
          -2.4378949,50.5555545
          -2.4379551,50.5555812
          -2.4380339,50.5555989
          -2.4381141,50.5556211
          -2.4381345,50.5556833
          -2.4381763,50.5557308
          -2.4382154,50.5557850
          -2.4382692,50.5558421
          -2.4383081,50.5558894
          -2.4383217,50.5559307
          -2.4383085,50.5559607
          -2.4383121,50.5560148
          -2.4383080,50.5560623
          -2.4383557,50.5560846
          -2.4384383,50.5560909
          -2.4385306,50.5560723
          -2.4386203,50.5560448
          -2.4387194,50.5560270
          -2.4388104,50.5560201
          -2.4389140,50.5560316
          -2.4389912,50.5560788
          -2.4390728,50.5561240
          -2.4391466,50.5561693
          -2.4392133,50.5562225
          -2.4392792,50.5562783
          -2.4393419,50.5563299
          -2.4394076,50.5563839
          -2.4394707,50.5564337
          -2.4395150,50.5564856
          -2.4395394,50.5565385
          -2.4395678,50.5565680
          -2.4396626,50.5565917
          -2.4397537,50.5565988
          -2.4398511,50.5566004
          -2.4399050,50.5566235
          -2.4399024,50.5566374
          -2.4398905,50.5566351
          -2.4398859,50.5566341
          -2.4398993,50.5566305
          -2.4398992,50.5566383
          -2.4399023,50.5566297
        </coordinates>
      </LineString>
    </Placemark>
  </Document>
</kml>
