<?xml version="1.0" encoding="UTF-8"?>
<kml xmlns="http://www.opengis.net/kml/2.2" xmlns:xsi="http://www.w3.org/2001/XMLSchema-instance" xsi:schemaLocation="http://www.opengis.net/kml/2.2 http://schemas.opengis.net/kml/2.2.0/ogckml22.xsd">
  <Document>
    <name>GPS Wizard</name>
    <open>1</open>
    <Style id="wizard">
      <LineStyle>
        <color>a00000ff</color>
        <width>2</width>
      </LineStyle>
    </Style>
    <Placemark>
      <name>TBC</name>
      <styleUrl>#wizard</styleUrl>
      <LineString>
        <extrude>1</extrude>
        <tessellate>1</tessellate>
        <coordinates>
          -2.4695854,50.5863999
          -2.4695254,50.5865438
          -2.4694963,50.5866233
          -2.4694776,50.5867573
          -2.4694531,50.5868282
          -2.4694033,50.5868948
          -2.4693280,50.5869538
          -2.4692546,50.5870192
          -2.4692288,50.5870995
          -2.4691975,50.5871532
          -2.4691667,50.5872151
          -2.4691167,50.5872856
          -2.4690565,50.5873660
          -2.4689603,50.5874897
          -2.4689166,50.5875512
          -2.4688763,50.5876501
          -2.4688399,50.5877189
          -2.4687903,50.5877901
          -2.4687648,50.5878603
          -2.4687270,50.5879173
          -2.4686834,50.5879884
          -2.4686613,50.5880473
          -2.4686255,50.5881103
          -2.4685966,50.5881760
          -2.4685667,50.5882408
          -2.4685276,50.5883067
          -2.4684913,50.5883781
          -2.4684587,50.5884441
          -2.4684298,50.5885086
          -2.4683789,50.5885660
          -2.4683520,50.5886272
          -2.4683189,50.5887100
          -2.4682822,50.5887809
          -2.4682460,50.5888488
          -2.4682130,50.5889105
          -2.4681836,50.5889724
          -2.4681536,50.5890459
          -2.4681200,50.5891084
          -2.4680903,50.5891762
          -2.4680613,50.5892409
          -2.4680235,50.5893057
          -2.4679932,50.5893704
          -2.4679625,50.5894395
          -2.4679307,50.5895052
          -2.4678977,50.5895736
          -2.4678687,50.5896362
          -2.4678421,50.5897036
          -2.4678092,50.5897692
          -2.4677705,50.5898343
          -2.4677362,50.5898988
          -2.4677164,50.5899661
          -2.4676779,50.5900360
          -2.4676349,50.5900960
          -2.4675960,50.5901631
          -2.4675657,50.5902298
          -2.4675388,50.5902943
          -2.4675080,50.5903622
          -2.4674708,50.5904329
          -2.4674460,50.5904971
          -2.4674078,50.5905674
          -2.4673826,50.5906391
          -2.4673599,50.5907069
          -2.4673310,50.5907742
          -2.4673047,50.5908391
          -2.4672721,50.5909132
          -2.4672380,50.5909826
          -2.4672134,50.5910535
          -2.4671802,50.5911220
          -2.4671534,50.5911896
          -2.4671115,50.5912578
          -2.4670760,50.5913265
          -2.4670482,50.5913953
          -2.4670215,50.5914590
          -2.4669882,50.5915281
          -2.4669582,50.5916031
          -2.4669217,50.5916761
          -2.4668950,50.5917445
          -2.4668668,50.5918093
          -2.4668353,50.5918761
          -2.4667941,50.5919380
          -2.4667477,50.5919973
          -2.4667047,50.5920691
          -2.4666557,50.5921356
          -2.4666110,50.5922016
          -2.4665780,50.5922610
          -2.4665369,50.5923241
          -2.4664880,50.5923972
          -2.4664250,50.5924675
          -2.4663732,50.5925328
          -2.4663183,50.5925997
          -2.4662664,50.5926630
          -2.4662087,50.5927297
          -2.4661649,50.5927996
          -2.4661102,50.5928660
          -2.4660440,50.5929257
          -2.4659838,50.5929850
          -2.4659246,50.5930466
          -2.4658656,50.5931067
          -2.4658014,50.5931659
          -2.4657308,50.5932414
          -2.4656749,50.5933058
          -2.4656046,50.5933602
          -2.4655454,50.5934213
          -2.4654947,50.5934692
          -2.4654175,50.5935415
          -2.4653391,50.5935991
          -2.4652737,50.5936547
          -2.4652072,50.5937189
          -2.4651388,50.5937749
          -2.4650647,50.5938309
          -2.4650126,50.5939000
          -2.4649616,50.5939470
          -2.4648845,50.5940181
          -2.4648379,50.5940673
          -2.4647571,50.5941391
          -2.4646975,50.5941853
          -2.4645915,50.5942432
          -2.4645045,50.5942886
          -2.4644345,50.5943361
          -2.4643737,50.5943807
          -2.4642916,50.5944491
          -2.4642266,50.5944926
          -2.4641487,50.5945449
          -2.4640520,50.5946052
          -2.4639887,50.5946478
          -2.4638862,50.5947176
          -2.4638009,50.5947589
          -2.4637179,50.5948065
          -2.4636620,50.5948499
          -2.4635711,50.5948964
          -2.4634908,50.5949452
          -2.4634135,50.5949952
          -2.4633315,50.5950423
          -2.4632717,50.5950790
          -2.4631798,50.5951450
          -2.4631116,50.5951996
          -2.4630451,50.5952405
          -2.4629633,50.5952857
          -2.4628883,50.5953383
          -2.4628285,50.5953784
          -2.4627333,50.5954369
          -2.4626615,50.5954815
          -2.4626009,50.5955299
          -2.4625221,50.5956007
          -2.4624721,50.5956519
          -2.4624060,50.5957267
          -2.4623403,50.5957810
          -2.4622557,50.5958245
          -2.4621423,50.5958057
          -2.4620456,50.5957741
          -2.4619608,50.5958008
          -2.4618881,50.5958529
          -2.4618192,50.5959007
          -2.4617488,50.5959570
          -2.4616797,50.5960056
          -2.4616120,50.5960576
          -2.4615436,50.5961072
          -2.4614553,50.5961575
          -2.4613778,50.5962126
          -2.4613188,50.5962699
          -2.4612653,50.5963322
          -2.4612129,50.5963942
          -2.4611495,50.5964506
          -2.4611051,50.5964947
          -2.4610436,50.5965740
          -2.4610001,50.5966295
          -2.4609362,50.5966937
          -2.4608904,50.5967597
          -2.4608339,50.5968288
          -2.4608066,50.5968773
          -2.4607448,50.5969511
          -2.4606925,50.5970144
          -2.4606430,50.5970790
          -2.4605962,50.5971438
          -2.4605680,50.5972150
          -2.4605316,50.5972875
          -2.4605043,50.5973522
          -2.4604844,50.5974073
          -2.4604394,50.5974679
          -2.4604194,50.5975272
          -2.4603973,50.5975955
          -2.4603669,50.5976856
          -2.4603495,50.5977513
          -2.4603204,50.5978256
          -2.4603373,50.5978623
          -2.4603389,50.5978757
          -2.4603433,50.5978734
          -2.4603554,50.5978752
          -2.4603548,50.5978750
          -2.4603548,50.5978750
          -2.4603541,50.5978732
          -2.4603413,50.5978578
          -2.4603379,50.5978462
          -2.4603370,50.5978484
          -2.4603359,50.5978517
          -2.4603381,50.5978463
          -2.4603332,50.5978426
          -2.4603242,50.5978424
          -2.4603160,50.5978368
          -2.4603142,50.5978470
          -2.4602867,50.5978742
          -2.4602528,50.5978817
          -2.4602373,50.5978793
          -2.4602373,50.5978751
          -2.4602395,50.5978756
          -2.4602448,50.5978647
          -2.4602573,50.5979148
          -2.4603161,50.5980077
          -2.4603304,50.5980638
          -2.4603040,50.5981549
          -2.4602642,50.5982062
          -2.4602118,50.5982549
          -2.4601537,50.5983485
          -2.4601001,50.5984193
          -2.4600461,50.5984858
          -2.4599856,50.5985588
          -2.4599387,50.5986078
          -2.4598936,50.5986619
          -2.4598502,50.5987138
          -2.4598012,50.5987920
          -2.4597692,50.5988409
          -2.4597295,50.5988976
          -2.4596695,50.5989808
          -2.4596101,50.5990428
          -2.4595590,50.5990985
          -2.4595117,50.5991531
          -2.4594550,50.5992026
          -2.4593966,50.5992535
          -2.4593392,50.5993254
          -2.4592604,50.5993992
          -2.4592128,50.5994645
          -2.4591334,50.5994982
          -2.4590021,50.5994801
          -2.4589027,50.5994618
          -2.4588259,50.5994351
          -2.4587222,50.5993862
          -2.4586464,50.5993698
          -2.4585454,50.5993707
          -2.4584487,50.5993759
          -2.4583199,50.5993847
          -2.4582414,50.5993862
          -2.4581395,50.5993985
          -2.4580424,50.5994059
          -2.4579341,50.5994191
          -2.4578290,50.5994303
          -2.4577314,50.5994514
          -2.4576127,50.5994778
          -2.4575261,50.5994956
          -2.4574282,50.5995231
          -2.4573272,50.5995504
          -2.4572294,50.5995896
          -2.4571402,50.5996268
          -2.4570459,50.5996571
          -2.4569684,50.5996891
          -2.4568749,50.5997426
          -2.4567985,50.5997953
          -2.4567217,50.5998564
          -2.4566372,50.5999016
          -2.4565646,50.5999503
          -2.4564976,50.6000010
          -2.4564318,50.6000513
          -2.4563749,50.6001074
          -2.4563218,50.6001710
          -2.4562881,50.6002343
          -2.4562659,50.6002970
          -2.4562420,50.6003783
          -2.4562159,50.6004460
          -2.4561799,50.6005092
          -2.4561307,50.6005778
          -2.4560345,50.6006309
          -2.4559393,50.6006705
          -2.4558343,50.6007046
          -2.4557366,50.6007356
          -2.4556347,50.6007637
          -2.4555349,50.6007880
          -2.4554392,50.6008139
          -2.4553438,50.6008308
          -2.4552156,50.6008503
          -2.4551203,50.6008740
          -2.4550125,50.6008816
          -2.4549164,50.6008942
          -2.4548311,50.6009269
          -2.4547359,50.6009558
          -2.4546000,50.6009796
          -2.4544844,50.6009992
          -2.4544029,50.6010426
          -2.4542927,50.6010639
          -2.4541996,50.6010806
          -2.4540535,50.6011137
          -2.4539721,50.6011341
          -2.4538302,50.6011679
          -2.4537438,50.6011834
          -2.4536131,50.6012066
          -2.4535342,50.6012573
          -2.4534459,50.6013312
          -2.4534163,50.6013880
          -2.4534214,50.6014824
          -2.4534334,50.6015293
          -2.4534789,50.6015905
          -2.4534986,50.6016595
          -2.4535131,50.6017407
          -2.4535509,50.6018065
          -2.4535188,50.6018789
          -2.4533842,50.6019166
          -2.4532779,50.6019451
          -2.4531769,50.6019768
          -2.4530643,50.6020041
          -2.4529367,50.6020255
          -2.4528608,50.6020369
          -2.4527848,50.6020442
          -2.4527683,50.6020480
          -2.4527210,50.6020508
          -2.4526475,50.6020411
          -2.4525652,50.6020503
          -2.4524935,50.6020726
          -2.4524133,50.6020937
          -2.4523425,50.6021157
          -2.4522823,50.6021387
          -2.4521849,50.6021720
          -2.4521140,50.6021970
          -2.4520083,50.6022380
          -2.4519521,50.6022589
          -2.4519521,50.6022581
          -2.4519517,50.6022591
          -2.4518907,50.6022951
          -2.4517768,50.6023447
          -2.4516941,50.6023857
          -2.4516687,50.6024359
          -2.4516509,50.6024951
          -2.4516423,50.6025733
          -2.4516536,50.6026251
          -2.4516508,50.6026958
          -2.4516441,50.6027782
          -2.4516321,50.6028281
          -2.4516191,50.6029047
          -2.4516077,50.6029700
          -2.4515903,50.6030373
          -2.4515832,50.6030980
          -2.4515829,50.6031729
          -2.4515750,50.6032274
          -2.4515640,50.6033221
          -2.4515666,50.6033720
          -2.4515690,50.6034373
          -2.4515436,50.6035064
          -2.4515312,50.6035531
          -2.4515172,50.6036405
          -2.4515105,50.6037267
          -2.4515232,50.6037721
          -2.4515169,50.6038432
          -2.4514987,50.6039002
          -2.4514660,50.6039798
          -2.4513888,50.6040387
          -2.4513374,50.6040904
          -2.4512701,50.6041566
          -2.4512076,50.6042006
          -2.4511439,50.6042136
          -2.4510776,50.6042467
          -2.4510538,50.6042900
          -2.4510055,50.6043664
          -2.4509766,50.6044326
          -2.4509112,50.6044560
          -2.4508718,50.6044565
          -2.4508308,50.6044427
          -2.4507996,50.6044587
          -2.4507537,50.6045156
          -2.4506952,50.6045501
          -2.4506216,50.6046179
          -2.4505691,50.6046666
          -2.4505259,50.6047077
          -2.4504460,50.6047590
          -2.4503741,50.6047980
          -2.4503180,50.6048262
          -2.4502109,50.6048692
          -2.4501333,50.6048959
          -2.4500672,50.6049277
          -2.4499778,50.6049614
          -2.4499566,50.6049618
          -2.4499565,50.6049618
          -2.4499414,50.6049557
          -2.4499459,50.6049423
          -2.4499836,50.6049235
          -2.4500044,50.6048977
          -2.4499916,50.6048908
          -2.4499769,50.6048904
          -2.4499258,50.6049054
          -2.4499189,50.6049075
          -2.4499275,50.6049105
          -2.4499194,50.6049079
          -2.4499194,50.6049079
          -2.4499194,50.6049079
          -2.4499194,50.6049079
          -2.4499194,50.6049079
          -2.4499194,50.6049079
          -2.4499194,50.6049079
          -2.4499194,50.6049079
          -2.4499194,50.6049079
          -2.4499194,50.6049079
          -2.4499194,50.6049079
          -2.4499194,50.6049079
          -2.4499194,50.6049079
          -2.4499194,50.6049079
          -2.4499194,50.6049079
          -2.4499194,50.6049079
          -2.4499194,50.6049079
          -2.4499194,50.6049079
          -2.4499194,50.6049079
          -2.4499194,50.6049079
          -2.4499194,50.6049079
          -2.4499194,50.6049079
          -2.4499194,50.6049079
          -2.4499194,50.6049079
          -2.4499194,50.6049079
          -2.4499194,50.6049079
          -2.4498994,50.6049130
          -2.4499259,50.6049035
          -2.4499538,50.6048939
          -2.4499900,50.6049120
          -2.4499890,50.6049372
          -2.4499717,50.6049491
          -2.4500049,50.6049415
          -2.4500752,50.6049152
          -2.4501559,50.6048770
          -2.4502266,50.6048485
          -2.4503103,50.6048173
          -2.4503791,50.6047852
          -2.4504496,50.6047504
          -2.4505096,50.6047072
          -2.4505722,50.6046495
          -2.4506218,50.6045948
          -2.4506872,50.6045443
          -2.4507401,50.6044958
          -2.4507718,50.6044423
          -2.4508184,50.6043850
          -2.4508988,50.6043200
          -2.4509738,50.6042722
          -2.4510393,50.6042317
          -2.4511011,50.6041827
          -2.4511299,50.6041320
          -2.4511880,50.6041077
          -2.4512146,50.6041079
          -2.4512117,50.6041041
          -2.4512090,50.6041100
          -2.4511930,50.6041431
          -2.4511595,50.6041604
          -2.4511449,50.6041879
          -2.4512056,50.6041788
          -2.4512522,50.6041392
          -2.4512978,50.6040960
          -2.4513484,50.6040457
          -2.4514093,50.6039960
          -2.4514520,50.6039401
          -2.4514680,50.6038918
          -2.4514779,50.6038413
          -2.4514975,50.6037699
          -2.4514993,50.6037128
          -2.4514923,50.6036563
          -2.4514998,50.6036129
          -2.4515093,50.6035453
          -2.4515091,50.6034915
          -2.4515238,50.6034362
          -2.4515439,50.6033828
          -2.4515576,50.6033264
          -2.4515626,50.6032609
          -2.4515578,50.6032035
          -2.4515769,50.6031484
          -2.4515892,50.6030830
          -2.4515954,50.6030262
          -2.4516065,50.6029636
          -2.4516118,50.6028974
          -2.4516197,50.6028312
          -2.4516316,50.6027830
          -2.4516447,50.6027045
          -2.4516473,50.6026408
          -2.4516538,50.6025743
          -2.4516659,50.6025121
          -2.4516728,50.6024512
          -2.4516876,50.6023825
          -2.4517775,50.6023404
          -2.4518679,50.6023024
          -2.4519528,50.6022689
          -2.4520245,50.6022338
          -2.4521267,50.6021898
          -2.4522180,50.6021466
          -2.4523025,50.6021114
          -2.4523902,50.6020800
          -2.4525064,50.6020595
          -2.4526002,50.6020242
          -2.4527127,50.6020048
          -2.4527886,50.6019993
          -2.4529247,50.6019828
          -2.4530323,50.6019603
          -2.4531334,50.6019480
          -2.4532457,50.6019243
          -2.4533635,50.6019015
          -2.4534610,50.6018774
          -2.4535367,50.6018433
          -2.4535307,50.6017685
          -2.4535112,50.6017113
          -2.4535044,50.6016437
          -2.4534971,50.6015850
          -2.4534499,50.6015191
          -2.4534191,50.6014572
          -2.4534094,50.6013899
          -2.4534476,50.6013207
          -2.4534455,50.6012705
          -2.4534776,50.6012534
          -2.4535199,50.6012311
          -2.4534676,50.6012665
          -2.4534451,50.6012671
          -2.4534611,50.6012587
          -2.4535371,50.6012226
          -2.4536255,50.6011874
          -2.4537235,50.6011661
          -2.4538214,50.6011457
          -2.4539195,50.6011201
          -2.4540187,50.6010999
          -2.4541171,50.6010725
          -2.4542180,50.6010486
          -2.4543227,50.6010242
          -2.4544308,50.6009929
          -2.4545367,50.6009662
          -2.4546475,50.6009435
          -2.4547470,50.6009119
          -2.4548492,50.6008929
          -2.4549526,50.6008739
          -2.4550464,50.6008630
          -2.4551448,50.6008458
          -2.4552341,50.6008284
          -2.4553196,50.6008043
          -2.4554448,50.6007722
          -2.4555394,50.6007521
          -2.4556726,50.6007265
          -2.4557828,50.6007008
          -2.4558626,50.6006766
          -2.4559568,50.6006208
          -2.4560284,50.6005725
          -2.4560950,50.6005318
          -2.4561535,50.6004696
          -2.4561784,50.6004013
          -2.4562067,50.6003304
          -2.4562377,50.6002590
          -2.4562771,50.6001902
          -2.4563228,50.6001204
          -2.4563838,50.6000546
          -2.4564472,50.6000021
          -2.4565125,50.5999419
          -2.4565854,50.5998863
          -2.4566655,50.5998360
          -2.4567419,50.5997944
          -2.4568231,50.5997488
          -2.4569156,50.5996887
          -2.4569958,50.5996468
          -2.4570874,50.5996073
          -2.4571769,50.5995770
          -2.4572773,50.5995340
          -2.4573740,50.5995063
          -2.4574745,50.5994914
          -2.4575781,50.5994729
          -2.4576843,50.5994537
          -2.4577787,50.5994421
          -2.4578812,50.5994093
          -2.4579776,50.5993793
          -2.4580840,50.5993614
          -2.4581953,50.5993468
          -2.4583031,50.5993380
          -2.4584181,50.5993308
          -2.4585311,50.5993272
          -2.4586279,50.5993420
          -2.4587367,50.5993761
          -2.4588288,50.5994007
          -2.4589362,50.5994377
          -2.4590240,50.5994547
          -2.4591276,50.5994560
          -2.4592173,50.5994238
          -2.4592748,50.5993655
          -2.4593395,50.5993132
          -2.4593827,50.5992631
          -2.4594227,50.5991931
          -2.4594770,50.5991375
          -2.4595214,50.5990766
          -2.4595774,50.5990097
          -2.4596413,50.5989552
          -2.4596959,50.5989074
          -2.4597475,50.5988443
          -2.4597899,50.5987740
          -2.4598334,50.5987081
          -2.4598800,50.5986407
          -2.4599385,50.5985731
          -2.4599890,50.5985107
          -2.4600471,50.5984565
          -2.4601074,50.5983922
          -2.4601567,50.5983233
          -2.4602090,50.5982487
          -2.4602638,50.5981943
          -2.4602913,50.5981401
          -2.4603092,50.5980736
          -2.4603350,50.5979989
          -2.4603514,50.5979431
          -2.4603671,50.5979042
          -2.4603534,50.5978555
          -2.4603240,50.5977813
          -2.4603408,50.5977295
          -2.4603653,50.5976705
          -2.4603659,50.5976228
          -2.4603998,50.5975489
          -2.4604259,50.5974831
          -2.4604425,50.5974208
          -2.4604513,50.5973555
          -2.4604614,50.5972976
          -2.4604897,50.5972465
          -2.4605149,50.5971921
          -2.4605389,50.5971474
          -2.4605882,50.5970767
          -2.4606244,50.5970225
          -2.4606777,50.5969804
          -2.4607536,50.5969303
          -2.4608131,50.5968762
          -2.4608733,50.5968259
          -2.4609233,50.5967609
          -2.4609595,50.5966994
          -2.4609999,50.5966548
          -2.4610591,50.5965926
          -2.4611027,50.5965328
          -2.4611504,50.5964719
          -2.4611994,50.5964130
          -2.4612569,50.5963610
          -2.4613088,50.5963051
          -2.4613677,50.5962434
          -2.4614195,50.5961886
          -2.4614966,50.5961378
          -2.4615737,50.5960963
          -2.4616449,50.5960384
          -2.4617173,50.5959835
          -2.4617836,50.5959291
          -2.4618562,50.5958731
          -2.4619226,50.5958156
          -2.4619847,50.5957641
          -2.4620282,50.5957390
          -2.4620985,50.5957526
          -2.4622065,50.5957926
          -2.4622763,50.5957959
          -2.4623337,50.5957327
          -2.4623927,50.5956779
          -2.4624691,50.5956374
          -2.4625116,50.5955894
          -2.4625791,50.5955241
          -2.4626558,50.5954656
          -2.4627236,50.5954058
          -2.4627907,50.5953572
          -2.4628653,50.5953059
          -2.4629445,50.5952520
          -2.4630123,50.5952040
          -2.4631020,50.5951510
          -2.4631779,50.5951043
          -2.4632563,50.5950560
          -2.4633464,50.5950131
          -2.4634107,50.5949524
          -2.4634807,50.5949045
          -2.4635634,50.5948567
          -2.4636443,50.5948096
          -2.4637206,50.5947554
          -2.4638068,50.5947080
          -2.4638847,50.5946566
          -2.4639666,50.5946091
          -2.4640557,50.5945603
          -2.4641326,50.5945124
          -2.4642188,50.5944609
          -2.4642960,50.5944032
          -2.4643608,50.5943466
          -2.4644327,50.5942967
          -2.4645140,50.5942476
          -2.4645944,50.5941990
          -2.4646701,50.5941450
          -2.4647407,50.5940968
          -2.4648055,50.5940408
          -2.4648629,50.5939808
          -2.4649309,50.5939274
          -2.4650010,50.5938714
          -2.4650704,50.5938171
          -2.4651371,50.5937591
          -2.4651980,50.5937030
          -2.4652612,50.5936460
          -2.4653204,50.5935873
          -2.4653833,50.5935270
          -2.4654366,50.5934652
          -2.4654960,50.5934079
          -2.4655647,50.5933567
          -2.4656242,50.5932959
          -2.4656850,50.5932340
          -2.4657558,50.5931729
          -2.4658159,50.5931136
          -2.4658802,50.5930551
          -2.4659426,50.5929955
          -2.4660057,50.5929343
          -2.4660640,50.5928752
          -2.4661257,50.5928059
          -2.4661883,50.5927384
          -2.4662338,50.5926746
          -2.4662840,50.5926123
          -2.4663285,50.5925462
          -2.4663783,50.5924795
          -2.4664260,50.5924131
          -2.4664708,50.5923437
          -2.4665196,50.5922856
          -2.4665697,50.5922209
          -2.4666141,50.5921532
          -2.4666523,50.5920916
          -2.4666955,50.5920284
          -2.4667463,50.5919599
          -2.4667920,50.5918955
          -2.4668337,50.5918279
          -2.4668653,50.5917621
          -2.4668952,50.5916917
          -2.4669220,50.5916249
          -2.4669527,50.5915526
          -2.4669891,50.5914884
          -2.4670178,50.5914218
          -2.4670511,50.5913529
          -2.4670776,50.5912847
          -2.4671100,50.5912153
          -2.4671484,50.5911519
          -2.4671801,50.5910847
          -2.4672088,50.5910130
          -2.4672424,50.5909422
          -2.4672772,50.5908747
          -2.4672998,50.5908049
          -2.4673198,50.5907303
          -2.4673427,50.5906557
          -2.4673716,50.5905800
          -2.4674005,50.5905134
          -2.4674380,50.5904520
          -2.4674740,50.5903836
          -2.4675118,50.5903163
          -2.4675443,50.5902494
          -2.4675782,50.5901837
          -2.4676107,50.5901164
          -2.4676457,50.5900470
          -2.4676814,50.5899811
          -2.4677183,50.5899120
          -2.4677529,50.5898463
          -2.4677821,50.5897777
          -2.4678174,50.5897051
          -2.4678438,50.5896336
          -2.4678823,50.5895647
          -2.4679190,50.5894990
          -2.4679513,50.5894321
          -2.4679837,50.5893648
          -2.4680167,50.5893000
          -2.4680431,50.5892304
          -2.4680829,50.5891550
          -2.4681143,50.5890843
          -2.4681464,50.5890138
          -2.4681795,50.5889498
          -2.4682101,50.5889006
          -2.4682483,50.5888372
          -2.4682826,50.5887700
          -2.4683085,50.5887015
          -2.4683401,50.5886347
          -2.4683728,50.5885721
          -2.4684085,50.5885077
          -2.4684522,50.5884396
          -2.4684850,50.5883807
          -2.4685194,50.5883111
          -2.4685568,50.5882463
          -2.4685941,50.5881759
          -2.4686256,50.5881055
          -2.4686517,50.5880372
          -2.4686829,50.5879714
          -2.4687219,50.5879025
          -2.4687593,50.5878337
          -2.4687882,50.5877693
          -2.4688215,50.5877004
          -2.4688605,50.5876364
          -2.4688946,50.5875722
          -2.4689198,50.5875115
          -2.4689498,50.5874451
          -2.4689837,50.5873822
          -2.4690119,50.5873176
          -2.4690361,50.5872471
          -2.4690732,50.5871797
          -2.4691234,50.5871174
          -2.4691881,50.5870633
          -2.4692669,50.5870113
          -2.4693301,50.5869488
          -2.4693600,50.5868990
          -2.4693917,50.5868216
          -2.4694471,50.5867536
          -2.4694945,50.5866843
          -2.4695247,50.5866107
          -2.4695503,50.5865389
          -2.4695924,50.5864634
          -2.4696445,50.5863989
          -2.4696926,50.5863339
          -2.4697318,50.5862682
          -2.4697526,50.5861986
          -2.4697828,50.5861279
          -2.4698549,50.5861083
          -2.4699418,50.5860849
          -2.4699858,50.5860238
          -2.4700869,50.5859916
          -2.4701865,50.5859666
          -2.4702059,50.5859174
        </coordinates>
      </LineString>
    </Placemark>
  </Document>
</kml>
