<?xml version="1.0" encoding="UTF-8"?>
<kml xmlns="http://www.opengis.net/kml/2.2" xmlns:xsi="http://www.w3.org/2001/XMLSchema-instance" xsi:schemaLocation="http://www.opengis.net/kml/2.2 http://schemas.opengis.net/kml/2.2.0/ogckml22.xsd">
  <Document>
    <name>GPS Wizard</name>
    <open>1</open>
    <Style id="wizard">
      <LineStyle>
        <color>a00000ff</color>
        <width>2</width>
      </LineStyle>
    </Style>
    <Placemark>
      <name>TBC</name>
      <styleUrl>#wizard</styleUrl>
      <LineString>
        <extrude>1</extrude>
        <tessellate>1</tessellate>
        <coordinates>
          -2.4700898,50.5860273
          -2.4700103,50.5861138
          -2.4699609,50.5861721
          -2.4698902,50.5861924
          -2.4698035,50.5861327
          -2.4698009,50.5860744
          -2.4698314,50.5860266
          -2.4698530,50.5859645
          -2.4698822,50.5859036
          -2.4699168,50.5859123
          -2.4699605,50.5858019
          -2.4699544,50.5857807
          -2.4699553,50.5857155
          -2.4699791,50.5856558
          -2.4700219,50.5856077
          -2.4700513,50.5855483
          -2.4700529,50.5854928
          -2.4700648,50.5854430
          -2.4701087,50.5853777
          -2.4701966,50.5853611
          -2.4702664,50.5853527
          -2.4703251,50.5853690
          -2.4704453,50.5853663
          -2.4705430,50.5853551
          -2.4706582,50.5853534
          -2.4707625,50.5853493
          -2.4708693,50.5853435
          -2.4709815,50.5853352
          -2.4710809,50.5853266
          -2.4712009,50.5853218
          -2.4713099,50.5853129
          -2.4714047,50.5853015
          -2.4715167,50.5852929
          -2.4716133,50.5852910
          -2.4717150,50.5852850
          -2.4718238,50.5852797
          -2.4719424,50.5852668
          -2.4720691,50.5852468
          -2.4721563,50.5852856
          -2.4721643,50.5853648
          -2.4722299,50.5854156
          -2.4723325,50.5854212
          -2.4724301,50.5853996
          -2.4725354,50.5853801
          -2.4726481,50.5853761
          -2.4727629,50.5853504
          -2.4728467,50.5852998
          -2.4729185,50.5852627
          -2.4729872,50.5852119
          -2.4730543,50.5851669
          -2.4731404,50.5851301
          -2.4732270,50.5851568
          -2.4733239,50.5851891
          -2.4734132,50.5852179
          -2.4735201,50.5852377
          -2.4736195,50.5852666
          -2.4737150,50.5852996
          -2.4738140,50.5853333
          -2.4738983,50.5853635
          -2.4739897,50.5853974
          -2.4740874,50.5854195
          -2.4741792,50.5854393
          -2.4742785,50.5854647
          -2.4743678,50.5854956
          -2.4744644,50.5855242
          -2.4745647,50.5855434
          -2.4746665,50.5855672
          -2.4747434,50.5855903
          -2.4748347,50.5856140
          -2.4749321,50.5856423
          -2.4750318,50.5856654
          -2.4751319,50.5856791
          -2.4752237,50.5856792
          -2.4752959,50.5857097
          -2.4753839,50.5857263
          -2.4754158,50.5857527
          -2.4754408,50.5857735
          -2.4754394,50.5857791
          -2.4754293,50.5858045
          -2.4754358,50.5858412
          -2.4755068,50.5858893
          -2.4755982,50.5859033
          -2.4757024,50.5859052
          -2.4758070,50.5859071
          -2.4759125,50.5859081
          -2.4760255,50.5858967
          -2.4761253,50.5858757
          -2.4762245,50.5858723
          -2.4763084,50.5858698
          -2.4763739,50.5858569
          -2.4764761,50.5858517
          -2.4765706,50.5858474
          -2.4766687,50.5858651
          -2.4767350,50.5858739
          -2.4767417,50.5858736
          -2.4768091,50.5858738
          -2.4769001,50.5858915
          -2.4769666,50.5859231
          -2.4769817,50.5859594
          -2.4770261,50.5860032
          -2.4770889,50.5860434
          -2.4771063,50.5860739
          -2.4771069,50.5860915
          -2.4771439,50.5861418
          -2.4772110,50.5861974
          -2.4772695,50.5862509
          -2.4773265,50.5863127
          -2.4773899,50.5863603
          -2.4774510,50.5863951
          -2.4775135,50.5864380
          -2.4775643,50.5864849
          -2.4776039,50.5865286
          -2.4776265,50.5865525
          -2.4777104,50.5866000
          -2.4778083,50.5866411
          -2.4778911,50.5866908
          -2.4778932,50.5867588
          -2.4779339,50.5868147
          -2.4780054,50.5868667
          -2.4780744,50.5869276
          -2.4781329,50.5869842
          -2.4781701,50.5870213
          -2.4782400,50.5870594
          -2.4783109,50.5871047
          -2.4783782,50.5871582
          -2.4784486,50.5872040
          -2.4785310,50.5872511
          -2.4786035,50.5873069
          -2.4786772,50.5873627
          -2.4787612,50.5874132
          -2.4788380,50.5874652
          -2.4789065,50.5875160
          -2.4789827,50.5875708
          -2.4790619,50.5876213
          -2.4791360,50.5876696
          -2.4792180,50.5877210
          -2.4792950,50.5877795
          -2.4793331,50.5878335
          -2.4793828,50.5878933
          -2.4794404,50.5879527
          -2.4795141,50.5880119
          -2.4795853,50.5880662
          -2.4796680,50.5881087
          -2.4797602,50.5881352
          -2.4798416,50.5881771
          -2.4799154,50.5882343
          -2.4799923,50.5882828
          -2.4800592,50.5883378
          -2.4801252,50.5883920
          -2.4802036,50.5884424
          -2.4802786,50.5884831
          -2.4803600,50.5885396
          -2.4804356,50.5885965
          -2.4805117,50.5886458
          -2.4805924,50.5886898
          -2.4806713,50.5887206
          -2.4807545,50.5887468
          -2.4807797,50.5887602
          -2.4808333,50.5887836
          -2.4809247,50.5888196
          -2.4810204,50.5888537
          -2.4811159,50.5888870
          -2.4812108,50.5889030
          -2.4813050,50.5889181
          -2.4814078,50.5889451
          -2.4814948,50.5889629
          -2.4815841,50.5889621
          -2.4816850,50.5889399
          -2.4817689,50.5889156
          -2.4818797,50.5889012
          -2.4819814,50.5888906
          -2.4820868,50.5888785
          -2.4821963,50.5888909
          -2.4822813,50.5889192
          -2.4823709,50.5889483
          -2.4824711,50.5889747
          -2.4825647,50.5890025
          -2.4826627,50.5890235
          -2.4827602,50.5890378
          -2.4828599,50.5890495
          -2.4829575,50.5890647
          -2.4830620,50.5890802
          -2.4831639,50.5890972
          -2.4832728,50.5891161
          -2.4833609,50.5891330
          -2.4834551,50.5891488
          -2.4835290,50.5891811
          -2.4835912,50.5892333
          -2.4836063,50.5892975
          -2.4836153,50.5893589
          -2.4836430,50.5894192
          -2.4836721,50.5894851
          -2.4836887,50.5895346
          -2.4837141,50.5896047
          -2.4837360,50.5896690
          -2.4837750,50.5897367
          -2.4838080,50.5897973
          -2.4838349,50.5898543
          -2.4838512,50.5899186
          -2.4838599,50.5899849
          -2.4838653,50.5900530
          -2.4838738,50.5901209
          -2.4838799,50.5901800
          -2.4838905,50.5902373
          -2.4838337,50.5902951
          -2.4837765,50.5903536
          -2.4837432,50.5904090
          -2.4837353,50.5904620
          -2.4837199,50.5905204
          -2.4836921,50.5905737
          -2.4836542,50.5906297
          -2.4836284,50.5906894
          -2.4835934,50.5907487
          -2.4835722,50.5907944
          -2.4835904,50.5908371
          -2.4836246,50.5908732
          -2.4836530,50.5908963
          -2.4836868,50.5909317
          -2.4837209,50.5909754
          -2.4837601,50.5910328
          -2.4837701,50.5910625
          -2.4837883,50.5911016
          -2.4838313,50.5911395
          -2.4838794,50.5911647
          -2.4839335,50.5911680
          -2.4839740,50.5911693
          -2.4840274,50.5911778
          -2.4840824,50.5912093
          -2.4841270,50.5912581
          -2.4841723,50.5913006
          -2.4842466,50.5913428
          -2.4843188,50.5913843
          -2.4843892,50.5914181
          -2.4844607,50.5914403
          -2.4845340,50.5914667
          -2.4846030,50.5915047
          -2.4846633,50.5915456
          -2.4847268,50.5915892
          -2.4847854,50.5916326
          -2.4848645,50.5916685
          -2.4849439,50.5916933
          -2.4850216,50.5917064
          -2.4851109,50.5917029
          -2.4851973,50.5917052
          -2.4852496,50.5917539
          -2.4853296,50.5917919
          -2.4854106,50.5918046
          -2.4854930,50.5918094
          -2.4855664,50.5918129
          -2.4856506,50.5918161
          -2.4857374,50.5918191
          -2.4858275,50.5918160
          -2.4859137,50.5918121
          -2.4859607,50.5918285
          -2.4859910,50.5918412
          -2.4860371,50.5918520
          -2.4860622,50.5918049
          -2.4860892,50.5917412
          -2.4861291,50.5916876
          -2.4861771,50.5916310
          -2.4862283,50.5915795
          -2.4862858,50.5915257
          -2.4863493,50.5914796
          -2.4864140,50.5914389
          -2.4864881,50.5913933
          -2.4865716,50.5913573
          -2.4866578,50.5913346
          -2.4867519,50.5913113
          -2.4868427,50.5912991
          -2.4869320,50.5912900
          -2.4869427,50.5912969
          -2.4870002,50.5912902
          -2.4870867,50.5912842
          -2.4871738,50.5912788
          -2.4872754,50.5912682
          -2.4873683,50.5912649
          -2.4874654,50.5912638
          -2.4875713,50.5912480
          -2.4876778,50.5912515
          -2.4877820,50.5912642
          -2.4878781,50.5912793
          -2.4879769,50.5912964
          -2.4880608,50.5913156
          -2.4881606,50.5913418
          -2.4882500,50.5913707
          -2.4883322,50.5914003
          -2.4884086,50.5914388
          -2.4884911,50.5914751
          -2.4885690,50.5915105
          -2.4886468,50.5915520
          -2.4887307,50.5915944
          -2.4887972,50.5916230
          -2.4888873,50.5916517
          -2.4889756,50.5916933
          -2.4890607,50.5917282
          -2.4891356,50.5917583
          -2.4892227,50.5917889
          -2.4893087,50.5918138
          -2.4894062,50.5918436
          -2.4894823,50.5918724
          -2.4895671,50.5919047
          -2.4896469,50.5919400
          -2.4897215,50.5919775
          -2.4897920,50.5920103
          -2.4898764,50.5920466
          -2.4899282,50.5920759
          -2.4899343,50.5920821
          -2.4900093,50.5921140
          -2.4900891,50.5921574
          -2.4901621,50.5921932
          -2.4902308,50.5922196
          -2.4903070,50.5922545
          -2.4903919,50.5922931
          -2.4904681,50.5923310
          -2.4905442,50.5923837
          -2.4906255,50.5924204
          -2.4906916,50.5924694
          -2.4907659,50.5925254
          -2.4908330,50.5925702
          -2.4908954,50.5926159
          -2.4909570,50.5926728
          -2.4910134,50.5927254
          -2.4910756,50.5927790
          -2.4911255,50.5928312
          -2.4911868,50.5928922
          -2.4912382,50.5929472
          -2.4912875,50.5930047
          -2.4913418,50.5930583
          -2.4914115,50.5931207
          -2.4914687,50.5931674
          -2.4915327,50.5932251
          -2.4915941,50.5932804
          -2.4916322,50.5933405
          -2.4916739,50.5933988
          -2.4917261,50.5934638
          -2.4917746,50.5935251
          -2.4918189,50.5935810
          -2.4918407,50.5936408
          -2.4918697,50.5937006
          -2.4918992,50.5937694
          -2.4919255,50.5938284
          -2.4919525,50.5938842
          -2.4919793,50.5939422
          -2.4920142,50.5939878
          -2.4920381,50.5939911
          -2.4920854,50.5940258
          -2.4921336,50.5940559
          -2.4921985,50.5940802
          -2.4922760,50.5940804
          -2.4923324,50.5940455
          -2.4924179,50.5940239
          -2.4925022,50.5940094
          -2.4925977,50.5939923
          -2.4926822,50.5939888
          -2.4927685,50.5939810
          -2.4928347,50.5939679
          -2.4928824,50.5939629
          -2.4928779,50.5939659
          -2.4928755,50.5939658
          -2.4928779,50.5939664
          -2.4928755,50.5939658
          -2.4928056,50.5939714
          -2.4927368,50.5940009
          -2.4926602,50.5940149
          -2.4925765,50.5940191
          -2.4924900,50.5940283
          -2.4924249,50.5940287
          -2.4923514,50.5940577
          -2.4923064,50.5940901
          -2.4922447,50.5941248
          -2.4921618,50.5941010
          -2.4920716,50.5940553
          -2.4920142,50.5940069
          -2.4919666,50.5939409
          -2.4919303,50.5938828
          -2.4919011,50.5938242
          -2.4918775,50.5937663
          -2.4918546,50.5937089
          -2.4918205,50.5936557
          -2.4917713,50.5936027
          -2.4917377,50.5935457
          -2.4916991,50.5934816
          -2.4916612,50.5934234
          -2.4916222,50.5933639
          -2.4915781,50.5933004
          -2.4915277,50.5932459
          -2.4914820,50.5931907
          -2.4914387,50.5931322
          -2.4913864,50.5930811
          -2.4913240,50.5930306
          -2.4912709,50.5929800
          -2.4912171,50.5929287
          -2.4911642,50.5928674
          -2.4911103,50.5928187
          -2.4910608,50.5927640
          -2.4909959,50.5927077
          -2.4909342,50.5926616
          -2.4908703,50.5926086
          -2.4908052,50.5925575
          -2.4907310,50.5925051
          -2.4906651,50.5924638
          -2.4905955,50.5924133
          -2.4905228,50.5923664
          -2.4904509,50.5923301
          -2.4903701,50.5922817
          -2.4902887,50.5922524
          -2.4902016,50.5922097
          -2.4901214,50.5921723
          -2.4900377,50.5921384
          -2.4899502,50.5921008
          -2.4898732,50.5920543
          -2.4897997,50.5920204
          -2.4897302,50.5919828
          -2.4896516,50.5919452
          -2.4895470,50.5919127
          -2.4894462,50.5918785
          -2.4893615,50.5918472
          -2.4892726,50.5918089
          -2.4891802,50.5917682
          -2.4890935,50.5917368
          -2.4890155,50.5916958
          -2.4889280,50.5916647
          -2.4888459,50.5916328
          -2.4887517,50.5915986
          -2.4886672,50.5915601
          -2.4885857,50.5915172
          -2.4884957,50.5914789
          -2.4884119,50.5914446
          -2.4883347,50.5914190
          -2.4882415,50.5913770
          -2.4881458,50.5913452
          -2.4880457,50.5913273
          -2.4879506,50.5913050
          -2.4878462,50.5912883
          -2.4877510,50.5912734
          -2.4876437,50.5912676
          -2.4875355,50.5912668
          -2.4874351,50.5912674
          -2.4873318,50.5912728
          -2.4872294,50.5912813
          -2.4871295,50.5912909
          -2.4870196,50.5913075
          -2.4869170,50.5913247
          -2.4868197,50.5913417
          -2.4867238,50.5913621
          -2.4866259,50.5913901
          -2.4865429,50.5914218
          -2.4864448,50.5914607
          -2.4863582,50.5914949
          -2.4862830,50.5915391
          -2.4862255,50.5915845
          -2.4861741,50.5916503
          -2.4861181,50.5917045
          -2.4860747,50.5917645
          -2.4860361,50.5918202
          -2.4860185,50.5918497
          -2.4859882,50.5918574
          -2.4859511,50.5918487
          -2.4858805,50.5918258
          -2.4857787,50.5918223
          -2.4856794,50.5918311
          -2.4855804,50.5918361
          -2.4854797,50.5918298
          -2.4853803,50.5918180
          -2.4852865,50.5918088
          -2.4851854,50.5917872
          -2.4850948,50.5917599
          -2.4850055,50.5917320
          -2.4849144,50.5916969
          -2.4848382,50.5916571
          -2.4847530,50.5916245
          -2.4846631,50.5915890
          -2.4845846,50.5915554
          -2.4845057,50.5915147
          -2.4844337,50.5914784
          -2.4843674,50.5914414
          -2.4843004,50.5913964
          -2.4842440,50.5913565
          -2.4841786,50.5913089
          -2.4841272,50.5912592
          -2.4840610,50.5912159
          -2.4839773,50.5911773
          -2.4839106,50.5911763
          -2.4838429,50.5911716
          -2.4838053,50.5911225
          -2.4837998,50.5911146
          -2.4837996,50.5911131
          -2.4837889,50.5910953
          -2.4837608,50.5910515
          -2.4837305,50.5910226
          -2.4837056,50.5909837
          -2.4836686,50.5909380
          -2.4836378,50.5908991
          -2.4836070,50.5908582
          -2.4835738,50.5908171
          -2.4835744,50.5907788
          -2.4835953,50.5907318
          -2.4836236,50.5906792
          -2.4836471,50.5906290
          -2.4836753,50.5905773
          -2.4836972,50.5905272
          -2.4837211,50.5904683
          -2.4837366,50.5904171
          -2.4837548,50.5903650
          -2.4837976,50.5903088
          -2.4838528,50.5902703
          -2.4838792,50.5902226
          -2.4838695,50.5901724
          -2.4838652,50.5901014
          -2.4838720,50.5900376
          -2.4838535,50.5899797
          -2.4838468,50.5899215
          -2.4838214,50.5898554
          -2.4837888,50.5897939
          -2.4837644,50.5897362
          -2.4837397,50.5896777
          -2.4837157,50.5896134
          -2.4836931,50.5895471
          -2.4836734,50.5894833
          -2.4836608,50.5894254
          -2.4836302,50.5893782
          -2.4836069,50.5893137
          -2.4835833,50.5892486
          -2.4835353,50.5892051
          -2.4834857,50.5891648
          -2.4834613,50.5891336
          -2.4834607,50.5891334
          -2.4834607,50.5891334
          -2.4834607,50.5891334
          -2.4834607,50.5891334
          -2.4834607,50.5891334
          -2.4834607,50.5891334
          -2.4834154,50.5891405
          -2.4833217,50.5891304
          -2.4832185,50.5891185
          -2.4831195,50.5890965
          -2.4830220,50.5890820
          -2.4829212,50.5890721
          -2.4828247,50.5890561
          -2.4827221,50.5890432
          -2.4826268,50.5890261
          -2.4825266,50.5890144
          -2.4824347,50.5889835
          -2.4823450,50.5889532
          -2.4822612,50.5889227
          -2.4821759,50.5888981
          -2.4820686,50.5888901
          -2.4819725,50.5888996
          -2.4819547,50.5888988
          -2.4819547,50.5888991
          -2.4819547,50.5888991
          -2.4819192,50.5889052
          -2.4818226,50.5889141
          -2.4817327,50.5889325
          -2.4816471,50.5889545
          -2.4815576,50.5889684
          -2.4814702,50.5889667
          -2.4813727,50.5889522
          -2.4812741,50.5889316
          -2.4812239,50.5889163
          -2.4812168,50.5889167
          -2.4811295,50.5889002
          -2.4810416,50.5888717
          -2.4809483,50.5888405
          -2.4808750,50.5888090
          -2.4807812,50.5887691
          -2.4806962,50.5887328
          -2.4806164,50.5887101
          -2.4805278,50.5886748
          -2.4804489,50.5886292
          -2.4803755,50.5885774
          -2.4803186,50.5885311
          -2.4802575,50.5884806
          -2.4801856,50.5884357
          -2.4801238,50.5883899
          -2.4800580,50.5883436
          -2.4799963,50.5883060
          -2.4799377,50.5882621
          -2.4798793,50.5882148
          -2.4798148,50.5881689
          -2.4797382,50.5881427
          -2.4796573,50.5881143
          -2.4795891,50.5880814
          -2.4795304,50.5880366
          -2.4794679,50.5879888
          -2.4794104,50.5879393
          -2.4793660,50.5878890
          -2.4793322,50.5878391
          -2.4792899,50.5877802
          -2.4792224,50.5877308
          -2.4791489,50.5876861
          -2.4790769,50.5876435
          -2.4790124,50.5875937
          -2.4789455,50.5875503
          -2.4788964,50.5875102
          -2.4788348,50.5874621
          -2.4787550,50.5874189
          -2.4786901,50.5873741
          -2.4786288,50.5873248
          -2.4785574,50.5872795
          -2.4784920,50.5872343
          -2.4784095,50.5871833
          -2.4783445,50.5871331
          -2.4782787,50.5870882
          -2.4782087,50.5870490
          -2.4781440,50.5869926
          -2.4780802,50.5869366
          -2.4780224,50.5868869
          -2.4779611,50.5868380
          -2.4779053,50.5867861
          -2.4778959,50.5867243
          -2.4778495,50.5866682
          -2.4777670,50.5866354
          -2.4776918,50.5865936
          -2.4776318,50.5865458
          -2.4775876,50.5865072
          -2.4775435,50.5864533
          -2.4774835,50.5864063
          -2.4774152,50.5863715
          -2.4773450,50.5863402
          -2.4772900,50.5862754
          -2.4772302,50.5862205
          -2.4771782,50.5861778
          -2.4771189,50.5861313
          -2.4771100,50.5860912
          -2.4771007,50.5860583
          -2.4770459,50.5860175
          -2.4769887,50.5859813
          -2.4769688,50.5859502
          -2.4769646,50.5859560
          -2.4769642,50.5859557
          -2.4769182,50.5859164
          -2.4768609,50.5858967
          -2.4767972,50.5858827
          -2.4767937,50.5858833
          -2.4767912,50.5858845
          -2.4767316,50.5858936
          -2.4766938,50.5858925
          -2.4766064,50.5858663
          -2.4765077,50.5858558
          -2.4764216,50.5858593
          -2.4763391,50.5858674
          -2.4762903,50.5858807
          -2.4762049,50.5858764
          -2.4761156,50.5858796
          -2.4760318,50.5858867
          -2.4759466,50.5858916
          -2.4758456,50.5858975
          -2.4757461,50.5858861
          -2.4756422,50.5858895
          -2.4755511,50.5858890
          -2.4754709,50.5858693
          -2.4754277,50.5858345
          -2.4754232,50.5858068
          -2.4754297,50.5857788
          -2.4754079,50.5857595
          -2.4753851,50.5857335
          -2.4753089,50.5857113
          -2.4752488,50.5856950
          -2.4751589,50.5856808
          -2.4750761,50.5856921
          -2.4750500,50.5856807
          -2.4750088,50.5856656
          -2.4749313,50.5856389
          -2.4748536,50.5856233
          -2.4747612,50.5856027
          -2.4746743,50.5855809
          -2.4745853,50.5855575
          -2.4745023,50.5855369
          -2.4744150,50.5855091
          -2.4743299,50.5854814
          -2.4742360,50.5854588
          -2.4741459,50.5854568
          -2.4741154,50.5854195
          -2.4740219,50.5853929
          -2.4739358,50.5853642
          -2.4738551,50.5853361
          -2.4737680,50.5853026
          -2.4736782,50.5852704
          -2.4735824,50.5852470
          -2.4734870,50.5852232
          -2.4734003,50.5851911
          -2.4733106,50.5851605
          -2.4732247,50.5851446
          -2.4731337,50.5851430
          -2.4730716,50.5851808
          -2.4730110,50.5852277
          -2.4729447,50.5852707
          -2.4728583,50.5853020
          -2.4727802,50.5853448
          -2.4726848,50.5853661
          -2.4725879,50.5853793
          -2.4724811,50.5853979
          -2.4723892,50.5854168
          -2.4722861,50.5854374
          -2.4721966,50.5854121
          -2.4721404,50.5853581
          -2.4721225,50.5852910
          -2.4721084,50.5852566
          -2.4720900,50.5852514
          -2.4720302,50.5852508
          -2.4719191,50.5852627
          -2.4718305,50.5852770
          -2.4717477,50.5852945
          -2.4716449,50.5853062
          -2.4715559,50.5853068
          -2.4714487,50.5853105
          -2.4713554,50.5853185
          -2.4712603,50.5853218
          -2.4711669,50.5853336
          -2.4710907,50.5853275
          -2.4709919,50.5853370
          -2.4708955,50.5853467
          -2.4707963,50.5853557
          -2.4706965,50.5853571
          -2.4706035,50.5853517
          -2.4704980,50.5853502
          -2.4704002,50.5853571
          -2.4702935,50.5853758
          -2.4701967,50.5853802
          -2.4701096,50.5853955
          -2.4700663,50.5854150
          -2.4700112,50.5854046
          -2.4699827,50.5854112
          -2.4699827,50.5854112
          -2.4699827,50.5854112
          -2.4699827,50.5854112
          -2.4699827,50.5854112
          -2.4699827,50.5854112
          -2.4699827,50.5854112
          -2.4699827,50.5854112
          -2.4699827,50.5854112
          -2.4699827,50.5854112
          -2.4699827,50.5854112
          -2.4699899,50.5854372
          -2.4700307,50.5854913
          -2.4700238,50.5855581
          -2.4700026,50.5856206
          -2.4699584,50.5856808
          -2.4699318,50.5857408
          -2.4699045,50.5857951
          -2.4699055,50.5858672
          -2.4698875,50.5859351
          -2.4698472,50.5859972
          -2.4698120,50.5860506
          -2.4698046,50.5861028
          -2.4698814,50.5861239
          -2.4699496,50.5860708
          -2.4700070,50.5860171
          -2.4701009,50.5859942
          -2.4701967,50.5859758
          -2.4702083,50.5859303
          -2.4702076,50.5859102
          -2.4701738,50.5859151
          -2.4701641,50.5859236
          -2.4701639,50.5859140
          -2.4701724,50.5859166
          -2.4701687,50.5859159
          -2.4701669,50.5859097
          -2.4701688,50.5859130
          -2.4701785,50.5858991
          -2.4701838,50.5859088
          -2.4701957,50.5859121
          -2.4701902,50.5859204
          -2.4701838,50.5859139
          -2.4701855,50.5859185
          -2.4701911,50.5859155
          -2.4701920,50.5859102
          -2.4702013,50.5858963
          -2.4701907,50.5859118
          -2.4701771,50.5859139
          -2.4701703,50.5858963
          -2.4701890,50.5858869
          -2.4702106,50.5858746
          -2.4702097,50.5858844
          -2.4702267,50.5858674
          -2.4702292,50.5858570
          -2.4702228,50.5858609
          -2.4702162,50.5858597
          -2.4702179,50.5858514
          -2.4702395,50.5858590
          -2.4702410,50.5858571
          -2.4702259,50.5858565
          -2.4702167,50.5858651
        </coordinates>
      </LineString>
    </Placemark>
  </Document>
</kml>
