<?xml version="1.0" encoding="UTF-8"?>
<kml xmlns="http://www.opengis.net/kml/2.2" xmlns:xsi="http://www.w3.org/2001/XMLSchema-instance" xsi:schemaLocation="http://www.opengis.net/kml/2.2 http://schemas.opengis.net/kml/2.2.0/ogckml22.xsd">
  <Document>
    <name>GPS Wizard</name>
    <open>1</open>
    <Style id="wizard">
      <LineStyle>
        <color>a00000ff</color>
        <width>2</width>
      </LineStyle>
    </Style>
    <Placemark>
      <name>TBC</name>
      <styleUrl>#wizard</styleUrl>
      <LineString>
        <extrude>1</extrude>
        <tessellate>1</tessellate>
        <coordinates>
          -2.4524067,50.6013990
          -2.4523639,50.6014281
          -2.4523041,50.6014711
          -2.4522534,50.6015095
          -2.4522230,50.6015566
          -2.4522058,50.6016103
          -2.4522027,50.6016639
          -2.4522213,50.6017286
          -2.4522601,50.6017742
          -2.4523039,50.6018152
          -2.4523558,50.6018633
          -2.4524071,50.6019161
          -2.4524653,50.6019579
          -2.4525049,50.6020074
          -2.4524659,50.6020473
          -2.4523828,50.6020735
          -2.4523074,50.6021014
          -2.4522238,50.6021380
          -2.4521342,50.6021718
          -2.4520367,50.6021977
          -2.4519492,50.6022364
          -2.4518699,50.6022661
          -2.4517927,50.6022953
          -2.4517090,50.6023328
          -2.4516694,50.6023933
          -2.4516617,50.6024619
          -2.4516473,50.6025274
          -2.4516388,50.6025860
          -2.4516329,50.6026481
          -2.4516382,50.6027268
          -2.4516363,50.6027850
          -2.4516254,50.6028502
          -2.4516136,50.6029268
          -2.4516058,50.6029936
          -2.4516006,50.6030462
          -2.4515810,50.6031226
          -2.4515825,50.6031902
          -2.4515873,50.6032381
          -2.4515751,50.6033073
          -2.4515779,50.6033761
          -2.4515685,50.6034455
          -2.4515400,50.6035090
          -2.4515188,50.6035845
          -2.4515166,50.6036396
          -2.4515164,50.6036890
          -2.4515319,50.6037712
          -2.4515115,50.6038501
          -2.4514799,50.6039322
          -2.4514364,50.6039964
          -2.4513658,50.6040417
          -2.4512981,50.6040964
          -2.4512386,50.6041525
          -2.4511722,50.6041751
          -2.4510860,50.6042011
          -2.4510585,50.6042519
          -2.4510008,50.6043172
          -2.4509533,50.6043871
          -2.4509128,50.6044152
          -2.4508701,50.6044140
          -2.4508261,50.6044068
          -2.4507811,50.6044350
          -2.4507360,50.6044925
          -2.4506857,50.6045528
          -2.4506251,50.6046114
          -2.4505596,50.6046601
          -2.4504959,50.6046963
          -2.4504224,50.6047366
          -2.4503424,50.6047728
          -2.4502608,50.6048087
          -2.4501788,50.6048382
          -2.4500953,50.6048735
          -2.4500117,50.6049091
          -2.4499333,50.6049419
          -2.4498400,50.6049781
          -2.4497477,50.6050075
          -2.4496432,50.6050329
          -2.4495688,50.6050678
          -2.4494765,50.6050965
          -2.4493896,50.6051320
          -2.4492991,50.6051673
          -2.4492040,50.6052081
          -2.4491239,50.6052399
          -2.4490294,50.6052714
          -2.4489286,50.6053012
          -2.4488360,50.6053226
          -2.4487552,50.6053537
          -2.4486632,50.6053649
          -2.4485531,50.6053835
          -2.4484578,50.6054059
          -2.4483629,50.6054299
          -2.4482635,50.6054430
          -2.4481549,50.6054463
          -2.4480471,50.6054517
          -2.4479613,50.6054746
          -2.4478705,50.6054960
          -2.4477655,50.6055037
          -2.4476662,50.6055169
          -2.4475606,50.6055406
          -2.4474916,50.6055770
          -2.4474005,50.6056141
          -2.4473041,50.6056488
          -2.4472152,50.6056947
          -2.4471307,50.6057385
          -2.4470680,50.6057622
          -2.4469898,50.6058087
          -2.4469117,50.6058586
          -2.4468493,50.6059163
          -2.4467842,50.6059718
          -2.4467211,50.6060095
          -2.4466171,50.6060405
          -2.4465170,50.6060769
          -2.4464390,50.6061054
          -2.4463546,50.6061291
          -2.4462497,50.6061473
          -2.4461403,50.6061587
          -2.4460303,50.6061584
          -2.4459318,50.6061583
          -2.4458258,50.6061659
          -2.4457126,50.6061738
          -2.4456300,50.6061954
          -2.4455277,50.6062161
          -2.4454251,50.6062369
          -2.4453232,50.6062611
          -2.4452167,50.6062786
          -2.4450997,50.6062956
          -2.4450063,50.6063298
          -2.4449580,50.6063624
          -2.4449308,50.6064238
          -2.4448927,50.6064860
          -2.4448638,50.6065565
          -2.4448394,50.6066214
          -2.4448157,50.6066668
          -2.4447817,50.6067326
          -2.4447687,50.6067898
          -2.4447455,50.6068343
          -2.4446847,50.6068707
          -2.4445732,50.6068785
          -2.4444760,50.6068820
          -2.4444973,50.6069167
          -2.4445148,50.6069901
          -2.4444223,50.6070508
          -2.4443645,50.6071027
          -2.4443663,50.6071552
          -2.4444080,50.6072154
          -2.4444371,50.6072872
          -2.4444620,50.6073508
          -2.4444804,50.6074153
          -2.4445034,50.6074685
          -2.4445314,50.6075140
          -2.4445467,50.6075291
          -2.4445547,50.6075373
          -2.4446003,50.6075822
          -2.4446234,50.6076262
          -2.4446664,50.6076797
          -2.4446976,50.6076933
          -2.4447072,50.6076930
          -2.4447396,50.6077084
          -2.4447707,50.6077231
          -2.4448009,50.6077372
          -2.4448339,50.6077521
          -2.4448768,50.6077584
          -2.4449271,50.6077733
          -2.4449686,50.6077889
          -2.4450075,50.6078004
          -2.4450690,50.6078008
          -2.4451094,50.6077991
          -2.4451870,50.6077918
          -2.4452964,50.6077835
          -2.4454208,50.6077754
          -2.4455219,50.6077622
          -2.4455976,50.6077470
          -2.4457113,50.6077231
          -2.4458405,50.6077164
          -2.4459598,50.6077051
          -2.4460439,50.6076903
          -2.4461359,50.6076863
          -2.4462622,50.6076912
          -2.4463877,50.6076838
          -2.4464714,50.6076635
          -2.4465817,50.6076562
          -2.4466881,50.6076450
          -2.4467655,50.6076333
          -2.4468762,50.6076264
          -2.4469857,50.6076002
          -2.4470726,50.6075847
          -2.4471795,50.6075774
          -2.4472972,50.6075690
          -2.4473819,50.6075587
          -2.4474887,50.6075512
          -2.4475690,50.6075334
          -2.4476663,50.6075174
          -2.4477669,50.6075044
          -2.4478558,50.6074966
          -2.4479634,50.6074893
          -2.4480503,50.6074735
          -2.4481693,50.6074710
          -2.4482701,50.6074622
          -2.4483629,50.6074515
          -2.4484824,50.6074446
          -2.4485707,50.6074207
          -2.4486808,50.6074066
          -2.4487714,50.6073912
          -2.4488567,50.6073734
          -2.4489752,50.6073530
          -2.4490794,50.6073408
          -2.4491568,50.6073314
          -2.4492375,50.6073638
          -2.4492519,50.6074181
          -2.4493124,50.6074568
          -2.4493820,50.6074511
          -2.4494840,50.6074308
          -2.4495649,50.6074162
          -2.4496783,50.6073915
          -2.4497607,50.6073706
          -2.4498521,50.6073555
          -2.4499560,50.6073323
          -2.4500491,50.6073069
          -2.4501603,50.6072810
          -2.4502427,50.6072810
          -2.4503397,50.6072699
          -2.4504333,50.6072406
          -2.4505194,50.6072149
          -2.4506164,50.6071925
          -2.4506890,50.6071765
          -2.4507875,50.6071336
          -2.4508586,50.6071031
          -2.4509053,50.6070859
          -2.4509713,50.6070728
          -2.4509828,50.6070686
          -2.4510117,50.6070440
          -2.4510377,50.6070349
          -2.4510729,50.6070129
          -2.4511372,50.6069844
          -2.4512091,50.6069807
          -2.4512430,50.6069775
          -2.4512849,50.6069493
          -2.4512903,50.6069421
          -2.4512860,50.6069414
          -2.4512881,50.6069450
          -2.4512905,50.6069481
          -2.4512922,50.6069498
          -2.4512943,50.6069481
          -2.4513139,50.6069181
          -2.4513486,50.6068684
          -2.4513924,50.6068212
          -2.4514264,50.6067909
          -2.4514523,50.6067519
          -2.4514751,50.6066974
          -2.4515177,50.6066347
          -2.4515445,50.6065875
          -2.4515827,50.6065474
          -2.4516236,50.6064956
          -2.4516755,50.6064442
          -2.4517297,50.6063996
          -2.4518231,50.6063747
          -2.4519397,50.6063738
          -2.4520415,50.6063799
          -2.4521252,50.6063779
          -2.4522043,50.6063708
          -2.4522922,50.6063635
          -2.4523910,50.6063592
          -2.4524864,50.6063605
          -2.4525833,50.6063572
          -2.4526714,50.6063550
          -2.4527673,50.6063625
          -2.4528576,50.6063985
          -2.4529109,50.6064381
          -2.4529941,50.6064638
          -2.4530756,50.6064923
          -2.4531515,50.6065187
          -2.4532460,50.6065465
          -2.4533323,50.6065643
          -2.4534262,50.6065924
          -2.4535180,50.6066157
          -2.4536041,50.6066472
          -2.4536970,50.6066650
          -2.4537864,50.6066827
          -2.4538840,50.6067011
          -2.4539686,50.6067103
          -2.4540719,50.6067363
          -2.4541792,50.6067543
          -2.4542720,50.6067661
          -2.4543419,50.6067959
          -2.4544108,50.6068035
          -2.4544955,50.6068332
          -2.4545713,50.6068567
          -2.4546149,50.6068818
          -2.4546255,50.6068922
          -2.4546424,50.6068898
          -2.4547232,50.6069064
          -2.4548176,50.6069207
          -2.4549128,50.6069395
          -2.4549979,50.6069538
          -2.4550932,50.6069725
          -2.4551823,50.6069810
          -2.4552805,50.6069847
          -2.4553640,50.6069998
          -2.4554094,50.6070473
          -2.4554001,50.6070998
          -2.4553885,50.6071526
          -2.4553744,50.6071993
          -2.4553675,50.6072494
          -2.4553467,50.6073038
          -2.4553358,50.6073574
          -2.4553141,50.6074316
          -2.4552959,50.6075116
          -2.4552620,50.6075312
          -2.4552288,50.6075321
          -2.4551945,50.6075160
          -2.4551388,50.6075031
          -2.4550764,50.6075003
          -2.4549786,50.6074952
          -2.4548855,50.6074853
          -2.4547895,50.6074651
          -2.4547030,50.6074465
          -2.4546268,50.6074255
          -2.4545554,50.6073998
          -2.4544652,50.6073788
          -2.4543868,50.6073519
          -2.4542990,50.6073256
          -2.4542118,50.6073005
          -2.4541282,50.6072797
          -2.4540423,50.6072734
          -2.4539476,50.6072647
          -2.4538615,50.6072428
          -2.4537674,50.6072287
          -2.4536877,50.6072102
          -2.4535944,50.6071999
          -2.4535143,50.6071982
          -2.4534282,50.6071925
          -2.4534016,50.6072119
          -2.4533704,50.6072087
          -2.4532877,50.6072186
          -2.4532031,50.6072346
          -2.4531229,50.6072476
          -2.4530562,50.6072544
          -2.4530297,50.6072680
          -2.4530287,50.6072690
          -2.4530291,50.6072683
          -2.4530298,50.6072671
          -2.4530307,50.6072655
          -2.4530316,50.6072639
          -2.4530312,50.6072636
          -2.4530032,50.6072724
          -2.4529824,50.6072836
          -2.4529635,50.6072874
          -2.4529614,50.6072872
          -2.4529625,50.6072875
          -2.4529632,50.6072877
          -2.4529636,50.6072879
          -2.4529640,50.6072879
          -2.4529641,50.6072880
          -2.4529642,50.6072880
          -2.4529642,50.6072880
          -2.4529643,50.6072880
          -2.4529645,50.6072881
          -2.4529645,50.6072881
          -2.4529647,50.6072879
          -2.4529760,50.6072802
          -2.4530377,50.6072885
          -2.4530658,50.6073126
          -2.4530474,50.6073013
          -2.4530280,50.6072967
          -2.4530040,50.6072892
          -2.4529730,50.6072912
          -2.4529419,50.6072857
          -2.4529262,50.6072706
          -2.4529158,50.6072672
          -2.4529262,50.6072652
          -2.4529786,50.6072669
          -2.4530108,50.6072683
          -2.4530049,50.6072636
          -2.4529768,50.6072837
          -2.4529782,50.6072895
          -2.4529782,50.6072896
          -2.4529806,50.6072859
          -2.4529808,50.6072856
          -2.4529803,50.6072857
          -2.4529796,50.6072859
          -2.4529782,50.6072862
          -2.4529700,50.6072908
          -2.4529754,50.6072968
          -2.4529736,50.6072971
          -2.4529719,50.6072972
          -2.4529703,50.6072973
          -2.4529688,50.6072973
          -2.4529667,50.6072974
          -2.4529644,50.6072975
          -2.4529618,50.6072976
          -2.4529590,50.6072976
          -2.4529565,50.6072976
          -2.4529546,50.6072977
          -2.4529532,50.6072977
          -2.4529520,50.6072977
          -2.4529511,50.6072977
          -2.4529507,50.6072977
          -2.4529509,50.6072978
          -2.4529513,50.6072978
          -2.4529523,50.6072978
          -2.4529536,50.6072978
          -2.4529552,50.6072978
          -2.4529573,50.6072979
          -2.4529594,50.6072979
          -2.4529619,50.6072979
          -2.4529635,50.6072979
          -2.4529642,50.6072979
          -2.4529640,50.6072980
          -2.4529634,50.6072981
          -2.4529628,50.6072982
          -2.4529621,50.6072982
          -2.4529616,50.6072983
          -2.4529613,50.6072983
          -2.4529605,50.6072983
          -2.4529598,50.6072983
          -2.4529591,50.6072982
          -2.4529584,50.6072981
          -2.4529578,50.6072980
          -2.4529573,50.6072980
          -2.4529577,50.6072980
          -2.4529587,50.6072980
          -2.4529608,50.6072980
          -2.4529621,50.6072980
          -2.4529623,50.6072980
          -2.4529621,50.6072980
          -2.4529620,50.6072980
          -2.4529614,50.6072979
          -2.4529607,50.6072979
          -2.4529596,50.6072979
          -2.4529582,50.6072979
          -2.4529572,50.6072980
          -2.4529567,50.6072980
          -2.4529561,50.6072980
          -2.4529556,50.6072980
          -2.4529549,50.6072980
          -2.4529541,50.6072980
          -2.4529534,50.6072980
          -2.4529530,50.6072979
          -2.4529528,50.6072979
          -2.4529527,50.6072979
          -2.4529530,50.6072979
          -2.4529536,50.6072979
          -2.4529543,50.6072979
          -2.4529552,50.6072979
          -2.4529559,50.6072978
          -2.4529563,50.6072978
          -2.4529564,50.6072978
          -2.4529563,50.6072978
          -2.4529565,50.6072978
          -2.4529566,50.6072979
          -2.4529569,50.6072980
          -2.4529573,50.6072980
          -2.4529571,50.6072981
          -2.4529564,50.6072982
          -2.4529557,50.6072982
          -2.4529551,50.6072981
          -2.4529548,50.6072981
          -2.4529553,50.6072981
          -2.4529557,50.6072981
          -2.4529568,50.6072980
          -2.4529582,50.6072980
          -2.4529596,50.6072980
          -2.4529610,50.6072979
          -2.4529618,50.6072979
          -2.4529624,50.6072980
          -2.4529627,50.6072979
          -2.4529535,50.6072956
          -2.4529520,50.6072956
          -2.4529514,50.6072959
          -2.4529505,50.6072960
          -2.4529495,50.6072961
          -2.4529485,50.6072960
          -2.4529483,50.6072955
          -2.4529485,50.6072947
          -2.4529485,50.6072940
          -2.4529485,50.6072935
          -2.4529480,50.6072934
          -2.4529473,50.6072936
          -2.4529468,50.6072938
          -2.4529466,50.6072940
          -2.4529465,50.6072940
          -2.4529465,50.6072939
          -2.4529464,50.6072940
          -2.4529462,50.6072942
          -2.4529459,50.6072943
          -2.4529457,50.6072945
          -2.4529456,50.6072945
          -2.4529455,50.6072945
          -2.4529454,50.6072944
          -2.4529454,50.6072944
          -2.4529459,50.6072945
          -2.4529465,50.6072947
          -2.4529476,50.6072949
          -2.4529490,50.6072952
          -2.4529500,50.6072953
          -2.4529509,50.6072954
          -2.4529515,50.6072953
          -2.4529522,50.6072952
          -2.4529529,50.6072949
          -2.4529532,50.6072947
          -2.4529532,50.6072947
          -2.4529528,50.6072948
          -2.4529524,50.6072950
          -2.4529522,50.6072951
          -2.4529522,50.6072951
          -2.4529525,50.6072949
          -2.4529529,50.6072947
          -2.4529532,50.6072943
          -2.4529531,50.6072942
          -2.4529525,50.6072942
          -2.4529518,50.6072945
          -2.4529509,50.6072949
          -2.4529500,50.6072953
          -2.4529490,50.6072957
          -2.4529487,50.6072959
          -2.4529488,50.6072958
          -2.4529490,50.6072957
          -2.4529500,50.6072956
          -2.4529506,50.6072954
          -2.4529508,50.6072954
          -2.4529509,50.6072955
          -2.4529507,50.6072956
          -2.4529506,50.6072957
          -2.4529500,50.6072957
          -2.4529494,50.6072957
          -2.4529486,50.6072954
          -2.4529480,50.6072952
          -2.4529475,50.6072949
          -2.4529470,50.6072946
          -2.4529467,50.6072943
          -2.4529464,50.6072940
          -2.4529463,50.6072936
          -2.4529463,50.6072935
          -2.4529464,50.6072933
          -2.4529468,50.6072934
          -2.4529473,50.6072935
          -2.4529478,50.6072936
          -2.4529481,50.6072936
          -2.4529483,50.6072938
          -2.4529481,50.6072940
          -2.4529480,50.6072940
          -2.4529478,50.6072938
          -2.4529479,50.6072936
          -2.4529481,50.6072936
          -2.4529484,50.6072938
          -2.4529486,50.6072942
          -2.4529488,50.6072944
          -2.4529490,50.6072947
          -2.4529496,50.6072949
          -2.4529506,50.6072950
          -2.4529513,50.6072949
          -2.4529515,50.6072947
          -2.4529514,50.6072945
          -2.4529515,50.6072942
          -2.4529513,50.6072941
          -2.4529510,50.6072942
          -2.4529504,50.6072945
          -2.4529496,50.6072949
          -2.4529490,50.6072953
          -2.4529488,50.6072957
          -2.4529494,50.6072958
          -2.4529501,50.6072957
          -2.4529511,50.6072953
          -2.4529517,50.6072951
          -2.4529516,50.6072952
          -2.4529511,50.6072955
          -2.4529507,50.6072957
          -2.4529506,50.6072960
          -2.4529511,50.6072959
          -2.4529518,50.6072954
          -2.4529522,50.6072951
          -2.4529521,50.6072951
          -2.4529515,50.6072952
          -2.4529505,50.6072953
          -2.4529495,50.6072954
          -2.4529492,50.6072953
          -2.4529495,50.6072951
          -2.4529502,50.6072946
          -2.4529510,50.6072943
          -2.4529512,50.6072943
          -2.4529509,50.6072943
          -2.4529502,50.6072945
          -2.4529495,50.6072946
          -2.4529487,50.6072947
          -2.4529485,50.6072947
          -2.4529485,50.6072947
          -2.4529485,50.6072945
          -2.4529484,50.6072943
          -2.4529482,50.6072942
          -2.4529478,50.6072943
          -2.4529473,50.6072947
          -2.4529470,50.6072952
          -2.4529471,50.6072955
          -2.4529480,50.6072955
          -2.4529493,50.6072952
          -2.4529502,50.6072948
          -2.4529501,50.6072946
          -2.4529494,50.6072947
          -2.4529484,50.6072947
          -2.4529474,50.6072948
          -2.4529469,50.6072950
          -2.4529474,50.6072949
          -2.4529517,50.6072944
          -2.4529662,50.6072941
          -2.4529668,50.6072941
          -2.4529671,50.6072942
          -2.4529674,50.6072942
          -2.4529676,50.6072942
          -2.4529677,50.6072942
          -2.4529676,50.6072940
          -2.4529675,50.6072939
          -2.4529673,50.6072939
          -2.4529672,50.6072939
          -2.4529671,50.6072939
          -2.4529670,50.6072939
          -2.4529669,50.6072938
          -2.4529669,50.6072937
          -2.4529669,50.6072937
          -2.4529668,50.6072937
          -2.4529667,50.6072938
          -2.4529667,50.6072939
          -2.4529667,50.6072942
          -2.4529668,50.6072943
          -2.4529669,50.6072946
          -2.4529670,50.6072947
          -2.4529668,50.6072948
          -2.4529662,50.6072949
          -2.4529657,50.6072949
          -2.4529654,50.6072948
          -2.4529653,50.6072948
          -2.4529656,50.6072948
          -2.4529658,50.6072949
          -2.4529661,50.6072949
          -2.4529664,50.6072948
          -2.4529666,50.6072947
          -2.4529665,50.6072944
          -2.4529664,50.6072940
          -2.4529663,50.6072938
          -2.4529663,50.6072938
          -2.4529664,50.6072940
          -2.4529665,50.6072942
          -2.4529663,50.6072941
          -2.4529661,50.6072938
          -2.4529660,50.6072936
          -2.4529658,50.6072935
          -2.4529659,50.6072934
          -2.4529661,50.6072935
          -2.4529665,50.6072937
          -2.4529667,50.6072940
          -2.4529669,50.6072942
          -2.4529669,50.6072944
          -2.4529666,50.6072947
          -2.4529666,50.6072948
          -2.4529664,50.6072950
          -2.4529664,50.6072950
          -2.4529664,50.6072948
          -2.4529664,50.6072945
          -2.4529664,50.6072941
          -2.4529663,50.6072936
          -2.4529664,50.6072933
          -2.4529664,50.6072930
          -2.4529663,50.6072927
          -2.4529662,50.6072926
          -2.4529661,50.6072925
          -2.4529661,50.6072925
          -2.4529663,50.6072925
          -2.4529665,50.6072926
          -2.4529667,50.6072928
          -2.4529668,50.6072929
          -2.4529668,50.6072928
          -2.4529669,50.6072926
          -2.4529668,50.6072922
          -2.4529667,50.6072921
          -2.4529666,50.6072921
          -2.4529666,50.6072923
          -2.4529667,50.6072926
          -2.4529666,50.6072930
          -2.4529664,50.6072931
          -2.4529661,50.6072933
          -2.4529659,50.6072934
          -2.4529659,50.6072936
          -2.4529658,50.6072936
          -2.4529557,50.6072924
          -2.4529487,50.6072926
          -2.4529485,50.6072926
          -2.4529487,50.6072929
          -2.4529491,50.6072935
          -2.4529495,50.6072940
          -2.4529502,50.6072944
          -2.4529507,50.6072947
          -2.4529507,50.6072947
          -2.4529504,50.6072945
          -2.4529500,50.6072942
          -2.4529496,50.6072941
          -2.4529494,50.6072941
          -2.4529493,50.6072942
          -2.4529494,50.6072943
          -2.4529498,50.6072945
          -2.4529503,50.6072945
          -2.4529513,50.6072944
          -2.4529526,50.6072944
          -2.4529542,50.6072947
          -2.4529557,50.6072954
          -2.4529569,50.6072962
          -2.4529581,50.6072970
          -2.4529589,50.6072977
          -2.4529598,50.6072981
          -2.4529604,50.6072985
          -2.4529608,50.6072987
          -2.4529609,50.6072988
          -2.4529611,50.6072988
          -2.4529617,50.6072988
          -2.4529619,50.6072988
          -2.4529619,50.6072983
          -2.4529656,50.6072931
          -2.4530126,50.6072807
          -2.4530381,50.6072887
          -2.4530501,50.6073004
          -2.4530752,50.6073134
          -2.4530915,50.6073226
          -2.4531129,50.6073342
          -2.4531345,50.6073451
          -2.4529877,50.6072988
          -2.4529575,50.6072944
          -2.4528764,50.6073161
          -2.4528081,50.6073220
          -2.4527222,50.6073338
          -2.4526537,50.6073511
          -2.4525698,50.6073649
          -2.4524996,50.6073738
          -2.4524122,50.6073925
          -2.4523331,50.6074164
          -2.4522697,50.6074423
          -2.4521886,50.6074656
          -2.4521070,50.6074830
          -2.4520466,50.6074924
          -2.4519652,50.6075050
          -2.4519065,50.6075397
          -2.4518337,50.6075821
          -2.4517903,50.6076184
          -2.4517176,50.6076526
          -2.4516535,50.6076821
          -2.4515701,50.6077217
          -2.4515058,50.6077518
          -2.4513972,50.6077921
          -2.4513202,50.6078195
          -2.4512400,50.6078494
          -2.4511713,50.6078830
          -2.4510745,50.6079228
          -2.4509927,50.6079435
          -2.4509015,50.6079862
          -2.4508417,50.6080244
          -2.4507597,50.6080682
          -2.4506915,50.6081076
          -2.4506045,50.6081485
          -2.4505291,50.6081810
          -2.4504321,50.6082208
          -2.4503464,50.6082515
          -2.4502482,50.6082758
          -2.4501579,50.6082931
          -2.4500373,50.6083047
          -2.4499398,50.6083142
          -2.4498379,50.6083317
          -2.4497837,50.6083498
          -2.4497965,50.6084046
          -2.4498085,50.6084747
          -2.4498398,50.6085188
          -2.4498541,50.6085307
          -2.4499026,50.6085481
          -2.4499848,50.6085575
          -2.4500614,50.6085832
          -2.4501470,50.6086024
          -2.4502315,50.6086194
          -2.4502906,50.6086374
          -2.4503341,50.6086590
          -2.4503490,50.6086772
          -2.4503597,50.6087120
          -2.4503758,50.6087451
          -2.4504198,50.6087543
          -2.4504843,50.6087589
          -2.4505357,50.6087651
          -2.4505940,50.6087687
          -2.4506648,50.6087648
          -2.4507185,50.6087595
          -2.4507711,50.6087471
          -2.4508336,50.6087354
          -2.4508812,50.6087066
          -2.4508825,50.6086852
          -2.4508429,50.6086671
          -2.4507645,50.6086488
          -2.4506791,50.6086329
          -2.4506081,50.6086187
          -2.4505363,50.6086059
          -2.4504520,50.6085941
          -2.4503739,50.6085903
          -2.4502898,50.6085907
          -2.4502198,50.6085984
          -2.4501681,50.6086068
          -2.4501360,50.6085895
          -2.4500533,50.6085617
          -2.4499735,50.6085257
          -2.4499206,50.6084680
          -2.4498678,50.6084437
          -2.4498173,50.6084039
          -2.4498056,50.6083646
          -2.4498617,50.6083368
          -2.4499203,50.6082795
          -2.4499941,50.6082499
          -2.4500765,50.6082082
          -2.4501497,50.6081762
          -2.4502188,50.6081469
          -2.4502730,50.6081184
          -2.4503406,50.6080756
          -2.4504262,50.6080464
          -2.4504959,50.6080229
          -2.4505768,50.6079936
          -2.4506604,50.6079664
          -2.4507335,50.6079348
          -2.4508105,50.6079020
          -2.4508848,50.6078676
          -2.4509681,50.6078318
          -2.4510515,50.6077975
          -2.4511372,50.6077673
          -2.4512149,50.6077361
          -2.4512900,50.6077052
          -2.4513716,50.6076745
          -2.4514479,50.6076470
          -2.4515354,50.6076202
          -2.4516275,50.6076035
          -2.4517027,50.6075754
          -2.4517855,50.6075404
          -2.4518656,50.6075140
          -2.4519296,50.6074941
          -2.4520207,50.6074629
          -2.4521101,50.6074382
          -2.4521808,50.6074170
          -2.4522499,50.6073843
          -2.4523497,50.6073565
          -2.4524265,50.6073323
          -2.4525201,50.6073027
          -2.4526049,50.6072709
          -2.4527066,50.6072479
          -2.4527905,50.6072286
          -2.4528853,50.6072078
          -2.4529803,50.6071905
          -2.4530780,50.6071791
          -2.4531790,50.6071698
          -2.4532630,50.6071517
          -2.4533637,50.6071309
          -2.4534563,50.6071164
          -2.4535765,50.6071163
          -2.4536685,50.6071286
          -2.4537583,50.6071476
          -2.4538494,50.6071645
          -2.4539424,50.6071881
          -2.4540248,50.6072057
          -2.4541140,50.6072269
          -2.4542083,50.6072451
          -2.4543078,50.6072494
          -2.4544070,50.6072623
          -2.4544968,50.6072829
          -2.4545781,50.6073147
          -2.4546735,50.6073318
          -2.4547659,50.6073478
          -2.4548672,50.6073573
          -2.4549330,50.6073931
          -2.4549555,50.6074463
          -2.4549810,50.6074888
          -2.4550656,50.6074986
          -2.4551580,50.6075070
          -2.4552228,50.6075143
          -2.4552676,50.6075174
          -2.4552976,50.6075177
          -2.4553299,50.6074900
          -2.4553462,50.6074288
          -2.4553681,50.6073679
          -2.4553807,50.6073162
          -2.4553980,50.6072398
          -2.4554140,50.6071740
          -2.4554220,50.6071097
          -2.4554199,50.6070475
          -2.4553995,50.6070020
          -2.4553136,50.6069938
          -2.4552293,50.6069865
          -2.4551375,50.6069719
          -2.4550737,50.6069603
          -2.4549860,50.6069458
          -2.4548869,50.6069338
          -2.4547935,50.6069098
          -2.4547071,50.6068863
          -2.4546227,50.6068749
          -2.4545278,50.6068571
          -2.4544361,50.6068418
          -2.4543481,50.6068135
          -2.4542684,50.6068030
          -2.4541910,50.6067911
          -2.4541145,50.6067679
          -2.4540330,50.6067394
          -2.4539506,50.6067233
          -2.4538594,50.6067091
          -2.4537705,50.6066915
          -2.4536756,50.6066783
          -2.4535868,50.6066627
          -2.4535027,50.6066451
          -2.4534194,50.6066242
          -2.4533539,50.6065960
          -2.4532728,50.6065643
          -2.4531896,50.6065435
          -2.4530918,50.6065170
          -2.4530193,50.6064881
          -2.4529521,50.6064556
          -2.4528705,50.6064192
          -2.4528008,50.6063857
          -2.4527167,50.6063692
          -2.4526183,50.6063595
          -2.4525200,50.6063644
          -2.4524336,50.6063690
          -2.4523306,50.6063787
          -2.4522500,50.6063996
          -2.4521499,50.6064070
          -2.4520504,50.6064118
          -2.4519476,50.6064104
          -2.4518604,50.6064201
          -2.4517905,50.6064486
          -2.4517581,50.6064602
          -2.4517416,50.6064628
          -2.4517362,50.6064808
          -2.4516879,50.6065327
          -2.4516520,50.6065881
          -2.4516094,50.6066376
          -2.4515656,50.6066904
          -2.4515475,50.6067404
          -2.4515362,50.6067585
          -2.4515295,50.6067552
          -2.4515169,50.6067714
          -2.4514618,50.6068181
          -2.4514021,50.6068687
          -2.4513618,50.6068947
          -2.4513519,50.6068968
          -2.4513518,50.6068962
          -2.4513525,50.6068984
          -2.4513516,50.6069002
          -2.4513517,50.6069012
          -2.4513491,50.6069000
          -2.4513502,50.6069012
          -2.4513507,50.6069024
          -2.4513494,50.6069079
          -2.4512971,50.6069310
          -2.4512117,50.6069728
          -2.4511210,50.6070043
          -2.4510438,50.6070381
          -2.4509642,50.6070707
          -2.4508789,50.6070987
          -2.4507953,50.6071391
          -2.4506996,50.6071756
          -2.4506078,50.6072046
          -2.4505216,50.6072304
          -2.4504171,50.6072574
          -2.4503325,50.6072760
          -2.4502232,50.6072899
          -2.4501407,50.6073081
          -2.4500393,50.6073359
          -2.4499613,50.6073594
          -2.4498538,50.6073831
          -2.4497684,50.6073944
          -2.4496647,50.6074159
          -2.4495791,50.6074299
          -2.4494874,50.6074511
          -2.4493880,50.6074753
          -2.4492913,50.6074801
          -2.4492579,50.6074250
          -2.4492270,50.6073749
          -2.4491691,50.6073421
          -2.4490831,50.6073419
          -2.4490075,50.6073412
          -2.4489623,50.6073407
          -2.4489162,50.6073464
          -2.4488595,50.6073465
          -2.4488008,50.6073471
          -2.4487794,50.6073377
          -2.4488164,50.6073332
          -2.4488607,50.6073346
          -2.4489039,50.6073235
          -2.4488896,50.6073020
          -2.4488163,50.6073076
          -2.4487133,50.6073105
          -2.4486373,50.6073126
          -2.4485510,50.6073246
          -2.4484484,50.6073312
          -2.4483533,50.6073425
          -2.4482517,50.6073432
          -2.4481650,50.6073552
          -2.4480585,50.6073626
          -2.4479724,50.6073682
          -2.4478714,50.6073714
          -2.4477585,50.6073713
          -2.4476708,50.6073731
          -2.4475709,50.6073615
          -2.4474912,50.6073604
          -2.4473939,50.6073510
          -2.4473136,50.6073418
          -2.4472214,50.6073357
          -2.4471177,50.6073430
          -2.4470249,50.6073358
          -2.4469489,50.6073062
          -2.4469173,50.6073018
          -2.4468217,50.6073196
          -2.4467321,50.6073261
          -2.4466273,50.6073475
          -2.4465401,50.6073682
          -2.4464428,50.6073676
          -2.4463305,50.6073682
          -2.4462315,50.6074009
          -2.4461397,50.6074319
          -2.4460652,50.6074436
          -2.4459673,50.6074448
          -2.4458493,50.6074607
          -2.4457439,50.6074673
          -2.4456546,50.6074563
          -2.4455609,50.6074419
          -2.4454741,50.6074531
          -2.4453938,50.6074651
          -2.4452855,50.6074912
          -2.4452088,50.6075122
          -2.4451126,50.6075353
          -2.4449961,50.6075553
          -2.4449196,50.6075418
          -2.4448779,50.6074963
          -2.4448466,50.6074401
          -2.4448366,50.6073796
          -2.4448270,50.6073272
          -2.4448637,50.6072655
          -2.4449224,50.6072149
          -2.4449820,50.6071749
          -2.4450535,50.6071284
          -2.4451164,50.6070943
          -2.4451903,50.6070623
          -2.4452721,50.6070273
          -2.4453721,50.6070027
          -2.4454852,50.6069731
          -2.4455687,50.6069539
          -2.4456735,50.6069362
          -2.4457662,50.6069123
          -2.4458525,50.6068941
          -2.4459610,50.6068756
          -2.4460617,50.6068512
          -2.4461507,50.6068247
          -2.4462356,50.6067787
          -2.4462970,50.6067317
          -2.4463751,50.6067099
          -2.4464879,50.6066928
          -2.4465997,50.6066622
          -2.4466681,50.6066449
          -2.4467612,50.6066215
          -2.4468628,50.6065985
          -2.4469608,50.6065675
          -2.4470333,50.6065439
          -2.4471165,50.6065113
          -2.4471939,50.6064664
          -2.4472681,50.6064154
          -2.4473307,50.6063564
          -2.4473752,50.6063053
          -2.4474324,50.6062561
          -2.4474730,50.6062061
          -2.4475394,50.6061570
          -2.4476274,50.6061103
          -2.4477098,50.6060661
          -2.4478203,50.6060205
          -2.4479404,50.6059807
          -2.4480182,50.6059560
          -2.4480809,50.6059227
          -2.4481418,50.6058857
          -2.4482425,50.6058544
          -2.4483496,50.6058205
          -2.4484609,50.6057767
          -2.4485592,50.6057325
          -2.4486222,50.6056917
          -2.4486931,50.6056589
          -2.4487940,50.6056250
          -2.4489014,50.6055850
          -2.4490090,50.6055512
          -2.4490967,50.6055290
          -2.4491925,50.6055071
          -2.4492850,50.6054775
          -2.4493841,50.6054325
          -2.4494566,50.6054057
          -2.4495491,50.6053758
          -2.4496463,50.6053384
          -2.4497418,50.6052932
          -2.4498016,50.6052656
          -2.4498973,50.6052274
          -2.4500041,50.6051817
          -2.4500916,50.6051438
          -2.4501578,50.6051190
          -2.4502493,50.6050741
          -2.4503320,50.6050295
          -2.4503913,50.6049911
          -2.4504744,50.6049424
          -2.4505548,50.6048942
          -2.4506131,50.6048539
          -2.4506855,50.6048030
          -2.4507450,50.6047334
          -2.4507536,50.6046853
          -2.4507960,50.6046174
          -2.4508273,50.6045622
          -2.4508627,50.6045083
          -2.4509091,50.6044394
          -2.4509396,50.6043843
          -2.4509882,50.6043323
          -2.4510320,50.6042629
          -2.4510587,50.6042091
          -2.4511280,50.6041690
          -2.4511989,50.6041550
          -2.4512662,50.6041161
          -2.4513169,50.6040694
          -2.4513717,50.6040229
          -2.4514263,50.6039754
          -2.4514577,50.6039235
          -2.4514693,50.6038656
          -2.4514758,50.6038100
          -2.4514799,50.6037572
          -2.4514764,50.6036994
          -2.4514759,50.6036386
          -2.4514875,50.6035809
          -2.4515055,50.6035260
          -2.4515206,50.6034723
          -2.4515405,50.6034112
          -2.4515437,50.6033523
          -2.4515507,50.6032973
          -2.4515598,50.6032318
          -2.4515611,50.6031729
          -2.4515720,50.6031169
          -2.4515811,50.6030578
          -2.4515834,50.6029930
          -2.4515902,50.6029310
          -2.4515962,50.6028741
          -2.4516098,50.6028164
          -2.4516127,50.6027454
          -2.4516240,50.6027031
          -2.4516264,50.6026383
          -2.4516344,50.6025742
          -2.4516586,50.6025200
          -2.4517218,50.6024656
          -2.4517771,50.6024167
          -2.4518454,50.6023619
          -2.4519182,50.6023147
          -2.4519745,50.6022700
          -2.4520571,50.6022290
          -2.4521456,50.6021798
          -2.4522266,50.6021435
          -2.4522967,50.6020986
          -2.4523803,50.6020642
          -2.4524967,50.6020405
          -2.4525665,50.6020230
          -2.4525531,50.6019789
          -2.4525058,50.6019338
          -2.4524491,50.6018790
          -2.4523836,50.6018242
          -2.4523315,50.6017714
          -2.4522921,50.6017124
          -2.4522706,50.6016484
          -2.4522829,50.6015911
          -2.4523357,50.6015411
          -2.4524144,50.6014859
          -2.4524736,50.6014329
          -2.4525150,50.6013819
          -2.4525502,50.6013512
          -2.4525510,50.6013459
        </coordinates>
      </LineString>
    </Placemark>
  </Document>
</kml>
