<?xml version="1.0" encoding="UTF-8"?>
<kml xmlns="http://www.opengis.net/kml/2.2" xmlns:xsi="http://www.w3.org/2001/XMLSchema-instance" xsi:schemaLocation="http://www.opengis.net/kml/2.2 http://schemas.opengis.net/kml/2.2.0/ogckml22.xsd">
  <Document>
    <name>GPS Wizard</name>
    <open>1</open>
    <Style id="wizard">
      <LineStyle>
        <color>a00000ff</color>
        <width>2</width>
      </LineStyle>
    </Style>
    <Placemark>
      <name>TBC</name>
      <styleUrl>#wizard</styleUrl>
      <LineString>
        <extrude>1</extrude>
        <tessellate>1</tessellate>
        <coordinates>
          -2.4567919,50.5146753
          -2.4567814,50.5146611
          -2.4567678,50.5145995
          -2.4567285,50.5145519
          -2.4567322,50.5144863
          -2.4567639,50.5144318
          -2.4567734,50.5143751
          -2.4567856,50.5143103
          -2.4567778,50.5142531
          -2.4567881,50.5141899
          -2.4567777,50.5141300
          -2.4567762,50.5140657
          -2.4567771,50.5140057
          -2.4567751,50.5139422
          -2.4567690,50.5138804
          -2.4567530,50.5138149
          -2.4567598,50.5137596
          -2.4567677,50.5137042
          -2.4568491,50.5136635
          -2.4569099,50.5136217
          -2.4569535,50.5135659
          -2.4569975,50.5135074
          -2.4570256,50.5134592
          -2.4570338,50.5134582
          -2.4570338,50.5134582
          -2.4570338,50.5134582
          -2.4570338,50.5134582
          -2.4570338,50.5134582
          -2.4570338,50.5134582
          -2.4570387,50.5134631
          -2.4570338,50.5134582
          -2.4570338,50.5134582
          -2.4570338,50.5134582
          -2.4570338,50.5134582
          -2.4570338,50.5134582
          -2.4570338,50.5134582
          -2.4570338,50.5134582
          -2.4570338,50.5134582
          -2.4570338,50.5134582
          -2.4570338,50.5134582
          -2.4570338,50.5134582
          -2.4570338,50.5134582
          -2.4570338,50.5134582
          -2.4570311,50.5134588
          -2.4570247,50.5134517
          -2.4569640,50.5134548
          -2.4569146,50.5134447
          -2.4568711,50.5134311
          -2.4568101,50.5134233
          -2.4567424,50.5134310
          -2.4566763,50.5134410
          -2.4566223,50.5134269
          -2.4566254,50.5134120
          -2.4565622,50.5134111
          -2.4565284,50.5133885
          -2.4565264,50.5133843
          -2.4565264,50.5133843
          -2.4565264,50.5133843
          -2.4565264,50.5133843
          -2.4565264,50.5133843
          -2.4565264,50.5133843
          -2.4565264,50.5133843
          -2.4565264,50.5133843
          -2.4564952,50.5134047
          -2.4564343,50.5134390
          -2.4563850,50.5134848
          -2.4563456,50.5135330
          -2.4562943,50.5135832
          -2.4562719,50.5136312
          -2.4562816,50.5136892
          -2.4562477,50.5137244
          -2.4562100,50.5137731
          -2.4561799,50.5138252
          -2.4561539,50.5138782
          -2.4561159,50.5139328
          -2.4560700,50.5139913
          -2.4560310,50.5140427
          -2.4559845,50.5141006
          -2.4559383,50.5141589
          -2.4558861,50.5142109
          -2.4558457,50.5142689
          -2.4558069,50.5143265
          -2.4557696,50.5143943
          -2.4557315,50.5144494
          -2.4556774,50.5145049
          -2.4556271,50.5145577
          -2.4555757,50.5146156
          -2.4555157,50.5146667
          -2.4554716,50.5147212
          -2.4554129,50.5147796
          -2.4553445,50.5148304
          -2.4552830,50.5148761
          -2.4552212,50.5149251
          -2.4551853,50.5149754
          -2.4551266,50.5150257
          -2.4550564,50.5150672
          -2.4549789,50.5151146
          -2.4548947,50.5151495
          -2.4548009,50.5151809
          -2.4547007,50.5152114
          -2.4546080,50.5152359
          -2.4545214,50.5152617
          -2.4544698,50.5152628
          -2.4544691,50.5152626
          -2.4544243,50.5152190
          -2.4543878,50.5151810
          -2.4543864,50.5151816
          -2.4543864,50.5151816
          -2.4543864,50.5151816
          -2.4543864,50.5151816
          -2.4543864,50.5151816
          -2.4543864,50.5151816
          -2.4543864,50.5151816
          -2.4543864,50.5151816
          -2.4543864,50.5151816
          -2.4543864,50.5151816
          -2.4543864,50.5151816
          -2.4543673,50.5152072
          -2.4542747,50.5152435
          -2.4541799,50.5152668
          -2.4541052,50.5153118
          -2.4540246,50.5153468
          -2.4539469,50.5153857
          -2.4538947,50.5154456
          -2.4538327,50.5154960
          -2.4537961,50.5155484
          -2.4537084,50.5155832
          -2.4536059,50.5155826
          -2.4535154,50.5155921
          -2.4534194,50.5156065
          -2.4533389,50.5156292
          -2.4532573,50.5156598
          -2.4531765,50.5157051
          -2.4531631,50.5157706
          -2.4531268,50.5158301
          -2.4530831,50.5158873
          -2.4530464,50.5159410
          -2.4529898,50.5159987
          -2.4529481,50.5160536
          -2.4528998,50.5161067
          -2.4528518,50.5161747
          -2.4528104,50.5162373
          -2.4527626,50.5162905
          -2.4526956,50.5163448
          -2.4526115,50.5163910
          -2.4525362,50.5164295
          -2.4524501,50.5164537
          -2.4523523,50.5164553
          -2.4523082,50.5165053
          -2.4522585,50.5165506
          -2.4521986,50.5166046
          -2.4521581,50.5166668
          -2.4521047,50.5167289
          -2.4520526,50.5167864
          -2.4520466,50.5168494
          -2.4519898,50.5169090
          -2.4518925,50.5169439
          -2.4517893,50.5169643
          -2.4516809,50.5169674
          -2.4515861,50.5169825
          -2.4514790,50.5169889
          -2.4513753,50.5170104
          -2.4512762,50.5170347
          -2.4511692,50.5170478
          -2.4510614,50.5170576
          -2.4509583,50.5170506
          -2.4508499,50.5170446
          -2.4507589,50.5170676
          -2.4506759,50.5170711
          -2.4505954,50.5171063
          -2.4505896,50.5171669
          -2.4505770,50.5172317
          -2.4505309,50.5172848
          -2.4504647,50.5173251
          -2.4503889,50.5173717
          -2.4503159,50.5174199
          -2.4502549,50.5174660
          -2.4501902,50.5175158
          -2.4501424,50.5175500
          -2.4500703,50.5175708
          -2.4500127,50.5176180
          -2.4499887,50.5176798
          -2.4499192,50.5177223
          -2.4498918,50.5177775
          -2.4498601,50.5178219
          -2.4497990,50.5178689
          -2.4497394,50.5179161
          -2.4496779,50.5179513
          -2.4496386,50.5179810
          -2.4496280,50.5180035
          -2.4495723,50.5180539
          -2.4495169,50.5181005
          -2.4494602,50.5181496
          -2.4493983,50.5181931
          -2.4493279,50.5182457
          -2.4492526,50.5182876
          -2.4491911,50.5183291
          -2.4491206,50.5183766
          -2.4490696,50.5184258
          -2.4489743,50.5184579
          -2.4488775,50.5184656
          -2.4487919,50.5184770
          -2.4487474,50.5185217
          -2.4486687,50.5185658
          -2.4485884,50.5186020
          -2.4485178,50.5186465
          -2.4484558,50.5186964
          -2.4483880,50.5187402
          -2.4483160,50.5187635
          -2.4482635,50.5187780
          -2.4481894,50.5188091
          -2.4480981,50.5187997
          -2.4480015,50.5188072
          -2.4479003,50.5188119
          -2.4477993,50.5188212
          -2.4477207,50.5188570
          -2.4476559,50.5189051
          -2.4475991,50.5189556
          -2.4475604,50.5190099
          -2.4475407,50.5190621
          -2.4475492,50.5191213
          -2.4475527,50.5191765
          -2.4475876,50.5192199
          -2.4476223,50.5192674
          -2.4476662,50.5193019
          -2.4476811,50.5193591
          -2.4476549,50.5194189
          -2.4476064,50.5194710
          -2.4475500,50.5195216
          -2.4474667,50.5195593
          -2.4473841,50.5195742
          -2.4472881,50.5195822
          -2.4472025,50.5195643
          -2.4471250,50.5195256
          -2.4470429,50.5194880
          -2.4469739,50.5194491
          -2.4469348,50.5194257
          -2.4469945,50.5194433
          -2.4469929,50.5194424
          -2.4469704,50.5194345
          -2.4468580,50.5194144
          -2.4467578,50.5194078
          -2.4466685,50.5193716
          -2.4465752,50.5193482
          -2.4464752,50.5193414
          -2.4463699,50.5193402
          -2.4462693,50.5193573
          -2.4461817,50.5193868
          -2.4460946,50.5194273
          -2.4460142,50.5194741
          -2.4459372,50.5195136
          -2.4458591,50.5195581
          -2.4457797,50.5196044
          -2.4457015,50.5196493
          -2.4456264,50.5196962
          -2.4455393,50.5197361
          -2.4454476,50.5197714
          -2.4453588,50.5198040
          -2.4452733,50.5198393
          -2.4451741,50.5198571
          -2.4450663,50.5198671
          -2.4449624,50.5198730
          -2.4448669,50.5198986
          -2.4447753,50.5199226
          -2.4446781,50.5199540
          -2.4446018,50.5199877
          -2.4445200,50.5200200
          -2.4444340,50.5200460
          -2.4443423,50.5200779
          -2.4442879,50.5201180
          -2.4442478,50.5201692
          -2.4441619,50.5202021
          -2.4441008,50.5202444
          -2.4440196,50.5202805
          -2.4439392,50.5203187
          -2.4438522,50.5203577
          -2.4437730,50.5204012
          -2.4436920,50.5204363
          -2.4436119,50.5204700
          -2.4435303,50.5205129
          -2.4434619,50.5205575
          -2.4433928,50.5206014
          -2.4433187,50.5206430
          -2.4432586,50.5206940
          -2.4432161,50.5207523
          -2.4431778,50.5208092
          -2.4431637,50.5208695
          -2.4431331,50.5209224
          -2.4431374,50.5209694
          -2.4430855,50.5210108
          -2.4430997,50.5210754
          -2.4430591,50.5211382
          -2.4430387,50.5211996
          -2.4430353,50.5212617
          -2.4430603,50.5213263
          -2.4430908,50.5213847
          -2.4430773,50.5214423
          -2.4430620,50.5215047
          -2.4430646,50.5215639
          -2.4430450,50.5216319
          -2.4430405,50.5216995
          -2.4430338,50.5217619
          -2.4430160,50.5218267
          -2.4429856,50.5218853
          -2.4429290,50.5219303
          -2.4428684,50.5219715
          -2.4428333,50.5220113
          -2.4427835,50.5220368
          -2.4427447,50.5220739
          -2.4427590,50.5221395
          -2.4427314,50.5221994
          -2.4426839,50.5222505
          -2.4426349,50.5223061
          -2.4426218,50.5223623
          -2.4426208,50.5224229
          -2.4425777,50.5224783
          -2.4425537,50.5225388
          -2.4425259,50.5225879
          -2.4425075,50.5226490
          -2.4424986,50.5227010
          -2.4424569,50.5227608
          -2.4424180,50.5228095
          -2.4423856,50.5228530
          -2.4423428,50.5228777
          -2.4422809,50.5228959
          -2.4422206,50.5229207
          -2.4421634,50.5229424
          -2.4421081,50.5229748
          -2.4420653,50.5230077
          -2.4420647,50.5230123
          -2.4420676,50.5230216
          -2.4420564,50.5230869
          -2.4420330,50.5231425
          -2.4420501,50.5231850
          -2.4420786,50.5232112
          -2.4420568,50.5232362
          -2.4420314,50.5232605
          -2.4420314,50.5232603
          -2.4420314,50.5232603
          -2.4420314,50.5232603
          -2.4420314,50.5232603
          -2.4420314,50.5232603
          -2.4419963,50.5232401
          -2.4419593,50.5232288
          -2.4419620,50.5232288
          -2.4419620,50.5232288
          -2.4419620,50.5232288
          -2.4419606,50.5232174
          -2.4419574,50.5232189
          -2.4419620,50.5232288
          -2.4419620,50.5232288
          -2.4419620,50.5232288
          -2.4419620,50.5232288
          -2.4419708,50.5232201
          -2.4419620,50.5232288
          -2.4419620,50.5232288
          -2.4419620,50.5232288
          -2.4419620,50.5232288
          -2.4419620,50.5232288
          -2.4419620,50.5232288
          -2.4419620,50.5232288
          -2.4419708,50.5232207
          -2.4419620,50.5232288
          -2.4419620,50.5232288
          -2.4419620,50.5232288
          -2.4419620,50.5232288
          -2.4419620,50.5232288
          -2.4419620,50.5232288
          -2.4419620,50.5232288
          -2.4419620,50.5232288
          -2.4419620,50.5232288
          -2.4419620,50.5232288
          -2.4419620,50.5232288
          -2.4419620,50.5232288
          -2.4419620,50.5232288
          -2.4419620,50.5232288
          -2.4419620,50.5232288
          -2.4419563,50.5232156
          -2.4419563,50.5232156
          -2.4419638,50.5232000
          -2.4419736,50.5231978
          -2.4420001,50.5231841
          -2.4420317,50.5231445
          -2.4420392,50.5230905
          -2.4420504,50.5230315
          -2.4420690,50.5229784
          -2.4421112,50.5229549
          -2.4421525,50.5229326
          -2.4422026,50.5229129
          -2.4422656,50.5228981
          -2.4423174,50.5228822
          -2.4423671,50.5228607
          -2.4423946,50.5228357
          -2.4424189,50.5227991
          -2.4424408,50.5227580
          -2.4424784,50.5227441
          -2.4424862,50.5226936
          -2.4425090,50.5226575
          -2.4425217,50.5226135
          -2.4425184,50.5225667
          -2.4425196,50.5225211
          -2.4425482,50.5224814
          -2.4425701,50.5224352
          -2.4425983,50.5223856
          -2.4426096,50.5223341
          -2.4426245,50.5222736
          -2.4426847,50.5222296
          -2.4427372,50.5221789
          -2.4427484,50.5221238
          -2.4427428,50.5220672
          -2.4427922,50.5220257
          -2.4428295,50.5219922
          -2.4428851,50.5219584
          -2.4429480,50.5219247
          -2.4429965,50.5218792
          -2.4430203,50.5218235
          -2.4430448,50.5217686
          -2.4430578,50.5217061
          -2.4430642,50.5216462
          -2.4430841,50.5215865
          -2.4430954,50.5215276
          -2.4430923,50.5214634
          -2.4431164,50.5214058
          -2.4431067,50.5213423
          -2.4430846,50.5212688
          -2.4431200,50.5212135
          -2.4431100,50.5211510
          -2.4431328,50.5210924
          -2.4431285,50.5210358
          -2.4431310,50.5209869
          -2.4431824,50.5209440
          -2.4432043,50.5208856
          -2.4431889,50.5208193
          -2.4432095,50.5207535
          -2.4432607,50.5206938
          -2.4433213,50.5206405
          -2.4433857,50.5205902
          -2.4434536,50.5205471
          -2.4435334,50.5204978
          -2.4436134,50.5204625
          -2.4436906,50.5204301
          -2.4437662,50.5203848
          -2.4438555,50.5203562
          -2.4439478,50.5203281
          -2.4440401,50.5203097
          -2.4441263,50.5202919
          -2.4442138,50.5202615
          -2.4443145,50.5202420
          -2.4443967,50.5202059
          -2.4444700,50.5201650
          -2.4444948,50.5200964
          -2.4445416,50.5200403
          -2.4446184,50.5199864
          -2.4447127,50.5199595
          -2.4447994,50.5199303
          -2.4448933,50.5199022
          -2.4449898,50.5198870
          -2.4450369,50.5198566
          -2.4450359,50.5198441
          -2.4450359,50.5198441
          -2.4450359,50.5198441
          -2.4450359,50.5198441
          -2.4450359,50.5198441
          -2.4450359,50.5198441
          -2.4450359,50.5198441
          -2.4450359,50.5198441
          -2.4450359,50.5198441
          -2.4450359,50.5198441
          -2.4450359,50.5198441
          -2.4450359,50.5198441
          -2.4450359,50.5198441
          -2.4450359,50.5198441
          -2.4450359,50.5198441
          -2.4450359,50.5198441
          -2.4450359,50.5198441
          -2.4450359,50.5198441
          -2.4450359,50.5198441
          -2.4450359,50.5198441
          -2.4450359,50.5198441
          -2.4450359,50.5198441
          -2.4450920,50.5198484
          -2.4451996,50.5198313
          -2.4452923,50.5198090
          -2.4453880,50.5197929
          -2.4454952,50.5197668
          -2.4455800,50.5197277
          -2.4456509,50.5196748
          -2.4457430,50.5196291
          -2.4458154,50.5195878
          -2.4458947,50.5195410
          -2.4459766,50.5194890
          -2.4460539,50.5194473
          -2.4461330,50.5194042
          -2.4462251,50.5193739
          -2.4463112,50.5193464
          -2.4464073,50.5193433
          -2.4465073,50.5193479
          -2.4466041,50.5193659
          -2.4466811,50.5193956
          -2.4467647,50.5194270
          -2.4468670,50.5194319
          -2.4469521,50.5194521
          -2.4470270,50.5194785
          -2.4471035,50.5195185
          -2.4471815,50.5195481
          -2.4472683,50.5195749
          -2.4473687,50.5195573
          -2.4474542,50.5195289
          -2.4475348,50.5194960
          -2.4476178,50.5194621
          -2.4476695,50.5194095
          -2.4477073,50.5193506
          -2.4477201,50.5192920
          -2.4477216,50.5192407
          -2.4477340,50.5191842
          -2.4477578,50.5191408
          -2.4478199,50.5190923
          -2.4478829,50.5190643
          -2.4479749,50.5190187
          -2.4480314,50.5189695
          -2.4481080,50.5189218
          -2.4481665,50.5188860
          -2.4481616,50.5188250
          -2.4482072,50.5187946
          -2.4482647,50.5187529
          -2.4483053,50.5187142
          -2.4483447,50.5186870
          -2.4483945,50.5186424
          -2.4484175,50.5186231
          -2.4484073,50.5186234
          -2.4484073,50.5186234
          -2.4484276,50.5186079
          -2.4485279,50.5186208
          -2.4486125,50.5185880
          -2.4487031,50.5185532
          -2.4487670,50.5185110
          -2.4488251,50.5184680
          -2.4489220,50.5184603
          -2.4490204,50.5184468
          -2.4491007,50.5184138
          -2.4491726,50.5183591
          -2.4492382,50.5183134
          -2.4493072,50.5182686
          -2.4493804,50.5182274
          -2.4494468,50.5181773
          -2.4495152,50.5181313
          -2.4495722,50.5180770
          -2.4496125,50.5180242
          -2.4496302,50.5180068
          -2.4496745,50.5179532
          -2.4497587,50.5179157
          -2.4498182,50.5178630
          -2.4498881,50.5178255
          -2.4499570,50.5177760
          -2.4499932,50.5177219
          -2.4500362,50.5176794
          -2.4500539,50.5176314
          -2.4500690,50.5175787
          -2.4501325,50.5175555
          -2.4502124,50.5175227
          -2.4502810,50.5174748
          -2.4503565,50.5174276
          -2.4504115,50.5173806
          -2.4505050,50.5173429
          -2.4505658,50.5172965
          -2.4505918,50.5172265
          -2.4506030,50.5171739
          -2.4506193,50.5171115
          -2.4506918,50.5170650
          -2.4507604,50.5170672
          -2.4508467,50.5170737
          -2.4509572,50.5170582
          -2.4510572,50.5170533
          -2.4511510,50.5170518
          -2.4512500,50.5170422
          -2.4513493,50.5170134
          -2.4514479,50.5169947
          -2.4515425,50.5169832
          -2.4516472,50.5169786
          -2.4516840,50.5169732
          -2.4517698,50.5169705
          -2.4518811,50.5169556
          -2.4519745,50.5169156
          -2.4520354,50.5168663
          -2.4521088,50.5168189
          -2.4521549,50.5167641
          -2.4521521,50.5167020
          -2.4521673,50.5166326
          -2.4522434,50.5165847
          -2.4522734,50.5165273
          -2.4523389,50.5164725
          -2.4524130,50.5164309
          -2.4524945,50.5164078
          -2.4525887,50.5163881
          -2.4526693,50.5163456
          -2.4527402,50.5162959
          -2.4528025,50.5162434
          -2.4528360,50.5161788
          -2.4528708,50.5161127
          -2.4529335,50.5160674
          -2.4529873,50.5160058
          -2.4530240,50.5159382
          -2.4530726,50.5158747
          -2.4531227,50.5158186
          -2.4531725,50.5157641
          -2.4531785,50.5156922
          -2.4532735,50.5156549
          -2.4533622,50.5156141
          -2.4534387,50.5155900
          -2.4535409,50.5155794
          -2.4536361,50.5155832
          -2.4537380,50.5155802
          -2.4538040,50.5155405
          -2.4538397,50.5154884
          -2.4538840,50.5154277
          -2.4539431,50.5153717
          -2.4540354,50.5153497
          -2.4541332,50.5153446
          -2.4542333,50.5153339
          -2.4543321,50.5153210
          -2.4544253,50.5152889
          -2.4545352,50.5152690
          -2.4546233,50.5152367
          -2.4546926,50.5152127
          -2.4547324,50.5151806
          -2.4547332,50.5151314
          -2.4547403,50.5150928
          -2.4547464,50.5150786
          -2.4547464,50.5150786
          -2.4547464,50.5150786
          -2.4547464,50.5150786
          -2.4547464,50.5150786
          -2.4547449,50.5150798
          -2.4547464,50.5150786
          -2.4547464,50.5150786
          -2.4547464,50.5150814
          -2.4547464,50.5150786
          -2.4547595,50.5150900
          -2.4548233,50.5151220
          -2.4549061,50.5151255
          -2.4549703,50.5150916
          -2.4550505,50.5150502
          -2.4551253,50.5150135
          -2.4551967,50.5149729
          -2.4552583,50.5149210
          -2.4553271,50.5148703
          -2.4553790,50.5148164
          -2.4554454,50.5147686
          -2.4555106,50.5147201
          -2.4555924,50.5146856
          -2.4556810,50.5146858
          -2.4557634,50.5147226
          -2.4558324,50.5147615
          -2.4559121,50.5147936
          -2.4559857,50.5148165
          -2.4560804,50.5148312
          -2.4561726,50.5148481
          -2.4562438,50.5148442
          -2.4562575,50.5148581
          -2.4562601,50.5148599
          -2.4562601,50.5148599
          -2.4562932,50.5148875
          -2.4563210,50.5149526
          -2.4564158,50.5149823
          -2.4564993,50.5150105
          -2.4565808,50.5150377
          -2.4566125,50.5150942
          -2.4566183,50.5151552
          -2.4566547,50.5152049
          -2.4566618,50.5152247
          -2.4566575,50.5152248
          -2.4566574,50.5152211
          -2.4566594,50.5152163
          -2.4566471,50.5152293
          -2.4566742,50.5152212
          -2.4566787,50.5152225
          -2.4566682,50.5152296
          -2.4566631,50.5152226
          -2.4566486,50.5152226
          -2.4566546,50.5152223
          -2.4566686,50.5152220
          -2.4566651,50.5152202
          -2.4566694,50.5152218
          -2.4566625,50.5152234
          -2.4566656,50.5152391
          -2.4566124,50.5152269
          -2.4566553,50.5152251
          -2.4566563,50.5152246
          -2.4566707,50.5152355
          -2.4566663,50.5152352
          -2.4566441,50.5152356
          -2.4565024,50.5152641
          -2.4563415,50.5153716
          -2.4561851,50.5155361
          -2.4560586,50.5156272
          -2.4560217,50.5159004
          -2.4560352,50.5163188
          -2.4560021,50.5168268
          -2.4557300,50.5173065
          -2.4551348,50.5176179
          -2.4546465,50.5180092
          -2.4549383,50.5184948
        </coordinates>
      </LineString>
    </Placemark>
  </Document>
</kml>
