<?xml version="1.0" encoding="UTF-8"?>
<kml xmlns="http://www.opengis.net/kml/2.2" xmlns:xsi="http://www.w3.org/2001/XMLSchema-instance" xsi:schemaLocation="http://www.opengis.net/kml/2.2 http://schemas.opengis.net/kml/2.2.0/ogckml22.xsd">
  <Document>
    <name>GPS Wizard</name>
    <open>1</open>
    <Style id="wizard">
      <LineStyle>
        <color>a00000ff</color>
        <width>2</width>
      </LineStyle>
    </Style>
    <Placemark>
      <name>TBC</name>
      <styleUrl>#wizard</styleUrl>
      <LineString>
        <extrude>1</extrude>
        <tessellate>1</tessellate>
        <coordinates>
          -2.4696401,50.5861109
          -2.4696414,50.5861101
          -2.4696414,50.5861095
          -2.4696422,50.5861100
          -2.4696393,50.5861216
          -2.4696181,50.5861743
          -2.4696025,50.5862224
          -2.4695853,50.5862734
          -2.4695616,50.5863203
          -2.4695377,50.5863725
          -2.4695033,50.5864288
          -2.4694803,50.5864749
          -2.4694595,50.5865235
          -2.4694301,50.5865756
          -2.4694051,50.5866183
          -2.4693748,50.5866835
          -2.4693588,50.5867318
          -2.4693363,50.5867864
          -2.4693129,50.5868353
          -2.4692816,50.5868942
          -2.4692606,50.5869458
          -2.4692222,50.5869969
          -2.4691863,50.5870431
          -2.4691406,50.5870860
          -2.4690939,50.5871342
          -2.4690603,50.5871867
          -2.4690290,50.5872405
          -2.4690080,50.5872911
          -2.4689817,50.5873326
          -2.4689515,50.5873902
          -2.4689230,50.5874470
          -2.4688961,50.5875014
          -2.4688753,50.5875505
          -2.4688706,50.5876077
          -2.4688491,50.5876558
          -2.4688252,50.5877129
          -2.4687965,50.5877792
          -2.4687711,50.5878242
          -2.4687355,50.5878800
          -2.4687092,50.5879443
          -2.4686832,50.5880005
          -2.4686461,50.5880606
          -2.4686206,50.5881187
          -2.4685856,50.5881757
          -2.4685606,50.5882329
          -2.4685370,50.5882922
          -2.4685088,50.5883516
          -2.4684855,50.5884066
          -2.4684510,50.5884614
          -2.4684265,50.5885240
          -2.4683980,50.5885794
          -2.4683743,50.5886308
          -2.4683417,50.5886899
          -2.4683132,50.5887493
          -2.4682807,50.5888040
          -2.4682554,50.5888652
          -2.4682214,50.5889307
          -2.4681951,50.5889879
          -2.4681541,50.5890454
          -2.4681282,50.5891077
          -2.4680973,50.5891700
          -2.4680676,50.5892340
          -2.4680460,50.5892913
          -2.4680148,50.5893545
          -2.4679818,50.5894096
          -2.4679464,50.5894689
          -2.4679230,50.5895280
          -2.4678922,50.5895850
          -2.4678663,50.5896475
          -2.4678283,50.5897052
          -2.4678096,50.5897610
          -2.4677794,50.5898155
          -2.4677475,50.5898719
          -2.4677138,50.5899336
          -2.4676854,50.5899952
          -2.4676523,50.5900550
          -2.4676242,50.5901115
          -2.4675937,50.5901712
          -2.4675600,50.5902331
          -2.4675320,50.5902915
          -2.4675044,50.5903478
          -2.4674768,50.5904113
          -2.4674471,50.5904692
          -2.4674182,50.5905334
          -2.4673970,50.5905887
          -2.4673751,50.5906509
          -2.4673641,50.5907064
          -2.4673457,50.5907631
          -2.4673169,50.5908291
          -2.4672785,50.5908956
          -2.4672521,50.5909592
          -2.4672188,50.5910156
          -2.4671961,50.5910758
          -2.4671648,50.5911263
          -2.4671297,50.5911903
          -2.4671026,50.5912538
          -2.4670734,50.5913176
          -2.4670514,50.5913735
          -2.4670224,50.5914366
          -2.4670007,50.5914909
          -2.4669686,50.5915531
          -2.4669488,50.5916114
          -2.4669152,50.5916731
          -2.4668967,50.5917265
          -2.4668622,50.5917874
          -2.4668400,50.5918490
          -2.4667975,50.5919082
          -2.4667601,50.5919606
          -2.4667181,50.5920194
          -2.4666862,50.5920770
          -2.4666450,50.5921370
          -2.4666129,50.5921959
          -2.4665732,50.5922503
          -2.4665233,50.5923118
          -2.4664858,50.5923693
          -2.4664345,50.5924280
          -2.4663928,50.5924874
          -2.4663546,50.5925420
          -2.4663131,50.5925936
          -2.4662743,50.5926521
          -2.4662199,50.5927167
          -2.4661718,50.5927721
          -2.4661131,50.5928230
          -2.4660661,50.5928794
          -2.4660118,50.5929282
          -2.4659568,50.5929842
          -2.4659043,50.5930336
          -2.4658478,50.5930858
          -2.4657996,50.5931364
          -2.4657363,50.5931925
          -2.4656803,50.5932461
          -2.4656264,50.5933016
          -2.4655778,50.5933555
          -2.4655258,50.5934065
          -2.4654753,50.5934545
          -2.4654285,50.5934989
          -2.4653736,50.5935488
          -2.4653196,50.5935982
          -2.4652550,50.5936586
          -2.4651887,50.5937126
          -2.4651341,50.5937639
          -2.4650689,50.5938142
          -2.4650098,50.5938641
          -2.4649537,50.5939131
          -2.4648889,50.5939632
          -2.4648343,50.5940133
          -2.4647746,50.5940645
          -2.4647176,50.5941189
          -2.4646548,50.5941674
          -2.4645819,50.5942082
          -2.4645165,50.5942500
          -2.4644517,50.5942925
          -2.4643846,50.5943389
          -2.4643217,50.5943943
          -2.4642537,50.5944418
          -2.4641907,50.5944875
          -2.4641106,50.5945314
          -2.4640408,50.5945761
          -2.4639686,50.5946194
          -2.4639099,50.5946620
          -2.4638344,50.5947007
          -2.4637727,50.5947399
          -2.4637026,50.5947815
          -2.4636351,50.5948254
          -2.4635584,50.5948696
          -2.4634968,50.5949117
          -2.4634172,50.5949532
          -2.4633543,50.5949990
          -2.4632781,50.5950424
          -2.4632114,50.5950909
          -2.4631403,50.5951378
          -2.4630893,50.5951702
          -2.4630807,50.5951786
          -2.4630207,50.5952208
          -2.4629669,50.5952641
          -2.4628858,50.5953084
          -2.4628239,50.5953556
          -2.4627570,50.5954074
          -2.4626970,50.5954543
          -2.4626322,50.5954954
          -2.4625824,50.5955382
          -2.4625222,50.5955878
          -2.4624638,50.5956442
          -2.4624017,50.5956941
          -2.4623286,50.5957482
          -2.4622561,50.5957880
          -2.4621711,50.5957669
          -2.4620784,50.5957389
          -2.4620055,50.5957419
          -2.4619401,50.5957752
          -2.4618742,50.5958094
          -2.4618095,50.5958351
          -2.4617424,50.5958103
          -2.4616901,50.5957800
          -2.4616549,50.5957540
          -2.4616095,50.5957187
          -2.4616199,50.5957010
          -2.4616215,50.5957009
          -2.4616180,50.5957009
          -2.4616147,50.5957009
          -2.4616099,50.5957001
          -2.4616005,50.5956786
          -2.4615876,50.5956498
          -2.4615789,50.5956338
          -2.4615675,50.5956324
          -2.4615160,50.5956252
          -2.4614594,50.5956103
          -2.4614087,50.5955832
          -2.4613666,50.5955614
          -2.4613440,50.5955584
          -2.4613433,50.5955584
          -2.4613439,50.5955579
          -2.4613459,50.5955555
          -2.4613470,50.5955551
          -2.4613482,50.5955549
          -2.4613494,50.5955546
          -2.4613506,50.5955545
          -2.4613517,50.5955545
          -2.4613529,50.5955544
          -2.4613539,50.5955543
          -2.4613548,50.5955541
          -2.4613557,50.5955540
          -2.4613563,50.5955538
          -2.4613565,50.5955532
          -2.4613567,50.5955524
          -2.4613719,50.5955640
          -2.4614257,50.5955983
          -2.4614984,50.5956304
          -2.4615653,50.5956501
          -2.4615868,50.5956940
          -2.4616307,50.5957288
          -2.4616450,50.5957406
          -2.4616451,50.5957406
          -2.4616477,50.5957415
          -2.4616474,50.5957410
          -2.4616469,50.5957407
          -2.4616473,50.5957407
          -2.4616660,50.5957508
          -2.4617067,50.5957752
          -2.4617495,50.5958072
          -2.4617782,50.5958400
          -2.4617549,50.5958860
          -2.4617396,50.5959004
          -2.4616919,50.5959466
          -2.4616258,50.5959877
          -2.4615901,50.5960259
          -2.4615345,50.5960671
          -2.4614746,50.5960969
          -2.4613989,50.5961088
          -2.4613369,50.5960688
          -2.4613184,50.5960542
          -2.4613162,50.5960785
          -2.4613353,50.5960941
          -2.4613460,50.5961492
          -2.4613009,50.5961953
          -2.4612558,50.5962273
          -2.4612545,50.5962284
          -2.4612534,50.5962361
          -2.4612352,50.5962737
          -2.4612020,50.5963307
          -2.4611591,50.5963785
          -2.4611214,50.5964240
          -2.4610839,50.5964709
          -2.4610498,50.5965139
          -2.4610138,50.5965659
          -2.4609772,50.5966183
          -2.4609338,50.5966726
          -2.4608928,50.5967179
          -2.4608516,50.5967640
          -2.4608099,50.5968139
          -2.4607692,50.5968609
          -2.4607403,50.5969139
          -2.4607024,50.5969630
          -2.4606625,50.5970100
          -2.4606150,50.5970532
          -2.4605726,50.5971033
          -2.4605395,50.5971462
          -2.4605094,50.5971946
          -2.4604905,50.5972503
          -2.4604729,50.5973002
          -2.4604570,50.5973541
          -2.4604403,50.5974010
          -2.4604237,50.5974371
          -2.4604010,50.5974437
          -2.4603502,50.5974592
          -2.4602939,50.5974806
          -2.4602502,50.5974953
          -2.4602014,50.5975022
          -2.4601700,50.5975135
          -2.4601673,50.5975144
          -2.4601364,50.5975206
          -2.4600938,50.5975352
          -2.4600457,50.5975630
          -2.4599976,50.5975875
          -2.4599473,50.5975996
          -2.4598750,50.5976190
          -2.4598112,50.5976322
          -2.4597313,50.5976405
          -2.4596669,50.5976379
          -2.4596079,50.5976417
          -2.4595627,50.5976618
          -2.4595546,50.5976716
          -2.4595577,50.5976796
          -2.4595580,50.5976844
          -2.4595492,50.5976829
          -2.4595361,50.5976738
          -2.4595288,50.5976504
          -2.4595189,50.5976210
          -2.4595112,50.5975959
          -2.4594967,50.5975684
          -2.4594596,50.5975366
          -2.4594083,50.5975115
          -2.4593617,50.5974934
          -2.4593109,50.5974877
          -2.4592646,50.5975084
          -2.4592226,50.5975430
          -2.4591774,50.5975799
          -2.4591320,50.5976150
          -2.4590758,50.5976431
          -2.4590268,50.5976783
          -2.4589724,50.5977103
          -2.4589094,50.5977380
          -2.4588414,50.5977635
          -2.4587697,50.5977850
          -2.4586981,50.5978099
          -2.4586212,50.5978229
          -2.4585539,50.5978415
          -2.4584793,50.5978570
          -2.4584043,50.5978763
          -2.4583268,50.5978951
          -2.4582518,50.5979092
          -2.4581802,50.5979240
          -2.4581110,50.5979443
          -2.4580420,50.5979589
          -2.4579728,50.5979821
          -2.4579281,50.5980200
          -2.4578649,50.5980434
          -2.4578029,50.5980731
          -2.4577362,50.5981024
          -2.4576761,50.5981321
          -2.4576103,50.5981572
          -2.4575432,50.5981792
          -2.4574755,50.5981991
          -2.4574038,50.5982152
          -2.4573299,50.5982326
          -2.4572574,50.5982466
          -2.4571966,50.5982662
          -2.4571240,50.5982878
          -2.4570523,50.5983097
          -2.4569762,50.5983318
          -2.4569144,50.5983605
          -2.4568576,50.5983927
          -2.4567962,50.5984197
          -2.4567341,50.5984337
          -2.4566710,50.5984413
          -2.4566014,50.5984533
          -2.4565326,50.5984515
          -2.4564787,50.5984742
          -2.4564221,50.5984920
          -2.4563642,50.5985097
          -2.4563093,50.5985241
          -2.4562959,50.5985288
          -2.4562435,50.5985465
          -2.4561921,50.5985595
          -2.4561738,50.5985624
          -2.4561659,50.5985664
          -2.4561113,50.5985850
          -2.4560670,50.5986034
          -2.4560696,50.5986019
          -2.4560708,50.5986017
          -2.4560711,50.5986021
          -2.4560584,50.5986110
          -2.4560000,50.5986285
          -2.4559476,50.5986350
          -2.4559060,50.5986486
          -2.4558823,50.5986673
          -2.4558399,50.5986952
          -2.4558280,50.5987010
          -2.4558294,50.5987011
          -2.4558309,50.5987019
          -2.4558227,50.5987045
          -2.4557777,50.5987157
          -2.4557553,50.5987184
          -2.4557523,50.5987191
          -2.4557038,50.5987311
          -2.4556584,50.5987494
          -2.4556256,50.5987794
          -2.4556152,50.5987855
          -2.4555994,50.5988019
          -2.4555782,50.5988336
          -2.4555331,50.5988548
          -2.4554917,50.5988855
          -2.4554722,50.5989002
          -2.4554961,50.5989205
          -2.4554992,50.5989569
          -2.4554628,50.5989879
          -2.4554008,50.5990146
          -2.4553605,50.5990284
          -2.4553089,50.5990408
          -2.4552476,50.5990607
          -2.4551921,50.5990708
          -2.4551353,50.5990853
          -2.4550690,50.5991074
          -2.4550126,50.5991253
          -2.4549506,50.5991390
          -2.4548926,50.5991414
          -2.4548361,50.5991557
          -2.4547847,50.5991790
          -2.4547261,50.5992049
          -2.4546686,50.5992236
          -2.4546087,50.5992441
          -2.4545460,50.5992624
          -2.4544879,50.5992798
          -2.4544401,50.5992977
          -2.4543850,50.5993142
          -2.4543347,50.5993327
          -2.4542708,50.5993504
          -2.4542172,50.5993665
          -2.4541586,50.5993743
          -2.4541005,50.5993790
          -2.4540431,50.5993903
          -2.4539951,50.5994106
          -2.4539453,50.5994320
          -2.4538869,50.5994480
          -2.4538287,50.5994622
          -2.4537760,50.5994804
          -2.4537392,50.5994924
          -2.4536864,50.5995038
          -2.4536292,50.5995049
          -2.4535727,50.5995113
          -2.4535282,50.5995238
          -2.4534890,50.5995315
          -2.4534532,50.5995331
          -2.4533920,50.5995282
          -2.4533481,50.5995245
          -2.4533320,50.5995240
          -2.4533113,50.5995292
          -2.4532568,50.5995498
          -2.4532169,50.5995591
          -2.4531760,50.5995790
          -2.4531305,50.5995981
          -2.4530919,50.5995980
          -2.4530640,50.5996062
          -2.4530649,50.5996090
          -2.4530645,50.5996107
          -2.4530635,50.5996121
          -2.4530623,50.5996136
          -2.4530612,50.5996147
          -2.4530607,50.5996152
          -2.4530606,50.5996157
          -2.4530637,50.5996387
          -2.4530486,50.5996675
          -2.4530167,50.5996784
          -2.4529691,50.5996956
          -2.4529236,50.5997109
          -2.4528969,50.5997192
          -2.4528320,50.5997261
          -2.4527832,50.5997364
          -2.4527392,50.5997465
          -2.4526893,50.5997606
          -2.4526521,50.5997778
          -2.4526172,50.5998100
          -2.4525753,50.5998335
          -2.4525139,50.5998478
          -2.4524631,50.5998694
          -2.4524159,50.5998894
          -2.4523738,50.5999267
          -2.4523279,50.5999363
          -2.4523243,50.5999386
          -2.4522985,50.5999343
          -2.4522821,50.5999332
          -2.4522689,50.5999325
          -2.4522445,50.5999333
          -2.4522438,50.5999333
          -2.4522440,50.5999333
          -2.4522444,50.5999333
          -2.4522447,50.5999334
          -2.4522452,50.5999334
          -2.4522459,50.5999335
          -2.4522468,50.5999333
          -2.4522538,50.5999297
          -2.4522546,50.5999296
          -2.4522547,50.5999300
          -2.4522547,50.5999301
          -2.4522547,50.5999302
          -2.4522547,50.5999303
          -2.4522547,50.5999305
          -2.4522547,50.5999307
          -2.4522547,50.5999310
          -2.4522548,50.5999313
          -2.4522549,50.5999314
          -2.4522587,50.5999296
          -2.4522618,50.5999274
          -2.4522616,50.5999275
          -2.4522611,50.5999275
          -2.4522605,50.5999274
          -2.4522600,50.5999273
          -2.4522595,50.5999275
          -2.4522590,50.5999280
          -2.4522585,50.5999286
          -2.4522596,50.5999287
          -2.4522845,50.5999305
          -2.4522887,50.5999347
          -2.4522860,50.5999321
          -2.4522953,50.5999250
          -2.4523201,50.5999320
          -2.4523431,50.5999356
          -2.4523647,50.5999223
          -2.4523930,50.5999006
          -2.4524376,50.5998757
          -2.4524903,50.5998600
          -2.4525208,50.5998467
          -2.4525682,50.5998311
          -2.4525971,50.5998066
          -2.4526173,50.5997901
          -2.4526667,50.5997834
          -2.4527108,50.5997701
          -2.4527436,50.5997577
          -2.4527760,50.5997407
          -2.4528055,50.5997261
          -2.4528356,50.5997027
          -2.4528848,50.5996791
          -2.4529002,50.5996763
          -2.4529076,50.5996780
          -2.4529410,50.5996872
          -2.4529834,50.5996825
          -2.4530211,50.5996698
          -2.4530572,50.5996546
          -2.4530847,50.5996452
          -2.4530853,50.5996471
          -2.4530981,50.5996385
          -2.4531381,50.5996220
          -2.4531455,50.5996228
          -2.4531750,50.5996206
          -2.4532094,50.5996214
          -2.4532263,50.5996098
          -2.4532600,50.5995930
          -2.4532907,50.5995915
          -2.4533168,50.5995870
          -2.4533327,50.5995732
          -2.4533626,50.5995489
          -2.4534024,50.5995318
          -2.4534172,50.5995276
          -2.4534599,50.5995213
          -2.4535024,50.5995156
          -2.4535534,50.5995089
          -2.4536040,50.5994995
          -2.4536423,50.5994871
          -2.4536826,50.5994766
          -2.4537257,50.5994803
          -2.4537734,50.5994830
          -2.4538329,50.5994784
          -2.4538758,50.5994626
          -2.4539177,50.5994461
          -2.4539634,50.5994373
          -2.4540031,50.5994297
          -2.4540567,50.5994132
          -2.4541103,50.5993949
          -2.4541576,50.5993889
          -2.4542105,50.5993799
          -2.4542314,50.5993617
          -2.4542813,50.5993430
          -2.4543328,50.5993299
          -2.4543880,50.5993162
          -2.4544531,50.5993038
          -2.4544927,50.5992904
          -2.4545135,50.5992796
          -2.4545518,50.5992754
          -2.4546188,50.5992603
          -2.4546771,50.5992456
          -2.4547206,50.5992270
          -2.4547926,50.5992122
          -2.4548505,50.5991988
          -2.4549044,50.5991800
          -2.4549610,50.5991587
          -2.4550214,50.5991436
          -2.4550802,50.5991208
          -2.4551376,50.5991009
          -2.4552062,50.5990828
          -2.4552707,50.5990683
          -2.4553290,50.5990616
          -2.4553866,50.5990464
          -2.4554474,50.5990304
          -2.4555059,50.5990038
          -2.4555574,50.5989760
          -2.4555940,50.5989511
          -2.4556280,50.5989168
          -2.4556494,50.5988894
          -2.4556558,50.5988535
          -2.4556753,50.5988129
          -2.4556911,50.5987730
          -2.4557195,50.5987361
          -2.4557545,50.5987119
          -2.4557564,50.5987107
          -2.4557568,50.5987112
          -2.4557574,50.5987120
          -2.4557581,50.5987129
          -2.4557589,50.5987139
          -2.4557598,50.5987153
          -2.4557608,50.5987165
          -2.4557617,50.5987180
          -2.4557625,50.5987194
          -2.4557633,50.5987207
          -2.4557639,50.5987215
          -2.4557810,50.5987175
          -2.4558255,50.5987230
          -2.4558821,50.5987229
          -2.4559186,50.5986972
          -2.4559733,50.5986670
          -2.4560269,50.5986371
          -2.4560840,50.5986107
          -2.4561470,50.5985853
          -2.4562063,50.5985656
          -2.4562684,50.5985469
          -2.4563160,50.5985419
          -2.4563211,50.5985411
          -2.4563226,50.5985432
          -2.4563262,50.5985431
          -2.4563617,50.5985249
          -2.4564182,50.5985051
          -2.4564922,50.5984917
          -2.4565549,50.5984771
          -2.4566162,50.5984764
          -2.4566735,50.5984636
          -2.4567146,50.5984447
          -2.4567659,50.5984149
          -2.4568186,50.5983832
          -2.4568667,50.5983584
          -2.4569308,50.5983372
          -2.4570045,50.5983186
          -2.4570732,50.5982968
          -2.4571400,50.5982750
          -2.4572210,50.5982559
          -2.4572880,50.5982388
          -2.4573604,50.5982169
          -2.4574402,50.5982041
          -2.4575048,50.5981908
          -2.4575686,50.5981736
          -2.4576448,50.5981517
          -2.4577132,50.5981263
          -2.4577783,50.5980959
          -2.4578436,50.5980600
          -2.4579071,50.5980243
          -2.4579776,50.5979939
          -2.4580527,50.5979763
          -2.4581327,50.5979560
          -2.4582148,50.5979378
          -2.4582912,50.5979155
          -2.4583740,50.5978904
          -2.4584364,50.5978617
          -2.4584979,50.5978348
          -2.4585635,50.5978053
          -2.4586454,50.5977857
          -2.4587239,50.5977668
          -2.4588078,50.5977472
          -2.4588837,50.5977262
          -2.4589551,50.5977084
          -2.4590424,50.5976925
          -2.4591133,50.5976700
          -2.4591841,50.5976426
          -2.4592369,50.5976098
          -2.4592922,50.5975821
          -2.4593442,50.5975613
          -2.4594191,50.5975431
          -2.4594624,50.5975506
          -2.4594872,50.5975639
          -2.4595127,50.5975898
          -2.4595263,50.5976128
          -2.4595298,50.5976307
          -2.4595473,50.5976611
          -2.4595658,50.5976801
          -2.4595813,50.5976860
          -2.4596407,50.5976695
          -2.4597010,50.5976658
          -2.4597791,50.5976636
          -2.4598559,50.5976486
          -2.4599290,50.5976247
          -2.4599828,50.5976045
          -2.4600263,50.5975856
          -2.4600877,50.5975571
          -2.4601532,50.5975369
          -2.4602242,50.5975136
          -2.4602882,50.5974867
          -2.4603460,50.5974700
          -2.4603970,50.5974527
          -2.4604262,50.5974289
          -2.4604353,50.5973938
          -2.4604529,50.5973491
          -2.4604568,50.5973006
          -2.4604742,50.5972536
          -2.4605037,50.5972132
          -2.4605259,50.5971594
          -2.4605524,50.5971107
          -2.4605971,50.5970688
          -2.4606624,50.5970318
          -2.4607348,50.5969951
          -2.4607792,50.5969555
          -2.4608174,50.5969099
          -2.4608580,50.5968635
          -2.4608938,50.5968148
          -2.4609339,50.5967606
          -2.4609735,50.5967044
          -2.4610136,50.5966579
          -2.4610588,50.5966062
          -2.4610842,50.5965548
          -2.4611145,50.5965069
          -2.4611502,50.5964569
          -2.4611974,50.5964054
          -2.4612506,50.5963581
          -2.4612924,50.5963080
          -2.4613320,50.5962570
          -2.4613729,50.5962108
          -2.4614273,50.5961668
          -2.4614857,50.5961171
          -2.4615515,50.5960709
          -2.4616009,50.5960259
          -2.4616625,50.5959833
          -2.4617225,50.5959451
          -2.4617756,50.5959037
          -2.4618412,50.5958570
          -2.4618955,50.5958077
          -2.4619590,50.5957607
          -2.4620401,50.5957259
          -2.4621297,50.5957438
          -2.4622019,50.5957721
          -2.4622644,50.5957829
          -2.4623132,50.5957524
          -2.4623620,50.5957062
          -2.4624239,50.5956519
          -2.4624831,50.5956060
          -2.4625476,50.5955619
          -2.4626125,50.5955152
          -2.4626740,50.5954666
          -2.4627316,50.5954223
          -2.4627912,50.5953760
          -2.4628487,50.5953380
          -2.4629060,50.5952837
          -2.4629618,50.5952362
          -2.4630170,50.5951948
          -2.4630821,50.5951507
          -2.4631491,50.5951100
          -2.4632128,50.5950706
          -2.4632666,50.5950361
          -2.4633289,50.5950002
          -2.4633979,50.5949639
          -2.4634537,50.5949176
          -2.4635185,50.5948775
          -2.4635883,50.5948391
          -2.4636562,50.5947978
          -2.4637133,50.5947568
          -2.4637775,50.5947122
          -2.4638455,50.5946772
          -2.4639195,50.5946413
          -2.4639865,50.5946016
          -2.4640629,50.5945628
          -2.4641433,50.5945200
          -2.4642104,50.5944810
          -2.4642756,50.5944294
          -2.4643308,50.5943814
          -2.4643947,50.5943292
          -2.4644542,50.5942845
          -2.4645294,50.5942413
          -2.4645967,50.5942051
          -2.4646673,50.5941611
          -2.4647282,50.5941165
          -2.4647824,50.5940656
          -2.4648337,50.5940169
          -2.4648805,50.5939614
          -2.4649386,50.5939166
          -2.4649999,50.5938642
          -2.4650572,50.5938237
          -2.4651176,50.5937725
          -2.4651762,50.5937252
          -2.4652286,50.5936757
          -2.4652874,50.5936254
          -2.4653398,50.5935771
          -2.4653962,50.5935213
          -2.4654485,50.5934685
          -2.4655071,50.5934156
          -2.4655515,50.5933658
          -2.4655998,50.5933160
          -2.4656525,50.5932671
          -2.4657095,50.5932193
          -2.4657600,50.5931717
          -2.4658140,50.5931175
          -2.4658664,50.5930686
          -2.4659268,50.5930176
          -2.4659834,50.5929619
          -2.4660305,50.5929105
          -2.4660758,50.5928555
          -2.4661188,50.5928113
          -2.4661676,50.5927533
          -2.4662095,50.5927015
          -2.4662526,50.5926463
          -2.4662945,50.5925992
          -2.4663351,50.5925435
          -2.4663704,50.5924895
          -2.4664259,50.5924262
          -2.4664675,50.5923693
          -2.4665091,50.5923136
          -2.4665469,50.5922610
          -2.4665860,50.5922045
          -2.4666199,50.5921503
          -2.4666566,50.5920928
          -2.4666914,50.5920422
          -2.4667354,50.5919839
          -2.4667726,50.5919322
          -2.4668102,50.5918731
          -2.4668405,50.5918160
          -2.4668664,50.5917531
          -2.4668909,50.5916915
          -2.4669202,50.5916374
          -2.4669501,50.5915761
          -2.4669776,50.5915158
          -2.4670030,50.5914503
          -2.4670243,50.5913956
          -2.4670451,50.5913353
          -2.4670746,50.5912877
          -2.4671039,50.5912158
          -2.4671302,50.5911653
          -2.4671577,50.5911071
          -2.4671904,50.5910488
          -2.4672197,50.5909872
          -2.4672471,50.5909297
          -2.4672712,50.5908686
          -2.4672869,50.5908092
          -2.4672935,50.5907464
          -2.4673157,50.5906893
          -2.4673448,50.5906287
          -2.4673747,50.5905693
          -2.4674045,50.5905101
          -2.4674311,50.5904557
          -2.4674584,50.5904005
          -2.4674843,50.5903394
          -2.4675163,50.5902770
          -2.4675479,50.5902206
          -2.4675786,50.5901633
          -2.4676040,50.5901066
          -2.4676304,50.5900513
          -2.4676583,50.5899906
          -2.4676885,50.5899313
          -2.4677164,50.5898725
          -2.4677437,50.5898186
          -2.4677715,50.5897577
          -2.4678061,50.5897041
          -2.4678349,50.5896431
          -2.4678641,50.5895887
          -2.4678915,50.5895309
          -2.4679200,50.5894690
          -2.4679592,50.5894062
          -2.4679870,50.5893484
          -2.4680153,50.5892884
          -2.4680415,50.5892313
          -2.4680714,50.5891732
          -2.4681064,50.5891053
          -2.4681254,50.5890515
          -2.4681593,50.5889838
          -2.4681889,50.5889231
          -2.4682229,50.5888654
          -2.4682498,50.5887984
          -2.4682858,50.5887431
          -2.4683189,50.5886824
          -2.4683480,50.5886278
          -2.4683798,50.5885669
          -2.4684079,50.5885094
          -2.4684371,50.5884390
          -2.4684641,50.5883829
          -2.4685020,50.5883208
          -2.4685266,50.5882599
          -2.4685491,50.5882062
          -2.4685771,50.5881390
          -2.4686048,50.5880872
          -2.4686465,50.5880250
          -2.4686734,50.5879719
          -2.4687012,50.5879113
          -2.4687307,50.5878501
          -2.4687608,50.5877925
          -2.4687855,50.5877290
          -2.4688179,50.5876764
          -2.4688505,50.5876128
          -2.4688833,50.5875584
          -2.4689170,50.5874897
          -2.4689435,50.5874328
          -2.4689718,50.5873727
          -2.4689927,50.5873166
          -2.4690216,50.5872542
          -2.4690485,50.5871959
          -2.4690989,50.5871394
          -2.4691572,50.5870858
          -2.4692245,50.5870383
          -2.4692840,50.5869890
          -2.4693246,50.5869352
          -2.4693504,50.5868700
          -2.4693789,50.5868152
          -2.4694181,50.5867535
          -2.4694518,50.5866971
          -2.4694938,50.5866415
          -2.4695191,50.5865901
          -2.4695507,50.5865298
          -2.4695770,50.5864725
          -2.4696160,50.5864142
          -2.4696543,50.5863600
          -2.4696978,50.5863035
          -2.4697255,50.5862401
          -2.4697496,50.5861887
          -2.4697812,50.5861352
          -2.4698408,50.5861104
          -2.4699026,50.5861227
          -2.4699209,50.5860969
          -2.4699428,50.5860407
          -2.4700245,50.5860057
          -2.4700912,50.5859710
          -2.4701604,50.5859570
          -2.4702176,50.5859361
          -2.4702134,50.5859102
          -2.4701894,50.5858982
          -2.4701815,50.5858941
          -2.4701903,50.5858838
          -2.4702037,50.5858821
          -2.4702092,50.5858769
          -2.4702110,50.5858742
          -2.4702130,50.5858701
          -2.4702148,50.5858511
          -2.4702114,50.5858350
          -2.4702142,50.5858289
          -2.4702215,50.5858269
          -2.4702136,50.5858297
          -2.4702236,50.5858431
          -2.4702232,50.5858417
          -2.4702214,50.5858597
          -2.4702103,50.5858715
          -2.4702043,50.5858722
          -2.4702022,50.5858637
          -2.4702122,50.5858610
          -2.4702071,50.5858890
          -2.4702040,50.5858923
          -2.4702127,50.5858570
          -2.4702260,50.5858413
          -2.4702091,50.5858385
          -2.4702098,50.5858431
          -2.4702049,50.5858476
          -2.4702037,50.5858501
          -2.4702018,50.5858553
          -2.4702003,50.5858595
          -2.4702049,50.5858655
          -2.4702175,50.5858594
          -2.4702242,50.5858539
          -2.4702246,50.5858505
          -2.4702116,50.5858605
          -2.4702081,50.5858707
          -2.4702064,50.5858651
          -2.4702081,50.5858565
          -2.4702091,50.5858594
          -2.4702082,50.5858586
          -2.4702109,50.5858592
          -2.4702094,50.5858566
          -2.4701952,50.5858428
          -2.4701864,50.5858321
          -2.4701932,50.5858247
          -2.4701969,50.5858289
          -2.4701960,50.5858300
          -2.4701948,50.5858324
          -2.4701912,50.5858423
          -2.4701968,50.5858463
          -2.4701993,50.5858514
          -2.4701998,50.5858542
          -2.4702000,50.5858558
          -2.4701979,50.5858568
          -2.4701971,50.5858580
          -2.4701978,50.5858595
          -2.4701883,50.5858543
          -2.4702050,50.5858788
          -2.4702189,50.5858952
          -2.4702212,50.5858872
          -2.4702184,50.5858713
          -2.4702193,50.5858825
          -2.4702143,50.5858904
          -2.4702107,50.5858683
          -2.4702055,50.5858461
          -2.4702090,50.5858410
          -2.4701984,50.5858406
          -2.4701983,50.5858405
          -2.4702016,50.5858408
          -2.4701969,50.5858460
          -2.4701977,50.5858457
          -2.4701917,50.5858518
          -2.4701858,50.5858507
          -2.4701859,50.5858527
          -2.4701849,50.5858517
          -2.4701835,50.5858530
          -2.4701832,50.5858520
          -2.4701815,50.5858591
          -2.4701819,50.5858656
          -2.4701820,50.5858647
          -2.4701723,50.5858688
          -2.4701579,50.5858844
          -2.4701667,50.5858854
          -2.4701806,50.5858796
          -2.4701829,50.5858696
          -2.4701796,50.5858601
          -2.4701773,50.5858529
          -2.4701733,50.5858459
          -2.4701687,50.5858357
          -2.4701733,50.5858313
          -2.4701698,50.5858249
          -2.4701671,50.5858207
          -2.4701739,50.5858220
          -2.4701800,50.5858168
          -2.4701792,50.5858110
          -2.4701763,50.5858139
        </coordinates>
      </LineString>
    </Placemark>
  </Document>
</kml>
