<?xml version="1.0" encoding="UTF-8"?>
<kml xmlns="http://www.opengis.net/kml/2.2" xmlns:xsi="http://www.w3.org/2001/XMLSchema-instance" xsi:schemaLocation="http://www.opengis.net/kml/2.2 http://schemas.opengis.net/kml/2.2.0/ogckml22.xsd">
  <Document>
    <name>GPS Wizard</name>
    <open>1</open>
    <Style id="wizard">
      <LineStyle>
        <color>a00000ff</color>
        <width>2</width>
      </LineStyle>
    </Style>
    <Placemark>
      <name>TBC</name>
      <styleUrl>#wizard</styleUrl>
      <LineString>
        <extrude>1</extrude>
        <tessellate>1</tessellate>
        <coordinates>
          -2.4566424,50.5160204
          -2.4566799,50.5160819
          -2.4567441,50.5161181
          -2.4568122,50.5161464
          -2.4568585,50.5161780
          -2.4568522,50.5162093
          -2.4568918,50.5162402
          -2.4568957,50.5162933
          -2.4569582,50.5163477
          -2.4570109,50.5163889
          -2.4570605,50.5164236
          -2.4571119,50.5164688
          -2.4571463,50.5165155
          -2.4571972,50.5165644
          -2.4572641,50.5165975
          -2.4573314,50.5166082
          -2.4573784,50.5166462
          -2.4574184,50.5166963
          -2.4574582,50.5167475
          -2.4574972,50.5167954
          -2.4575357,50.5168322
          -2.4575811,50.5168831
          -2.4576224,50.5169391
          -2.4576608,50.5169772
          -2.4577015,50.5170106
          -2.4576909,50.5170036
          -2.4576960,50.5170013
          -2.4576909,50.5170036
          -2.4577007,50.5169946
          -2.4576909,50.5170036
          -2.4576909,50.5170036
          -2.4576909,50.5170036
          -2.4577013,50.5169969
          -2.4577341,50.5170466
          -2.4577520,50.5170641
          -2.4577519,50.5170618
          -2.4577519,50.5170618
          -2.4578067,50.5171003
          -2.4578662,50.5171559
          -2.4579197,50.5171997
          -2.4579887,50.5172470
          -2.4580502,50.5172889
          -2.4580954,50.5173340
          -2.4581478,50.5173474
          -2.4582173,50.5173828
          -2.4582688,50.5174284
          -2.4583248,50.5174788
          -2.4583820,50.5175261
          -2.4584395,50.5175725
          -2.4584906,50.5176172
          -2.4585481,50.5176624
          -2.4586065,50.5177095
          -2.4586533,50.5177620
          -2.4586963,50.5178156
          -2.4587528,50.5178662
          -2.4588123,50.5179156
          -2.4588583,50.5179628
          -2.4589207,50.5180070
          -2.4589749,50.5180498
          -2.4590305,50.5181027
          -2.4590918,50.5181486
          -2.4591505,50.5182019
          -2.4592005,50.5182488
          -2.4592512,50.5183007
          -2.4593089,50.5183490
          -2.4593479,50.5183976
          -2.4593740,50.5184562
          -2.4594167,50.5185189
          -2.4594458,50.5185756
          -2.4594756,50.5186347
          -2.4595150,50.5186960
          -2.4595530,50.5187449
          -2.4595750,50.5187927
          -2.4595850,50.5188542
          -2.4595954,50.5189175
          -2.4596062,50.5189678
          -2.4595933,50.5190330
          -2.4595816,50.5190832
          -2.4595651,50.5191348
          -2.4595438,50.5192014
          -2.4595317,50.5192541
          -2.4595055,50.5193208
          -2.4594937,50.5193885
          -2.4594861,50.5194446
          -2.4594677,50.5195055
          -2.4594506,50.5195603
          -2.4594428,50.5196360
          -2.4594320,50.5196935
          -2.4594040,50.5197538
          -2.4593765,50.5198124
          -2.4593425,50.5198614
          -2.4592981,50.5199222
          -2.4592526,50.5199731
          -2.4592044,50.5200219
          -2.4591570,50.5200642
          -2.4591237,50.5201171
          -2.4591087,50.5201827
          -2.4590951,50.5202451
          -2.4590845,50.5203001
          -2.4590688,50.5203524
          -2.4590541,50.5204096
          -2.4590189,50.5204681
          -2.4589937,50.5205167
          -2.4589653,50.5205661
          -2.4589305,50.5206275
          -2.4588963,50.5206935
          -2.4588716,50.5207435
          -2.4588434,50.5207987
          -2.4588150,50.5208567
          -2.4588101,50.5209016
          -2.4587640,50.5209553
          -2.4587077,50.5209942
          -2.4586462,50.5210313
          -2.4585898,50.5210675
          -2.4585361,50.5211108
          -2.4584744,50.5211517
          -2.4584274,50.5211854
          -2.4583714,50.5212237
          -2.4583215,50.5212659
          -2.4582902,50.5213034
          -2.4582409,50.5213414
          -2.4581980,50.5213775
          -2.4581408,50.5214127
          -2.4580809,50.5214523
          -2.4580289,50.5214902
          -2.4579689,50.5215376
          -2.4579179,50.5215791
          -2.4578827,50.5216132
          -2.4578063,50.5216469
          -2.4577421,50.5216811
          -2.4576751,50.5217107
          -2.4576151,50.5217513
          -2.4575863,50.5218023
          -2.4575542,50.5218601
          -2.4575069,50.5219066
          -2.4574627,50.5219528
          -2.4574085,50.5219939
          -2.4573437,50.5220307
          -2.4572864,50.5220778
          -2.4572454,50.5221352
          -2.4571941,50.5221721
          -2.4571413,50.5222104
          -2.4570801,50.5222540
          -2.4570000,50.5222774
          -2.4569095,50.5222781
          -2.4568369,50.5222969
          -2.4567807,50.5223474
          -2.4567232,50.5223830
          -2.4566589,50.5224364
          -2.4566001,50.5224788
          -2.4565486,50.5225276
          -2.4565009,50.5225846
          -2.4564472,50.5226383
          -2.4564104,50.5226913
          -2.4563697,50.5227539
          -2.4563240,50.5228036
          -2.4562835,50.5228620
          -2.4562389,50.5229150
          -2.4561946,50.5229731
          -2.4561468,50.5230281
          -2.4561003,50.5230896
          -2.4560592,50.5231423
          -2.4560223,50.5232054
          -2.4559834,50.5232548
          -2.4559506,50.5233204
          -2.4559203,50.5233709
          -2.4558845,50.5234304
          -2.4558492,50.5234880
          -2.4558108,50.5235548
          -2.4557826,50.5236094
          -2.4557520,50.5236721
          -2.4557083,50.5237282
          -2.4556773,50.5237910
          -2.4556415,50.5238570
          -2.4556212,50.5239167
          -2.4555852,50.5239786
          -2.4555690,50.5240360
          -2.4555318,50.5240986
          -2.4554993,50.5241628
          -2.4554760,50.5242186
          -2.4554512,50.5242786
          -2.4554230,50.5243410
          -2.4553979,50.5243952
          -2.4553636,50.5244602
          -2.4553255,50.5245116
          -2.4553007,50.5245796
          -2.4552685,50.5246368
          -2.4552407,50.5247001
          -2.4552086,50.5247564
          -2.4551842,50.5248169
          -2.4551560,50.5248809
          -2.4551269,50.5249313
          -2.4550988,50.5249955
          -2.4550796,50.5250560
          -2.4550514,50.5251251
          -2.4550239,50.5251758
          -2.4549879,50.5252433
          -2.4549647,50.5252883
          -2.4549395,50.5253630
          -2.4549138,50.5254105
          -2.4548947,50.5254805
          -2.4548791,50.5255302
          -2.4548596,50.5255940
          -2.4548380,50.5256469
          -2.4548175,50.5257060
          -2.4548004,50.5257733
          -2.4547838,50.5258257
          -2.4547677,50.5258893
          -2.4547561,50.5259426
          -2.4547660,50.5260116
          -2.4547747,50.5260768
          -2.4547826,50.5261282
          -2.4547874,50.5261833
          -2.4547929,50.5262446
          -2.4547820,50.5263045
          -2.4547685,50.5263660
          -2.4547596,50.5264269
          -2.4547481,50.5264835
          -2.4547329,50.5265397
          -2.4547231,50.5265840
          -2.4547095,50.5265807
          -2.4547252,50.5265842
          -2.4546959,50.5265747
          -2.4546959,50.5265747
          -2.4546959,50.5265747
          -2.4546959,50.5265747
          -2.4547361,50.5266033
          -2.4547356,50.5266527
          -2.4547313,50.5266480
          -2.4547313,50.5266480
          -2.4547355,50.5266979
          -2.4547460,50.5267346
          -2.4547457,50.5267388
          -2.4547558,50.5268096
          -2.4547603,50.5268625
          -2.4547674,50.5269200
          -2.4547746,50.5269839
          -2.4547755,50.5270363
          -2.4547787,50.5271025
          -2.4547841,50.5271577
          -2.4547932,50.5272205
          -2.4548051,50.5272860
          -2.4548155,50.5273419
          -2.4548196,50.5274058
          -2.4548247,50.5274561
          -2.4548317,50.5275233
          -2.4548429,50.5275835
          -2.4548621,50.5276377
          -2.4548724,50.5277004
          -2.4548791,50.5277493
          -2.4548865,50.5278135
          -2.4548877,50.5278648
          -2.4548969,50.5279288
          -2.4548969,50.5279994
          -2.4549039,50.5280488
          -2.4549138,50.5281186
          -2.4549144,50.5281643
          -2.4549112,50.5282257
          -2.4549105,50.5282955
          -2.4549139,50.5283462
          -2.4549154,50.5284101
          -2.4549115,50.5284704
          -2.4549020,50.5285136
          -2.4548977,50.5285758
          -2.4548909,50.5286289
          -2.4548873,50.5286736
          -2.4548794,50.5287410
          -2.4548688,50.5288052
          -2.4548663,50.5288565
          -2.4548625,50.5289253
          -2.4548559,50.5289788
          -2.4548562,50.5290429
          -2.4548511,50.5291042
          -2.4548455,50.5291606
          -2.4548427,50.5292241
          -2.4548321,50.5292841
          -2.4548295,50.5293419
          -2.4548218,50.5294059
          -2.4548162,50.5294595
          -2.4548129,50.5295210
          -2.4548018,50.5295801
          -2.4547927,50.5296377
          -2.4547800,50.5297082
          -2.4547677,50.5297661
          -2.4547648,50.5298370
          -2.4547588,50.5298916
          -2.4547575,50.5299583
          -2.4547531,50.5300156
          -2.4547499,50.5300728
          -2.4547506,50.5301417
          -2.4547466,50.5301898
          -2.4547379,50.5302625
          -2.4547313,50.5303107
          -2.4547164,50.5303767
          -2.4547014,50.5304394
          -2.4546961,50.5304906
          -2.4546851,50.5305591
          -2.4546769,50.5306168
          -2.4546630,50.5306720
          -2.4546236,50.5307327
          -2.4545829,50.5307838
          -2.4545403,50.5308483
          -2.4545080,50.5308985
          -2.4544824,50.5309685
          -2.4544633,50.5310192
          -2.4544476,50.5310814
          -2.4544305,50.5311400
          -2.4544195,50.5312050
          -2.4543885,50.5312793
          -2.4543741,50.5313389
          -2.4543594,50.5314017
          -2.4543402,50.5314615
          -2.4543277,50.5315156
          -2.4543156,50.5315844
          -2.4543026,50.5316397
          -2.4543006,50.5317092
          -2.4542910,50.5317664
          -2.4542850,50.5318338
          -2.4542692,50.5318945
          -2.4542700,50.5319429
          -2.4542625,50.5320013
          -2.4542576,50.5320646
          -2.4542530,50.5321393
          -2.4542399,50.5322005
          -2.4542169,50.5322635
          -2.4541917,50.5323241
          -2.4541804,50.5323877
          -2.4541611,50.5324531
          -2.4541450,50.5325065
          -2.4541329,50.5325774
          -2.4541116,50.5326299
          -2.4540933,50.5326970
          -2.4540725,50.5327447
          -2.4540526,50.5327921
          -2.4540331,50.5328487
          -2.4539985,50.5329024
          -2.4539694,50.5329656
          -2.4539786,50.5330323
          -2.4539911,50.5330461
          -2.4539964,50.5330475
          -2.4539964,50.5330475
          -2.4539964,50.5330475
          -2.4539964,50.5330475
          -2.4539964,50.5330475
          -2.4539964,50.5330475
          -2.4539964,50.5330475
          -2.4539964,50.5330475
          -2.4539964,50.5330475
          -2.4539867,50.5330601
          -2.4539841,50.5331046
          -2.4539755,50.5331533
          -2.4539626,50.5332110
          -2.4539473,50.5332840
          -2.4539244,50.5333342
          -2.4539035,50.5333985
          -2.4538813,50.5334485
          -2.4538612,50.5335105
          -2.4538330,50.5335680
          -2.4538129,50.5336254
          -2.4537885,50.5336910
          -2.4537576,50.5337430
          -2.4537290,50.5338123
          -2.4537008,50.5338631
          -2.4536688,50.5339353
          -2.4536492,50.5339890
          -2.4536250,50.5340585
          -2.4536057,50.5341142
          -2.4535799,50.5341784
          -2.4535563,50.5342335
          -2.4535238,50.5343004
          -2.4535075,50.5343531
          -2.4534941,50.5344238
          -2.4535307,50.5344410
          -2.4535306,50.5344409
          -2.4535306,50.5344409
          -2.4535306,50.5344409
          -2.4535136,50.5344495
          -2.4534754,50.5344934
          -2.4534579,50.5345498
          -2.4534283,50.5346050
          -2.4534068,50.5346596
          -2.4533873,50.5347072
          -2.4533682,50.5347671
          -2.4533422,50.5348199
          -2.4533189,50.5348715
          -2.4532982,50.5349296
          -2.4532667,50.5349885
          -2.4532447,50.5350361
          -2.4532095,50.5351015
          -2.4531882,50.5351536
          -2.4531575,50.5352167
          -2.4531401,50.5352772
          -2.4531148,50.5353332
          -2.4530886,50.5354012
          -2.4530713,50.5354524
          -2.4530446,50.5355161
          -2.4530151,50.5355668
          -2.4529966,50.5356266
          -2.4529756,50.5356867
          -2.4529494,50.5357399
          -2.4529358,50.5358008
          -2.4529126,50.5358485
          -2.4528958,50.5359168
          -2.4528829,50.5359714
          -2.4528643,50.5360332
          -2.4528516,50.5360985
          -2.4528419,50.5361575
          -2.4528221,50.5362186
          -2.4528104,50.5362850
          -2.4527997,50.5363429
          -2.4527807,50.5363954
          -2.4527609,50.5364597
          -2.4527525,50.5365241
          -2.4527381,50.5365814
          -2.4527276,50.5366490
          -2.4527258,50.5367136
          -2.4527221,50.5367722
          -2.4527234,50.5368356
          -2.4527213,50.5369051
          -2.4527150,50.5369562
          -2.4526906,50.5370115
          -2.4526637,50.5370666
          -2.4526399,50.5371199
          -2.4526141,50.5371872
          -2.4526118,50.5372463
          -2.4526306,50.5372981
          -2.4526277,50.5373640
          -2.4526285,50.5374190
          -2.4526007,50.5374698
          -2.4525770,50.5375312
          -2.4525476,50.5375818
          -2.4525289,50.5376467
          -2.4525196,50.5377168
          -2.4525073,50.5377714
          -2.4525051,50.5378325
          -2.4525062,50.5378913
          -2.4525000,50.5379491
          -2.4524954,50.5380147
          -2.4524952,50.5380818
          -2.4525062,50.5381399
          -2.4525136,50.5381942
          -2.4525086,50.5382590
          -2.4525203,50.5383180
          -2.4525265,50.5383760
          -2.4525183,50.5384404
          -2.4525145,50.5385049
          -2.4525061,50.5385573
          -2.4525115,50.5386278
          -2.4525279,50.5386828
          -2.4525393,50.5387352
          -2.4525621,50.5388022
          -2.4525728,50.5388574
          -2.4525722,50.5389232
          -2.4525809,50.5389761
          -2.4525781,50.5390324
          -2.4525850,50.5390976
          -2.4525917,50.5391511
          -2.4525910,50.5392173
          -2.4526016,50.5392732
          -2.4526062,50.5393404
          -2.4526108,50.5393905
          -2.4526185,50.5394506
          -2.4526106,50.5395076
          -2.4525950,50.5395586
          -2.4525868,50.5396126
          -2.4525829,50.5396682
          -2.4525728,50.5397221
          -2.4525828,50.5397881
          -2.4526051,50.5398506
          -2.4526169,50.5399008
          -2.4526201,50.5399348
          -2.4526230,50.5399402
          -2.4526285,50.5399633
          -2.4526363,50.5399815
          -2.4526363,50.5399815
          -2.4526363,50.5399815
          -2.4526382,50.5399834
          -2.4526589,50.5400491
          -2.4526719,50.5401010
          -2.4526835,50.5401562
          -2.4526854,50.5402137
          -2.4527032,50.5402771
          -2.4527493,50.5403367
          -2.4528002,50.5403967
          -2.4528134,50.5404000
          -2.4528430,50.5403841
          -2.4528474,50.5403834
          -2.4528435,50.5404058
          -2.4528797,50.5404676
          -2.4529220,50.5405128
          -2.4529389,50.5405352
          -2.4529389,50.5405352
          -2.4529389,50.5405352
          -2.4529334,50.5405370
          -2.4529770,50.5405828
          -2.4530321,50.5406218
          -2.4531018,50.5406641
          -2.4531739,50.5407018
          -2.4532471,50.5407396
          -2.4533189,50.5407688
          -2.4534039,50.5408078
          -2.4534862,50.5408334
          -2.4535492,50.5408813
          -2.4536042,50.5409334
          -2.4536659,50.5409871
          -2.4537198,50.5410261
          -2.4537722,50.5410726
          -2.4538277,50.5411162
          -2.4538881,50.5411748
          -2.4539508,50.5412238
          -2.4540088,50.5412738
          -2.4540586,50.5413302
          -2.4541150,50.5413740
          -2.4541672,50.5414248
          -2.4542198,50.5414790
          -2.4542706,50.5415211
          -2.4542870,50.5415364
          -2.4543311,50.5416027
          -2.4543691,50.5416458
          -2.4544062,50.5416992
          -2.4544439,50.5417590
          -2.4544702,50.5418113
          -2.4544923,50.5418650
          -2.4545102,50.5419175
          -2.4545299,50.5419702
          -2.4545496,50.5420370
          -2.4545633,50.5420969
          -2.4545979,50.5421571
          -2.4546149,50.5422197
          -2.4546260,50.5422730
          -2.4546414,50.5423388
          -2.4546543,50.5423973
          -2.4546754,50.5424575
          -2.4546895,50.5425213
          -2.4547129,50.5425705
          -2.4547289,50.5426372
          -2.4547470,50.5426947
          -2.4547631,50.5427542
          -2.4547391,50.5428089
          -2.4547205,50.5428694
          -2.4547017,50.5429280
          -2.4546787,50.5429796
          -2.4546716,50.5430455
          -2.4546476,50.5430993
          -2.4546185,50.5431548
          -2.4546047,50.5432086
          -2.4545849,50.5432597
          -2.4545862,50.5433027
          -2.4546002,50.5433414
          -2.4545898,50.5433823
          -2.4545748,50.5434385
          -2.4545314,50.5434740
          -2.4544696,50.5435001
          -2.4544086,50.5435541
          -2.4543616,50.5436054
          -2.4543150,50.5436746
          -2.4543003,50.5437313
          -2.4543134,50.5437754
          -2.4542971,50.5438234
          -2.4542560,50.5438577
          -2.4542202,50.5438941
          -2.4541577,50.5439271
          -2.4540889,50.5439579
          -2.4540903,50.5439600
          -2.4540793,50.5439961
          -2.4540736,50.5440232
          -2.4540736,50.5440232
          -2.4540736,50.5440232
          -2.4540269,50.5440000
          -2.4540270,50.5439971
          -2.4540270,50.5439971
          -2.4540022,50.5440063
          -2.4539616,50.5440155
          -2.4539614,50.5440137
          -2.4539614,50.5440137
          -2.4539390,50.5440146
          -2.4539284,50.5440343
          -2.4539286,50.5440343
          -2.4539286,50.5440348
          -2.4539153,50.5440638
          -2.4539117,50.5440800
          -2.4539117,50.5440800
          -2.4539117,50.5440800
          -2.4539142,50.5440799
          -2.4538905,50.5441017
          -2.4538624,50.5441257
          -2.4538623,50.5441355
          -2.4538764,50.5441464
          -2.4538615,50.5442067
          -2.4538227,50.5442344
          -2.4538151,50.5442814
          -2.4538243,50.5443421
          -2.4538643,50.5443678
          -2.4538649,50.5443689
          -2.4538649,50.5443689
          -2.4539016,50.5443329
          -2.4538982,50.5443042
          -2.4538935,50.5443039
          -2.4538977,50.5443044
          -2.4538977,50.5443044
          -2.4538977,50.5443044
          -2.4538977,50.5443044
          -2.4538977,50.5443044
          -2.4538977,50.5443044
          -2.4538977,50.5443044
          -2.4538977,50.5443044
          -2.4538977,50.5443044
          -2.4538977,50.5443044
          -2.4538977,50.5443044
          -2.4538977,50.5443044
          -2.4538977,50.5443044
          -2.4538977,50.5443044
          -2.4538977,50.5443044
          -2.4538977,50.5443044
          -2.4538977,50.5443044
          -2.4538977,50.5443044
          -2.4538977,50.5443044
          -2.4538977,50.5443044
          -2.4538977,50.5443044
          -2.4538977,50.5443044
          -2.4538977,50.5443044
          -2.4538977,50.5443044
          -2.4538977,50.5443044
          -2.4538977,50.5443044
          -2.4538977,50.5443044
          -2.4538977,50.5443044
          -2.4538977,50.5443044
          -2.4538977,50.5443044
          -2.4538977,50.5443044
          -2.4538977,50.5443044
          -2.4538977,50.5443044
          -2.4538977,50.5443044
          -2.4538977,50.5443044
          -2.4538977,50.5443044
          -2.4538977,50.5443044
          -2.4538977,50.5443044
          -2.4538977,50.5443044
          -2.4538977,50.5443044
          -2.4538977,50.5443044
          -2.4538977,50.5443044
          -2.4538977,50.5443044
          -2.4538977,50.5443044
          -2.4538939,50.5443047
          -2.4538977,50.5443044
          -2.4538977,50.5443044
          -2.4538977,50.5443044
          -2.4538977,50.5443044
          -2.4538977,50.5443044
          -2.4538872,50.5443169
          -2.4538872,50.5443169
          -2.4538509,50.5443315
          -2.4538079,50.5442958
          -2.4537479,50.5442798
          -2.4537074,50.5442658
          -2.4537132,50.5442647
          -2.4537132,50.5442647
          -2.4537132,50.5442647
          -2.4537132,50.5442647
          -2.4537132,50.5442647
          -2.4537132,50.5442647
          -2.4537132,50.5442647
          -2.4537132,50.5442647
          -2.4537132,50.5442647
          -2.4537132,50.5442647
          -2.4537132,50.5442647
          -2.4537336,50.5442823
          -2.4537544,50.5442886
          -2.4537772,50.5443043
          -2.4537772,50.5443043
          -2.4537772,50.5443043
          -2.4538048,50.5443062
          -2.4538661,50.5443246
          -2.4538654,50.5443259
          -2.4538595,50.5443290
          -2.4538215,50.5443807
          -2.4538118,50.5443974
          -2.4538112,50.5443973
          -2.4538112,50.5443973
          -2.4538112,50.5443973
          -2.4538037,50.5443958
          -2.4538112,50.5443973
          -2.4538112,50.5443973
          -2.4538172,50.5443576
          -2.4537996,50.5443125
          -2.4537592,50.5442916
          -2.4537591,50.5442902
          -2.4537591,50.5442902
          -2.4537536,50.5442913
          -2.4537613,50.5443067
          -2.4537530,50.5443179
          -2.4537530,50.5443179
          -2.4537530,50.5443179
          -2.4537908,50.5443169
          -2.4538169,50.5443099
          -2.4538169,50.5443099
          -2.4538169,50.5443099
          -2.4538169,50.5443099
          -2.4538169,50.5443099
          -2.4538169,50.5443099
          -2.4538169,50.5443099
          -2.4538235,50.5442769
          -2.4538443,50.5442258
          -2.4538728,50.5441950
          -2.4538817,50.5441585
          -2.4538806,50.5441558
          -2.4538880,50.5441383
          -2.4539236,50.5441140
          -2.4539445,50.5440676
          -2.4539537,50.5440356
          -2.4540072,50.5440149
          -2.4540743,50.5439768
          -2.4541335,50.5439566
          -2.4541937,50.5439313
          -2.4542393,50.5438954
          -2.4542849,50.5438440
          -2.4543246,50.5437975
          -2.4543301,50.5437610
          -2.4543196,50.5437341
          -2.4543039,50.5436998
          -2.4543303,50.5436472
          -2.4543581,50.5436026
          -2.4544073,50.5435488
          -2.4544533,50.5435068
          -2.4545083,50.5434774
          -2.4545711,50.5434260
          -2.4545913,50.5433720
          -2.4545990,50.5433181
          -2.4545836,50.5432892
          -2.4545724,50.5432712
          -2.4545670,50.5432497
          -2.4545976,50.5432008
          -2.4546170,50.5431454
          -2.4546421,50.5430932
          -2.4546601,50.5430330
          -2.4546841,50.5429670
          -2.4547037,50.5429024
          -2.4547315,50.5428524
          -2.4547530,50.5427942
          -2.4547632,50.5427336
          -2.4547448,50.5426763
          -2.4547296,50.5426118
          -2.4547098,50.5425537
          -2.4546944,50.5424907
          -2.4546755,50.5424272
          -2.4546586,50.5423651
          -2.4546415,50.5423077
          -2.4546307,50.5422448
          -2.4545989,50.5421869
          -2.4545808,50.5421203
          -2.4545660,50.5420643
          -2.4545512,50.5420031
          -2.4545326,50.5419439
          -2.4545142,50.5418926
          -2.4544907,50.5418258
          -2.4544621,50.5417678
          -2.4544412,50.5417139
          -2.4543971,50.5416566
          -2.4543544,50.5416013
          -2.4543155,50.5415464
          -2.4542629,50.5414985
          -2.4542165,50.5414437
          -2.4541633,50.5413969
          -2.4541142,50.5413474
          -2.4540631,50.5413012
          -2.4539933,50.5412483
          -2.4539441,50.5412021
          -2.4538777,50.5411533
          -2.4538210,50.5411046
          -2.4537651,50.5410592
          -2.4536996,50.5410097
          -2.4536566,50.5409589
          -2.4536009,50.5409001
          -2.4535300,50.5408599
          -2.4534753,50.5408206
          -2.4533872,50.5407832
          -2.4533067,50.5407368
          -2.4532273,50.5407016
          -2.4531540,50.5406697
          -2.4530912,50.5406243
          -2.4530075,50.5405828
          -2.4529362,50.5405364
          -2.4529367,50.5405367
          -2.4529366,50.5405327
          -2.4528923,50.5404799
          -2.4528489,50.5404351
          -2.4527970,50.5403781
          -2.4527504,50.5403271
          -2.4526999,50.5402690
          -2.4526962,50.5401975
          -2.4526859,50.5401315
          -2.4526732,50.5400672
          -2.4526529,50.5400001
          -2.4526630,50.5399957
          -2.4526553,50.5399762
          -2.4526349,50.5399210
          -2.4526158,50.5398555
          -2.4525936,50.5398075
          -2.4525861,50.5397380
          -2.4525949,50.5396695
          -2.4525999,50.5395985
          -2.4526030,50.5395485
          -2.4526141,50.5394786
          -2.4526178,50.5394202
          -2.4526035,50.5393539
          -2.4526014,50.5392930
          -2.4525925,50.5392290
          -2.4525945,50.5391607
          -2.4525902,50.5390935
          -2.4525926,50.5390439
          -2.4525889,50.5389796
          -2.4525743,50.5389083
          -2.4525790,50.5388453
          -2.4525655,50.5387798
          -2.4525419,50.5387146
          -2.4525246,50.5386599
          -2.4525154,50.5385920
          -2.4525177,50.5385272
          -2.4525197,50.5384591
          -2.4525221,50.5383907
          -2.4525181,50.5383299
          -2.4525125,50.5382627
          -2.4525135,50.5381984
          -2.4525180,50.5381361
          -2.4525176,50.5380695
          -2.4525172,50.5380067
          -2.4525007,50.5379460
          -2.4525058,50.5378668
          -2.4525129,50.5378020
          -2.4525183,50.5377395
          -2.4525293,50.5376721
          -2.4525427,50.5376135
          -2.4525653,50.5375546
          -2.4526050,50.5374911
          -2.4526310,50.5374287
          -2.4526472,50.5373653
          -2.4526429,50.5372994
          -2.4526126,50.5372456
          -2.4526297,50.5371739
          -2.4526536,50.5371078
          -2.4526793,50.5370425
          -2.4527068,50.5369825
          -2.4527189,50.5369218
          -2.4527254,50.5368561
          -2.4527277,50.5367903
          -2.4527239,50.5367251
          -2.4527302,50.5366605
          -2.4527404,50.5365953
          -2.4527532,50.5365247
          -2.4527812,50.5364611
          -2.4528008,50.5363976
          -2.4528084,50.5363368
          -2.4528309,50.5362642
          -2.4528382,50.5361974
          -2.4528525,50.5361305
          -2.4528567,50.5360664
          -2.4528779,50.5359982
          -2.4528941,50.5359304
          -2.4529209,50.5358666
          -2.4529417,50.5358009
          -2.4529660,50.5357323
          -2.4529855,50.5356646
          -2.4530112,50.5356075
          -2.4530370,50.5355409
          -2.4530638,50.5354718
          -2.4530918,50.5354095
          -2.4531136,50.5353472
          -2.4531347,50.5352825
          -2.4531676,50.5352164
          -2.4531875,50.5351478
          -2.4532164,50.5350887
          -2.4532513,50.5350223
          -2.4532851,50.5349529
          -2.4533194,50.5348948
          -2.4533383,50.5348361
          -2.4533642,50.5347698
          -2.4533961,50.5347043
          -2.4534225,50.5346371
          -2.4534458,50.5345792
          -2.4534675,50.5345137
          -2.4534935,50.5344430
          -2.4535204,50.5343806
          -2.4535388,50.5343186
          -2.4535627,50.5342488
          -2.4535869,50.5341827
          -2.4536074,50.5341216
          -2.4536201,50.5340636
          -2.4536448,50.5339924
          -2.4536720,50.5339294
          -2.4537010,50.5338594
          -2.4537312,50.5337995
          -2.4537618,50.5337397
          -2.4537902,50.5336754
          -2.4538265,50.5336095
          -2.4538549,50.5335474
          -2.4538783,50.5334838
          -2.4539019,50.5334178
          -2.4539292,50.5333618
          -2.4539412,50.5332957
          -2.4539599,50.5332252
          -2.4539749,50.5331709
          -2.4539883,50.5331026
          -2.4539798,50.5330424
          -2.4539695,50.5329741
          -2.4539983,50.5329036
          -2.4540260,50.5328499
          -2.4540616,50.5327878
          -2.4540859,50.5327256
          -2.4541174,50.5326660
          -2.4541325,50.5326031
          -2.4541581,50.5325365
          -2.4541663,50.5324816
          -2.4541934,50.5324091
          -2.4541986,50.5323469
          -2.4542210,50.5322847
          -2.4542335,50.5322203
          -2.4542429,50.5321612
          -2.4542549,50.5321010
          -2.4542599,50.5320450
          -2.4542635,50.5319823
          -2.4542774,50.5319148
          -2.4542871,50.5318539
          -2.4543001,50.5317909
          -2.4543048,50.5317355
          -2.4543090,50.5316600
          -2.4543172,50.5315887
          -2.4543440,50.5315287
          -2.4543579,50.5314788
          -2.4543746,50.5314058
          -2.4543845,50.5313410
          -2.4544111,50.5312731
          -2.4544182,50.5312028
          -2.4544309,50.5311356
          -2.4544558,50.5310774
          -2.4544706,50.5310127
          -2.4544959,50.5309452
          -2.4545327,50.5308920
          -2.4545715,50.5308185
          -2.4546097,50.5307671
          -2.4546492,50.5307039
          -2.4546708,50.5306427
          -2.4546833,50.5305741
          -2.4546966,50.5305050
          -2.4547038,50.5304358
          -2.4547126,50.5303697
          -2.4547248,50.5303017
          -2.4547413,50.5302370
          -2.4547324,50.5301725
          -2.4547437,50.5301054
          -2.4547443,50.5300354
          -2.4547540,50.5299717
          -2.4547627,50.5299004
          -2.4547659,50.5298308
          -2.4547688,50.5297711
          -2.4547779,50.5297005
          -2.4547843,50.5296361
          -2.4547959,50.5295660
          -2.4548064,50.5294990
          -2.4548102,50.5294355
          -2.4548222,50.5293719
          -2.4548296,50.5293174
          -2.4548367,50.5292503
          -2.4548399,50.5291803
          -2.4548517,50.5291175
          -2.4548610,50.5290506
          -2.4548703,50.5289839
          -2.4548651,50.5289240
          -2.4548673,50.5288504
          -2.4548648,50.5287970
          -2.4548734,50.5287260
          -2.4548854,50.5286619
          -2.4548927,50.5285933
          -2.4548935,50.5285233
          -2.4549032,50.5284561
          -2.4549043,50.5283977
          -2.4549082,50.5283322
          -2.4549031,50.5282608
          -2.4548944,50.5281963
          -2.4548988,50.5281260
          -2.4548952,50.5280671
          -2.4548913,50.5280036
          -2.4548984,50.5279350
          -2.4549003,50.5278646
          -2.4548930,50.5277875
          -2.4548734,50.5277292
          -2.4548679,50.5276620
          -2.4548595,50.5275932
          -2.4548483,50.5275343
          -2.4548422,50.5274588
          -2.4548290,50.5273959
          -2.4548201,50.5273184
          -2.4548119,50.5272614
          -2.4547992,50.5271993
          -2.4547889,50.5271356
          -2.4547813,50.5270699
          -2.4547761,50.5270079
          -2.4547751,50.5269465
          -2.4547673,50.5268821
          -2.4547570,50.5268217
          -2.4547508,50.5267587
          -2.4547392,50.5266950
          -2.4547360,50.5266364
          -2.4547316,50.5265753
          -2.4547381,50.5265158
          -2.4547531,50.5264530
          -2.4547667,50.5263904
          -2.4547835,50.5263340
          -2.4547926,50.5262769
          -2.4547865,50.5262197
          -2.4547884,50.5261598
          -2.4547730,50.5261078
          -2.4547672,50.5260976
          -2.4547672,50.5260976
          -2.4547830,50.5260931
          -2.4547857,50.5260334
          -2.4547692,50.5259614
          -2.4547693,50.5258973
          -2.4547867,50.5258340
          -2.4547998,50.5257674
          -2.4548190,50.5256996
          -2.4548489,50.5256355
          -2.4548738,50.5255670
          -2.4548891,50.5255121
          -2.4549172,50.5254489
          -2.4549387,50.5253809
          -2.4549646,50.5253170
          -2.4549856,50.5252585
          -2.4550225,50.5251932
          -2.4550526,50.5251299
          -2.4550840,50.5250656
          -2.4551153,50.5250054
          -2.4551385,50.5249492
          -2.4551729,50.5248823
          -2.4552057,50.5248165
          -2.4552315,50.5247535
          -2.4552588,50.5246889
          -2.4552941,50.5246230
          -2.4553269,50.5245631
          -2.4553526,50.5244982
          -2.4553849,50.5244328
          -2.4554200,50.5243679
          -2.4554402,50.5243062
          -2.4554768,50.5242411
          -2.4554976,50.5241776
          -2.4555250,50.5241178
          -2.4555634,50.5240510
          -2.4556019,50.5239875
          -2.4556381,50.5239292
          -2.4556642,50.5238587
          -2.4556922,50.5237987
          -2.4557238,50.5237401
          -2.4557550,50.5236865
          -2.4558002,50.5236264
          -2.4558431,50.5235590
          -2.4558795,50.5234975
          -2.4559182,50.5234336
          -2.4559466,50.5233771
          -2.4559845,50.5233098
          -2.4560183,50.5232393
          -2.4560565,50.5231748
          -2.4560933,50.5231147
          -2.4561422,50.5230589
          -2.4561818,50.5229998
          -2.4562254,50.5229446
          -2.4562655,50.5228979
          -2.4563206,50.5228429
          -2.4563740,50.5227798
          -2.4564150,50.5227209
          -2.4564553,50.5226608
          -2.4565075,50.5225979
          -2.4565611,50.5225390
          -2.4566160,50.5224811
          -2.4566834,50.5224316
          -2.4567592,50.5223822
          -2.4568191,50.5223338
          -2.4568703,50.5222820
          -2.4569113,50.5222162
          -2.4569372,50.5221587
          -2.4569739,50.5221085
          -2.4569999,50.5220478
          -2.4570131,50.5219758
          -2.4570430,50.5219136
          -2.4570623,50.5218499
          -2.4570782,50.5217885
          -2.4570822,50.5217274
          -2.4570838,50.5216591
          -2.4570858,50.5215995
          -2.4570952,50.5215355
          -2.4571020,50.5214771
          -2.4571182,50.5214162
          -2.4571257,50.5213574
          -2.4571522,50.5212955
          -2.4571638,50.5212310
          -2.4571698,50.5211729
          -2.4571972,50.5211131
          -2.4572100,50.5210556
          -2.4572376,50.5209874
          -2.4572485,50.5209195
          -2.4572641,50.5208555
          -2.4572785,50.5207976
          -2.4572946,50.5207338
          -2.4573142,50.5206746
          -2.4573371,50.5206182
          -2.4573587,50.5205607
          -2.4573855,50.5204974
          -2.4573995,50.5204317
          -2.4573923,50.5203660
          -2.4573858,50.5203034
          -2.4573873,50.5202405
          -2.4573809,50.5202056
          -2.4574709,50.5201849
          -2.4575284,50.5201353
          -2.4575544,50.5200777
          -2.4575759,50.5200104
          -2.4576142,50.5199508
          -2.4576505,50.5198937
          -2.4577036,50.5198421
          -2.4577121,50.5197716
          -2.4577183,50.5197086
          -2.4577299,50.5196424
          -2.4577369,50.5195787
          -2.4577349,50.5195073
          -2.4577284,50.5194418
          -2.4577162,50.5193838
          -2.4577072,50.5193220
          -2.4576963,50.5192498
          -2.4576979,50.5191877
          -2.4576878,50.5191190
          -2.4576853,50.5190583
          -2.4576826,50.5189942
          -2.4576800,50.5189281
          -2.4576881,50.5188615
          -2.4577023,50.5187895
          -2.4577080,50.5187241
          -2.4577050,50.5186653
          -2.4577084,50.5185940
          -2.4577089,50.5185295
          -2.4576983,50.5184648
          -2.4576867,50.5184054
          -2.4576714,50.5183381
          -2.4576808,50.5182674
          -2.4576976,50.5182001
          -2.4576766,50.5181407
          -2.4576523,50.5180814
          -2.4576367,50.5180219
          -2.4576171,50.5179637
          -2.4575964,50.5178942
          -2.4575879,50.5178333
          -2.4575777,50.5177712
          -2.4575580,50.5177042
          -2.4575330,50.5176460
          -2.4574988,50.5175898
          -2.4574497,50.5175268
          -2.4574210,50.5174745
          -2.4573740,50.5174188
          -2.4573116,50.5173597
          -2.4572738,50.5173024
          -2.4572425,50.5172510
          -2.4572193,50.5171994
          -2.4571925,50.5171519
          -2.4571435,50.5171250
          -2.4571547,50.5171195
          -2.4571418,50.5170823
          -2.4571423,50.5170141
          -2.4571390,50.5169516
          -2.4571523,50.5168905
          -2.4571597,50.5168271
          -2.4571600,50.5167707
          -2.4571561,50.5167119
          -2.4571849,50.5166544
          -2.4571868,50.5165912
          -2.4571876,50.5165295
          -2.4571929,50.5164612
          -2.4571835,50.5164044
          -2.4571677,50.5163334
          -2.4571543,50.5162793
          -2.4571484,50.5162161
          -2.4571402,50.5161565
          -2.4571320,50.5160932
          -2.4571113,50.5160277
          -2.4571028,50.5159742
          -2.4570891,50.5159045
          -2.4570951,50.5158520
          -2.4571018,50.5157868
          -2.4571438,50.5157275
          -2.4571938,50.5156680
          -2.4572398,50.5156120
          -2.4572964,50.5155602
          -2.4573531,50.5155094
          -2.4574293,50.5154649
          -2.4574698,50.5154251
          -2.4575149,50.5153735
          -2.4575577,50.5153205
          -2.4576029,50.5152547
          -2.4576320,50.5151970
          -2.4576779,50.5151423
          -2.4577107,50.5150849
          -2.4577037,50.5150176
          -2.4576935,50.5149578
          -2.4577251,50.5148972
          -2.4578054,50.5148600
          -2.4578352,50.5148111
          -2.4578779,50.5147620
          -2.4579569,50.5147070
          -2.4580280,50.5146796
          -2.4581022,50.5146402
          -2.4581754,50.5146020
          -2.4582498,50.5145662
          -2.4583148,50.5145218
          -2.4583617,50.5144762
          -2.4583378,50.5144202
          -2.4582740,50.5143781
          -2.4581902,50.5143275
          -2.4581206,50.5142815
          -2.4580711,50.5142412
          -2.4580059,50.5141844
          -2.4579442,50.5141246
          -2.4578826,50.5140787
          -2.4578167,50.5140345
          -2.4577572,50.5139882
          -2.4576865,50.5139394
          -2.4576012,50.5138900
          -2.4575345,50.5138452
          -2.4574742,50.5137996
          -2.4573986,50.5137665
          -2.4573085,50.5137222
          -2.4572149,50.5136936
          -2.4571276,50.5136682
          -2.4570335,50.5136640
          -2.4569325,50.5136798
          -2.4568569,50.5136969
          -2.4567609,50.5137156
          -2.4566716,50.5137260
          -2.4565625,50.5137191
          -2.4564761,50.5137436
          -2.4564219,50.5137956
          -2.4563624,50.5138455
          -2.4563023,50.5138975
          -2.4562410,50.5139506
          -2.4561809,50.5139984
          -2.4561265,50.5140445
          -2.4561254,50.5140967
          -2.4561313,50.5141511
          -2.4561245,50.5142128
          -2.4561235,50.5142857
          -2.4561214,50.5143471
          -2.4561157,50.5144104
          -2.4561130,50.5144721
          -2.4561080,50.5145347
          -2.4561174,50.5146029
          -2.4561565,50.5146549
          -2.4561916,50.5147118
          -2.4562375,50.5147718
          -2.4562737,50.5148148
          -2.4562979,50.5148817
          -2.4562835,50.5149324
          -2.4563049,50.5149852
          -2.4563614,50.5150348
          -2.4564021,50.5151017
          -2.4564284,50.5151565
          -2.4564391,50.5152237
          -2.4564571,50.5152747
          -2.4564747,50.5153433
          -2.4564695,50.5154096
          -2.4564840,50.5154733
          -2.4564853,50.5155209
          -2.4564886,50.5155739
          -2.4565023,50.5156232
          -2.4565335,50.5156763
          -2.4565542,50.5157376
          -2.4565727,50.5157968
          -2.4566070,50.5158551
        </coordinates>
      </LineString>
    </Placemark>
  </Document>
</kml>
