<?xml version="1.0" encoding="UTF-8"?>
<kml xmlns="http://www.opengis.net/kml/2.2" xmlns:xsi="http://www.w3.org/2001/XMLSchema-instance" xsi:schemaLocation="http://www.opengis.net/kml/2.2 http://schemas.opengis.net/kml/2.2.0/ogckml22.xsd">
  <Document>
    <name>GPS Wizard</name>
    <open>1</open>
    <Style id="wizard">
      <LineStyle>
        <color>a00000ff</color>
        <width>2</width>
      </LineStyle>
    </Style>
    <Placemark>
      <name>TBC</name>
      <styleUrl>#wizard</styleUrl>
      <LineString>
        <extrude>1</extrude>
        <tessellate>1</tessellate>
        <coordinates>
          -2.4703666,50.5859284
          -2.4704294,50.5859702
          -2.4705266,50.5860200
          -2.4705736,50.5860542
          -2.4706650,50.5860728
          -2.4707361,50.5860750
          -2.4708134,50.5860717
          -2.4709089,50.5860750
          -2.4709946,50.5860802
          -2.4710975,50.5860811
          -2.4711674,50.5860550
          -2.4711742,50.5860114
          -2.4711724,50.5859441
          -2.4711644,50.5858748
          -2.4711583,50.5858092
          -2.4711600,50.5857416
          -2.4711681,50.5856899
          -2.4711622,50.5856411
          -2.4711634,50.5855990
          -2.4711483,50.5855319
          -2.4711445,50.5854835
          -2.4711508,50.5854142
          -2.4711767,50.5853961
          -2.4711628,50.5853601
          -2.4711864,50.5853188
          -2.4712424,50.5853256
          -2.4712386,50.5853280
          -2.4712386,50.5853280
          -2.4712386,50.5853280
          -2.4712386,50.5853280
          -2.4712490,50.5853273
          -2.4713440,50.5853089
          -2.4714443,50.5852969
          -2.4715205,50.5852959
          -2.4715944,50.5852896
          -2.4716248,50.5852839
          -2.4716248,50.5852839
          -2.4716248,50.5852839
          -2.4716248,50.5852839
          -2.4716248,50.5852839
          -2.4716248,50.5852839
          -2.4716248,50.5852839
          -2.4716248,50.5852839
          -2.4716248,50.5852839
          -2.4716248,50.5852839
          -2.4716248,50.5852839
          -2.4716248,50.5852839
          -2.4716455,50.5852881
          -2.4717423,50.5852917
          -2.4718202,50.5852850
          -2.4719011,50.5852795
          -2.4719490,50.5852782
          -2.4719524,50.5852787
          -2.4719524,50.5852787
          -2.4719524,50.5852787
          -2.4719628,50.5852658
          -2.4720341,50.5852625
          -2.4721007,50.5853104
          -2.4721283,50.5853602
          -2.4721906,50.5853944
          -2.4722807,50.5854102
          -2.4723868,50.5853956
          -2.4724707,50.5853761
          -2.4725697,50.5853678
          -2.4726671,50.5853566
          -2.4727640,50.5853352
          -2.4728518,50.5853195
          -2.4729597,50.5853253
          -2.4730494,50.5852927
          -2.4731104,50.5852497
          -2.4731548,50.5852067
          -2.4732278,50.5851760
          -2.4733133,50.5851762
          -2.4733872,50.5851929
          -2.4734705,50.5852254
          -2.4735425,50.5852556
          -2.4736122,50.5852872
          -2.4736892,50.5853094
          -2.4737870,50.5853334
          -2.4738625,50.5853617
          -2.4739544,50.5853876
          -2.4740378,50.5854010
          -2.4741210,50.5854284
          -2.4741948,50.5854492
          -2.4742825,50.5854764
          -2.4743576,50.5855037
          -2.4744432,50.5855231
          -2.4745283,50.5855549
          -2.4746193,50.5855712
          -2.4746861,50.5856038
          -2.4747837,50.5856150
          -2.4748655,50.5856409
          -2.4749533,50.5856586
          -2.4750413,50.5856726
          -2.4751068,50.5856763
          -2.4752020,50.5856760
          -2.4752592,50.5857032
          -2.4753245,50.5857162
          -2.4753831,50.5857358
          -2.4753865,50.5857538
          -2.4753921,50.5857706
          -2.4753973,50.5857895
          -2.4754034,50.5858097
          -2.4754094,50.5858340
          -2.4754196,50.5858617
          -2.4754212,50.5858661
          -2.4754212,50.5858661
          -2.4754398,50.5858807
          -2.4755305,50.5859024
          -2.4756209,50.5859056
          -2.4757036,50.5858996
          -2.4757974,50.5859006
          -2.4758088,50.5859009
          -2.4758088,50.5859009
          -2.4758209,50.5859031
          -2.4758088,50.5859009
          -2.4758286,50.5859060
          -2.4758286,50.5859060
          -2.4759003,50.5858978
          -2.4759955,50.5858807
          -2.4760802,50.5858725
          -2.4761613,50.5858674
          -2.4762440,50.5858734
          -2.4763022,50.5858602
          -2.4763532,50.5858550
          -2.4764346,50.5858465
          -2.4765279,50.5858460
          -2.4766112,50.5858641
          -2.4766878,50.5858784
          -2.4767286,50.5858771
          -2.4767476,50.5858755
          -2.4767651,50.5858772
          -2.4768349,50.5858815
          -2.4769039,50.5858914
          -2.4769539,50.5859316
          -2.4769495,50.5859619
          -2.4769891,50.5860008
          -2.4770526,50.5860366
          -2.4770903,50.5860719
          -2.4770824,50.5860921
          -2.4770853,50.5861149
          -2.4771297,50.5861552
          -2.4771873,50.5861981
          -2.4772411,50.5862442
          -2.4772862,50.5862904
          -2.4773369,50.5863372
          -2.4773921,50.5863783
          -2.4774548,50.5864109
          -2.4775048,50.5864553
          -2.4775412,50.5864997
          -2.4775745,50.5865294
          -2.4775982,50.5865561
          -2.4776642,50.5866027
          -2.4777382,50.5866415
          -2.4778150,50.5866675
          -2.4778721,50.5867043
          -2.4778874,50.5867453
          -2.4779212,50.5867934
          -2.4779725,50.5868422
          -2.4780318,50.5868911
          -2.4780726,50.5869378
          -2.4781243,50.5869780
          -2.4781788,50.5870224
          -2.4782414,50.5870671
          -2.4783060,50.5871118
          -2.4783574,50.5871546
          -2.4784183,50.5871989
          -2.4784864,50.5872375
          -2.4785452,50.5872835
          -2.4786142,50.5873314
          -2.4786674,50.5873778
          -2.4787367,50.5874193
          -2.4788077,50.5874577
          -2.4788643,50.5874967
          -2.4788919,50.5875163
          -2.4789230,50.5875397
          -2.4789873,50.5875778
          -2.4790402,50.5876149
          -2.4791039,50.5876616
          -2.4791722,50.5877046
          -2.4792287,50.5877489
          -2.4792852,50.5877945
          -2.4793204,50.5878468
          -2.4793708,50.5878963
          -2.4794125,50.5879500
          -2.4794830,50.5879982
          -2.4795382,50.5880461
          -2.4796004,50.5880900
          -2.4796659,50.5881111
          -2.4797505,50.5881299
          -2.4798157,50.5881616
          -2.4798617,50.5882059
          -2.4799306,50.5882515
          -2.4799881,50.5882927
          -2.4800375,50.5883389
          -2.4800972,50.5883744
          -2.4801448,50.5884128
          -2.4802107,50.5884606
          -2.4802744,50.5884969
          -2.4803278,50.5885442
          -2.4803762,50.5885864
          -2.4804333,50.5886225
          -2.4804926,50.5886624
          -2.4805589,50.5887016
          -2.4806264,50.5887324
          -2.4807041,50.5887623
          -2.4807770,50.5887839
          -2.4808494,50.5888100
          -2.4809227,50.5888424
          -2.4809941,50.5888686
          -2.4810643,50.5888966
          -2.4811543,50.5889159
          -2.4812427,50.5889238
          -2.4813296,50.5889468
          -2.4814059,50.5889633
          -2.4814671,50.5889743
          -2.4815416,50.5889766
          -2.4816390,50.5889595
          -2.4817208,50.5889313
          -2.4818146,50.5889110
          -2.4818994,50.5888897
          -2.4819965,50.5888827
          -2.4820865,50.5888844
          -2.4821771,50.5889061
          -2.4822549,50.5889343
          -2.4823430,50.5889600
          -2.4824261,50.5889830
          -2.4825091,50.5890066
          -2.4826024,50.5890258
          -2.4826895,50.5890447
          -2.4827859,50.5890591
          -2.4828740,50.5890631
          -2.4829647,50.5890719
          -2.4830589,50.5890899
          -2.4831474,50.5891098
          -2.4832333,50.5891270
          -2.4833233,50.5891424
          -2.4834147,50.5891498
          -2.4834232,50.5891478
          -2.4834232,50.5891478
          -2.4834232,50.5891478
          -2.4834406,50.5891596
          -2.4835001,50.5891867
          -2.4835598,50.5892192
          -2.4835789,50.5892732
          -2.4835966,50.5893190
          -2.4836136,50.5893624
          -2.4836323,50.5893999
          -2.4836483,50.5894375
          -2.4836462,50.5894403
          -2.4836580,50.5894937
          -2.4836740,50.5895459
          -2.4836908,50.5895917
          -2.4837117,50.5896435
          -2.4837306,50.5896908
          -2.4837572,50.5897349
          -2.4837790,50.5897852
          -2.4838124,50.5898372
          -2.4838281,50.5898852
          -2.4838451,50.5899367
          -2.4838520,50.5899906
          -2.4838552,50.5900396
          -2.4838600,50.5900952
          -2.4838642,50.5901530
          -2.4838735,50.5902176
          -2.4838524,50.5902593
          -2.4837957,50.5902984
          -2.4837635,50.5903400
          -2.4837642,50.5903407
          -2.4837428,50.5903876
          -2.4837137,50.5904487
          -2.4836950,50.5904961
          -2.4836826,50.5905396
          -2.4836504,50.5905927
          -2.4836345,50.5906383
          -2.4836086,50.5906799
          -2.4835864,50.5907080
          -2.4835608,50.5907571
          -2.4835544,50.5907898
          -2.4835717,50.5908353
          -2.4835994,50.5908730
          -2.4836357,50.5909173
          -2.4836700,50.5909595
          -2.4837063,50.5910142
          -2.4837536,50.5910663
          -2.4837737,50.5911087
          -2.4838110,50.5911587
          -2.4838723,50.5911721
          -2.4839264,50.5911537
          -2.4839949,50.5911478
          -2.4840774,50.5911745
          -2.4841268,50.5912112
          -2.4841857,50.5912523
          -2.4841513,50.5912812
          -2.4841913,50.5913116
          -2.4842877,50.5913389
          -2.4843451,50.5913753
          -2.4844105,50.5914099
          -2.4844575,50.5914474
          -2.4845424,50.5914677
          -2.4846304,50.5914861
          -2.4847188,50.5915030
          -2.4847938,50.5915251
          -2.4848695,50.5915474
          -2.4849574,50.5915665
          -2.4850314,50.5915871
          -2.4851060,50.5916124
          -2.4851781,50.5916337
          -2.4852632,50.5916492
          -2.4853478,50.5916715
          -2.4854297,50.5916897
          -2.4855137,50.5916933
          -2.4856007,50.5916933
          -2.4856855,50.5916923
          -2.4857556,50.5916734
          -2.4858375,50.5916636
          -2.4859037,50.5916466
          -2.4859717,50.5916281
          -2.4860276,50.5916197
          -2.4860467,50.5916125
          -2.4860913,50.5915882
          -2.4861316,50.5915458
          -2.4862006,50.5915176
          -2.4862801,50.5914909
          -2.4863415,50.5914585
          -2.4863965,50.5914193
          -2.4864616,50.5913842
          -2.4865421,50.5913519
          -2.4866217,50.5913307
          -2.4867015,50.5913139
          -2.4867839,50.5912968
          -2.4868761,50.5912818
          -2.4869681,50.5912754
          -2.4870550,50.5912623
          -2.4871376,50.5912522
          -2.4872247,50.5912430
          -2.4873253,50.5912374
          -2.4874040,50.5912237
          -2.4874867,50.5912204
          -2.4875735,50.5912199
          -2.4876786,50.5912146
          -2.4877703,50.5912188
          -2.4878494,50.5912300
          -2.4879344,50.5912447
          -2.4880172,50.5912576
          -2.4880888,50.5912815
          -2.4881801,50.5912997
          -2.4882700,50.5913254
          -2.4883349,50.5913573
          -2.4884058,50.5913864
          -2.4884790,50.5914189
          -2.4885435,50.5914469
          -2.4886110,50.5914778
          -2.4886741,50.5915137
          -2.4887379,50.5915384
          -2.4888048,50.5915713
          -2.4888805,50.5915999
          -2.4889392,50.5916311
          -2.4890199,50.5916596
          -2.4890885,50.5916896
          -2.4891579,50.5917116
          -2.4892330,50.5917368
          -2.4893032,50.5917644
          -2.4893839,50.5917887
          -2.4894506,50.5918168
          -2.4895216,50.5918493
          -2.4895968,50.5918777
          -2.4896630,50.5919049
          -2.4897405,50.5919315
          -2.4898018,50.5919603
          -2.4898635,50.5920086
          -2.4899247,50.5920333
          -2.4900075,50.5920673
          -2.4900812,50.5921039
          -2.4901530,50.5921341
          -2.4902252,50.5921677
          -2.4902906,50.5921962
          -2.4903644,50.5922279
          -2.4904393,50.5922558
          -2.4904995,50.5922961
          -2.4905628,50.5923442
          -2.4906341,50.5923790
          -2.4907049,50.5924123
          -2.4907667,50.5924552
          -2.4908302,50.5924920
          -2.4908866,50.5925355
          -2.4909494,50.5925868
          -2.4910056,50.5926400
          -2.4910648,50.5926777
          -2.4911140,50.5927236
          -2.4911443,50.5927722
          -2.4911904,50.5928226
          -2.4912310,50.5928786
          -2.4912900,50.5929197
          -2.4913324,50.5929696
          -2.4913813,50.5930176
          -2.4914264,50.5930648
          -2.4914657,50.5931120
          -2.4915162,50.5931634
          -2.4915603,50.5932081
          -2.4916054,50.5932580
          -2.4916583,50.5933067
          -2.4916952,50.5933547
          -2.4917314,50.5934115
          -2.4917629,50.5934628
          -2.4918047,50.5935087
          -2.4918391,50.5935635
          -2.4918512,50.5936234
          -2.4918800,50.5936670
          -2.4919082,50.5937187
          -2.4919283,50.5937717
          -2.4919588,50.5938228
          -2.4919769,50.5938779
          -2.4919977,50.5939270
          -2.4920127,50.5939686
          -2.4920068,50.5939704
          -2.4920068,50.5939704
          -2.4920068,50.5939704
          -2.4920068,50.5939704
          -2.4920068,50.5939704
          -2.4919757,50.5939192
          -2.4919496,50.5938663
          -2.4919330,50.5938102
          -2.4919103,50.5937658
          -2.4918830,50.5937057
          -2.4918567,50.5936538
          -2.4918118,50.5936031
          -2.4917811,50.5935575
          -2.4917580,50.5935045
          -2.4917225,50.5934557
          -2.4916808,50.5933976
          -2.4916563,50.5933426
          -2.4916096,50.5932941
          -2.4915561,50.5932471
          -2.4914930,50.5932013
          -2.4914431,50.5931491
          -2.4914000,50.5930996
          -2.4913604,50.5930582
          -2.4913113,50.5930182
          -2.4912639,50.5929672
          -2.4912224,50.5929227
          -2.4911828,50.5928758
          -2.4911352,50.5928256
          -2.4910922,50.5927745
          -2.4910274,50.5927263
          -2.4909821,50.5926838
          -2.4909376,50.5926399
          -2.4908772,50.5925946
          -2.4908141,50.5925516
          -2.4907499,50.5925094
          -2.4907001,50.5924701
          -2.4906425,50.5924274
          -2.4905754,50.5923838
          -2.4905078,50.5923450
          -2.4904426,50.5923121
          -2.4903679,50.5922778
          -2.4902883,50.5922420
          -2.4902188,50.5922103
          -2.4901433,50.5921789
          -2.4900642,50.5921372
          -2.4899872,50.5921023
          -2.4899251,50.5920667
          -2.4898469,50.5920340
          -2.4897861,50.5920036
          -2.4896959,50.5919779
          -2.4896278,50.5919402
          -2.4895416,50.5919080
          -2.4894662,50.5918791
          -2.4893809,50.5918582
          -2.4893029,50.5918214
          -2.4892307,50.5917813
          -2.4891447,50.5917508
          -2.4890770,50.5917158
          -2.4889950,50.5916880
          -2.4889339,50.5916408
          -2.4888529,50.5916166
          -2.4887627,50.5915833
          -2.4886877,50.5915551
          -2.4886106,50.5915213
          -2.4885396,50.5914901
          -2.4884555,50.5914601
          -2.4883858,50.5914257
          -2.4882971,50.5913862
          -2.4882225,50.5913618
          -2.4881380,50.5913354
          -2.4880630,50.5913057
          -2.4879722,50.5913027
          -2.4878806,50.5912824
          -2.4877927,50.5912680
          -2.4877108,50.5912579
          -2.4876125,50.5912492
          -2.4875276,50.5912462
          -2.4874335,50.5912506
          -2.4873420,50.5912615
          -2.4872586,50.5912641
          -2.4871678,50.5912677
          -2.4870845,50.5912786
          -2.4869931,50.5912910
          -2.4869011,50.5913076
          -2.4868072,50.5913176
          -2.4867305,50.5913378
          -2.4866429,50.5913591
          -2.4865564,50.5913841
          -2.4864767,50.5914054
          -2.4863935,50.5914340
          -2.4863498,50.5914872
          -2.4862982,50.5915371
          -2.4862378,50.5915847
          -2.4861950,50.5916405
          -2.4861461,50.5916870
          -2.4861168,50.5917448
          -2.4860781,50.5918003
          -2.4860405,50.5918508
          -2.4859963,50.5918466
          -2.4859740,50.5918277
          -2.4859025,50.5918264
          -2.4858016,50.5918294
          -2.4857112,50.5918247
          -2.4856323,50.5918301
          -2.4855418,50.5918155
          -2.4854635,50.5918041
          -2.4853779,50.5917922
          -2.4852878,50.5917787
          -2.4852019,50.5917360
          -2.4851236,50.5917049
          -2.4850515,50.5916777
          -2.4849643,50.5916484
          -2.4849031,50.5916146
          -2.4848310,50.5915805
          -2.4847559,50.5915424
          -2.4846902,50.5915081
          -2.4846267,50.5914738
          -2.4845561,50.5914419
          -2.4844894,50.5914239
          -2.4844122,50.5914186
          -2.4843397,50.5913892
          -2.4842865,50.5913409
          -2.4842216,50.5913018
          -2.4841463,50.5912981
          -2.4840758,50.5912606
          -2.4840436,50.5912318
          -2.4840449,50.5912299
          -2.4840208,50.5911947
          -2.4839789,50.5911622
          -2.4839343,50.5911579
          -2.4838742,50.5911623
          -2.4838284,50.5911267
          -2.4837904,50.5910816
          -2.4837625,50.5910391
          -2.4837294,50.5909870
          -2.4836892,50.5909416
          -2.4836700,50.5909127
          -2.4836496,50.5908852
          -2.4836225,50.5908551
          -2.4835949,50.5908209
          -2.4835822,50.5907934
          -2.4835805,50.5907565
          -2.4836028,50.5907176
          -2.4836245,50.5906747
          -2.4836482,50.5906294
          -2.4836699,50.5905882
          -2.4836929,50.5905482
          -2.4837107,50.5905076
          -2.4837179,50.5904666
          -2.4837327,50.5904159
          -2.4837513,50.5903737
          -2.4837842,50.5903278
          -2.4838269,50.5902868
          -2.4838744,50.5902466
          -2.4838837,50.5901900
          -2.4838794,50.5901599
          -2.4838752,50.5901086
          -2.4838703,50.5900567
          -2.4838603,50.5900074
          -2.4838587,50.5899492
          -2.4838500,50.5898942
          -2.4838401,50.5898460
          -2.4838171,50.5897999
          -2.4837876,50.5897455
          -2.4837549,50.5896977
          -2.4837411,50.5896510
          -2.4837269,50.5896053
          -2.4837011,50.5895502
          -2.4836746,50.5894955
          -2.4836612,50.5894482
          -2.4836445,50.5894038
          -2.4836274,50.5893531
          -2.4836119,50.5892915
          -2.4836085,50.5892400
          -2.4835816,50.5891900
          -2.4835136,50.5891607
          -2.4834392,50.5891407
          -2.4833637,50.5891312
          -2.4832839,50.5891151
          -2.4831939,50.5890928
          -2.4831159,50.5890820
          -2.4830340,50.5890629
          -2.4829530,50.5890527
          -2.4828636,50.5890384
          -2.4827810,50.5890296
          -2.4826921,50.5890241
          -2.4826074,50.5890074
          -2.4825213,50.5889930
          -2.4824335,50.5889654
          -2.4823621,50.5889452
          -2.4822847,50.5889201
          -2.4822088,50.5888853
          -2.4821174,50.5888716
          -2.4820249,50.5888738
          -2.4819482,50.5888859
          -2.4818635,50.5888939
          -2.4817839,50.5889114
          -2.4817005,50.5889281
          -2.4816160,50.5889469
          -2.4815411,50.5889526
          -2.4814728,50.5889488
          -2.4814030,50.5889374
          -2.4813146,50.5889221
          -2.4812331,50.5889022
          -2.4811681,50.5888919
          -2.4810960,50.5888744
          -2.4810267,50.5888445
          -2.4809472,50.5888179
          -2.4808803,50.5887971
          -2.4808091,50.5887696
          -2.4807197,50.5887398
          -2.4806497,50.5887186
          -2.4805706,50.5886999
          -2.4805186,50.5886561
          -2.4804603,50.5886200
          -2.4804064,50.5885729
          -2.4803498,50.5885273
          -2.4802932,50.5884867
          -2.4802381,50.5884464
          -2.4801787,50.5884138
          -2.4801282,50.5883719
          -2.4800701,50.5883329
          -2.4800229,50.5882944
          -2.4799667,50.5882497
          -2.4799070,50.5882096
          -2.4798606,50.5881759
          -2.4798106,50.5881423
          -2.4797400,50.5881229
          -2.4796807,50.5880978
          -2.4796160,50.5880719
          -2.4795594,50.5880332
          -2.4794965,50.5879989
          -2.4794498,50.5879604
          -2.4794151,50.5879123
          -2.4793717,50.5878637
          -2.4793329,50.5878083
          -2.4792870,50.5877596
          -2.4792310,50.5877235
          -2.4791731,50.5876824
          -2.4791134,50.5876467
          -2.4790529,50.5876038
          -2.4790010,50.5875626
          -2.4789501,50.5875193
          -2.4788814,50.5874787
          -2.4788163,50.5874347
          -2.4787507,50.5874053
          -2.4786926,50.5873573
          -2.4786360,50.5873025
          -2.4785823,50.5872599
          -2.4785164,50.5872317
          -2.4784475,50.5871902
          -2.4783893,50.5871433
          -2.4783397,50.5870947
          -2.4782683,50.5870601
          -2.4782029,50.5870363
          -2.4781479,50.5869922
          -2.4780967,50.5869425
          -2.4780413,50.5868948
          -2.4779938,50.5868498
          -2.4779440,50.5868068
          -2.4778995,50.5867529
          -2.4779108,50.5867010
          -2.4778783,50.5866598
          -2.4778068,50.5866292
          -2.4777345,50.5865904
          -2.4776659,50.5865531
          -2.4776215,50.5865176
          -2.4775923,50.5864841
          -2.4775678,50.5864505
          -2.4775354,50.5864074
          -2.4774752,50.5863709
          -2.4774198,50.5863382
          -2.4773750,50.5863035
          -2.4773390,50.5862630
          -2.4772872,50.5862235
          -2.4772375,50.5861796
          -2.4772000,50.5861340
          -2.4771447,50.5860934
          -2.4771263,50.5860668
          -2.4771213,50.5860633
          -2.4771173,50.5860323
          -2.4770722,50.5859980
          -2.4770291,50.5859680
          -2.4769957,50.5859435
          -2.4769888,50.5859093
          -2.4769247,50.5858792
          -2.4768416,50.5858599
          -2.4767863,50.5858683
          -2.4767345,50.5858716
          -2.4766996,50.5858625
          -2.4766509,50.5858471
          -2.4765693,50.5858327
          -2.4764763,50.5858392
          -2.4763873,50.5858496
          -2.4763299,50.5858606
          -2.4762662,50.5858659
          -2.4761906,50.5858625
          -2.4761135,50.5858685
          -2.4760301,50.5858869
          -2.4759485,50.5858951
          -2.4758643,50.5858929
          -2.4757688,50.5858930
          -2.4756806,50.5858941
          -2.4755982,50.5858890
          -2.4755034,50.5858789
          -2.4754582,50.5858544
          -2.4754487,50.5858449
          -2.4754352,50.5858144
          -2.4754369,50.5857929
          -2.4754270,50.5857796
          -2.4754155,50.5857696
          -2.4753975,50.5857460
          -2.4753199,50.5857242
          -2.4752535,50.5857026
          -2.4751877,50.5856800
          -2.4751181,50.5856854
          -2.4750421,50.5856807
          -2.4749625,50.5856683
          -2.4748861,50.5856460
          -2.4748061,50.5856265
          -2.4747322,50.5855967
          -2.4746443,50.5855793
          -2.4745657,50.5855531
          -2.4744810,50.5855234
          -2.4743839,50.5855092
          -2.4743083,50.5854802
          -2.4742291,50.5854518
          -2.4741339,50.5854449
          -2.4740837,50.5854081
          -2.4740029,50.5853823
          -2.4739178,50.5853588
          -2.4738319,50.5853314
          -2.4737518,50.5853035
          -2.4736705,50.5852798
          -2.4735850,50.5852578
          -2.4735035,50.5852306
          -2.4734294,50.5852002
          -2.4733440,50.5851876
          -2.4732552,50.5851809
          -2.4731970,50.5852088
          -2.4731356,50.5852440
          -2.4730576,50.5852912
          -2.4730002,50.5853300
          -2.4728950,50.5853492
          -2.4727990,50.5853578
          -2.4727227,50.5853677
          -2.4726432,50.5853886
          -2.4725598,50.5854064
          -2.4724805,50.5854269
          -2.4723841,50.5854435
          -2.4722853,50.5854534
          -2.4722065,50.5854289
          -2.4721378,50.5853966
          -2.4721230,50.5853452
          -2.4721062,50.5852777
          -2.4720491,50.5852644
          -2.4719452,50.5852802
          -2.4718482,50.5853008
          -2.4717627,50.5853103
          -2.4716766,50.5853149
          -2.4715806,50.5853192
          -2.4714953,50.5853209
          -2.4714040,50.5853213
          -2.4713115,50.5853198
          -2.4712204,50.5853238
          -2.4711257,50.5853241
          -2.4710369,50.5853338
          -2.4709385,50.5853413
          -2.4708501,50.5853479
          -2.4707571,50.5853522
          -2.4706768,50.5853503
          -2.4705836,50.5853502
          -2.4704950,50.5853577
          -2.4704089,50.5853546
          -2.4703094,50.5853596
          -2.4702188,50.5853710
          -2.4701425,50.5853737
          -2.4700864,50.5853750
          -2.4700441,50.5853602
          -2.4700226,50.5853522
          -2.4700226,50.5853522
          -2.4700226,50.5853522
          -2.4700226,50.5853522
          -2.4700226,50.5853522
          -2.4700226,50.5853522
        </coordinates>
      </LineString>
    </Placemark>
  </Document>
</kml>
