<?xml version="1.0" encoding="UTF-8"?>
<kml xmlns="http://www.opengis.net/kml/2.2" xmlns:xsi="http://www.w3.org/2001/XMLSchema-instance" xsi:schemaLocation="http://www.opengis.net/kml/2.2 http://schemas.opengis.net/kml/2.2.0/ogckml22.xsd">
  <Document>
    <name>GPS Wizard</name>
    <open>1</open>
    <Style id="wizard">
      <LineStyle>
        <color>a00000ff</color>
        <width>2</width>
      </LineStyle>
    </Style>
    <Placemark>
      <name>TBC</name>
      <styleUrl>#wizard</styleUrl>
      <LineString>
        <extrude>1</extrude>
        <tessellate>1</tessellate>
        <coordinates>
          -2.7603242,50.7102720
          -2.7602745,50.7102309
          -2.7602382,50.7101889
          -2.7602087,50.7101374
          -2.7601793,50.7100860
          -2.7601698,50.7100379
          -2.7601508,50.7099912
          -2.7601290,50.7099367
          -2.7601320,50.7098883
          -2.7601387,50.7098342
          -2.7601246,50.7098001
          -2.7601163,50.7097675
          -2.7601341,50.7097482
          -2.7601676,50.7097255
          -2.7601746,50.7097226
          -2.7601746,50.7097226
          -2.7601746,50.7097226
          -2.7601746,50.7097226
          -2.7601746,50.7097226
          -2.7601746,50.7097226
          -2.7601746,50.7097226
          -2.7601746,50.7097226
          -2.7601746,50.7097226
          -2.7601746,50.7097226
          -2.7601507,50.7097061
          -2.7601480,50.7097038
          -2.7601480,50.7097037
          -2.7601503,50.7097018
          -2.7601041,50.7097122
          -2.7600688,50.7097327
          -2.7600655,50.7097314
          -2.7600655,50.7097314
          -2.7600513,50.7097351
          -2.7599938,50.7097549
          -2.7599279,50.7097626
          -2.7598642,50.7097653
          -2.7598031,50.7097837
          -2.7597306,50.7098142
          -2.7596731,50.7098455
          -2.7596098,50.7098807
          -2.7595373,50.7099128
          -2.7594777,50.7099482
          -2.7594007,50.7099825
          -2.7593395,50.7100135
          -2.7592639,50.7100442
          -2.7592066,50.7100762
          -2.7591569,50.7101095
          -2.7590882,50.7101441
          -2.7590232,50.7101783
          -2.7589517,50.7101951
          -2.7588705,50.7102120
          -2.7587874,50.7102318
          -2.7587042,50.7102508
          -2.7586283,50.7102740
          -2.7585404,50.7102940
          -2.7584526,50.7103155
          -2.7583756,50.7103307
          -2.7582903,50.7103616
          -2.7582476,50.7103787
          -2.7582818,50.7103511
          -2.7582866,50.7103501
          -2.7582853,50.7103516
          -2.7582222,50.7103776
          -2.7581374,50.7104025
          -2.7580566,50.7104250
          -2.7579848,50.7104377
          -2.7578943,50.7104597
          -2.7578078,50.7104735
          -2.7577184,50.7104942
          -2.7576342,50.7105092
          -2.7575461,50.7105237
          -2.7574604,50.7105406
          -2.7573590,50.7105475
          -2.7572743,50.7105577
          -2.7571905,50.7105765
          -2.7571205,50.7105947
          -2.7570461,50.7105936
          -2.7569975,50.7105843
          -2.7569401,50.7105518
          -2.7569070,50.7105232
          -2.7568720,50.7104843
          -2.7568460,50.7104409
          -2.7568220,50.7104014
          -2.7567590,50.7103746
          -2.7567255,50.7103549
          -2.7567199,50.7103446
          -2.7566953,50.7103494
          -2.7566951,50.7103494
          -2.7566650,50.7103289
          -2.7566145,50.7102976
          -2.7565935,50.7102754
          -2.7565495,50.7102465
          -2.7565029,50.7102186
          -2.7564515,50.7101891
          -2.7564102,50.7101703
          -2.7563670,50.7101401
          -2.7563274,50.7101116
          -2.7562791,50.7100851
          -2.7562373,50.7100600
          -2.7561886,50.7100319
          -2.7561465,50.7100036
          -2.7561181,50.7099879
          -2.7560827,50.7099586
          -2.7560383,50.7099379
          -2.7560148,50.7099128
          -2.7559646,50.7098849
          -2.7559220,50.7098498
          -2.7558744,50.7098278
          -2.7558268,50.7098029
          -2.7557853,50.7097776
          -2.7557361,50.7097562
          -2.7556964,50.7097395
          -2.7556621,50.7097196
          -2.7556305,50.7096997
          -2.7555893,50.7096788
          -2.7555418,50.7096621
          -2.7554948,50.7096500
          -2.7554487,50.7096311
          -2.7553925,50.7096213
          -2.7553371,50.7096002
          -2.7552914,50.7095746
          -2.7552456,50.7095495
          -2.7552006,50.7095212
          -2.7551555,50.7094939
          -2.7551018,50.7094622
          -2.7550606,50.7094318
          -2.7550137,50.7093983
          -2.7549700,50.7093707
          -2.7549499,50.7093537
          -2.7549497,50.7093537
          -2.7548912,50.7093421
          -2.7548059,50.7093423
          -2.7547246,50.7093469
          -2.7546425,50.7093444
          -2.7545395,50.7093478
          -2.7544737,50.7093507
          -2.7543883,50.7093461
          -2.7543241,50.7093546
          -2.7542552,50.7093572
          -2.7541904,50.7093556
          -2.7541213,50.7093589
          -2.7540554,50.7093554
          -2.7539825,50.7093623
          -2.7539068,50.7093621
          -2.7538462,50.7093619
          -2.7537683,50.7093696
          -2.7536796,50.7093699
          -2.7535840,50.7093743
          -2.7534906,50.7093751
          -2.7534088,50.7093799
          -2.7533109,50.7093724
          -2.7532385,50.7093713
          -2.7531555,50.7093763
          -2.7531064,50.7093795
          -2.7530898,50.7093760
          -2.7530235,50.7093944
          -2.7529367,50.7094138
          -2.7528581,50.7094333
          -2.7527853,50.7094535
          -2.7527094,50.7094713
          -2.7526409,50.7094841
          -2.7525918,50.7094937
          -2.7525459,50.7095062
          -2.7525018,50.7095122
          -2.7524440,50.7095192
          -2.7523715,50.7095218
          -2.7523146,50.7095493
          -2.7522401,50.7095688
          -2.7521597,50.7095731
          -2.7520764,50.7095695
          -2.7519915,50.7095614
          -2.7519124,50.7095509
          -2.7518241,50.7095389
          -2.7517358,50.7095286
          -2.7516473,50.7095151
          -2.7515615,50.7094990
          -2.7514707,50.7094788
          -2.7513906,50.7094721
          -2.7513228,50.7094903
          -2.7513083,50.7095007
          -2.7513723,50.7094830
          -2.7514374,50.7094799
          -2.7514244,50.7094763
          -2.7513755,50.7094755
          -2.7513035,50.7094918
          -2.7512122,50.7095033
          -2.7511200,50.7095074
          -2.7510345,50.7094961
          -2.7509616,50.7094663
          -2.7509025,50.7094336
          -2.7508621,50.7093874
          -2.7508250,50.7093408
          -2.7508050,50.7092895
          -2.7508112,50.7092375
          -2.7508365,50.7091811
          -2.7508500,50.7091296
          -2.7509010,50.7090851
          -2.7509516,50.7090453
          -2.7509700,50.7089940
          -2.7509889,50.7089673
          -2.7509789,50.7089645
          -2.7509789,50.7089648
          -2.7509954,50.7089616
          -2.7509789,50.7089648
          -2.7509985,50.7089587
          -2.7510021,50.7089573
          -2.7509767,50.7089639
          -2.7509293,50.7089470
          -2.7508612,50.7089093
          -2.7508024,50.7088671
          -2.7507412,50.7088316
          -2.7506752,50.7087941
          -2.7506157,50.7087599
          -2.7505689,50.7087285
          -2.7504892,50.7086979
          -2.7504310,50.7086883
          -2.7504295,50.7086858
          -2.7503535,50.7086904
          -2.7502598,50.7086953
          -2.7501676,50.7086840
          -2.7500652,50.7086677
          -2.7499836,50.7086573
          -2.7498773,50.7086459
          -2.7497921,50.7086331
          -2.7497124,50.7086270
          -2.7496263,50.7086210
          -2.7495468,50.7086146
          -2.7494626,50.7086021
          -2.7493866,50.7085804
          -2.7493062,50.7085662
          -2.7492214,50.7085661
          -2.7491405,50.7085708
          -2.7490545,50.7085677
          -2.7489597,50.7085650
          -2.7488702,50.7085693
          -2.7487605,50.7085770
          -2.7486768,50.7085870
          -2.7485863,50.7085878
          -2.7485032,50.7085825
          -2.7484015,50.7085670
          -2.7483263,50.7085569
          -2.7482294,50.7085346
          -2.7481560,50.7085123
          -2.7480548,50.7084948
          -2.7479735,50.7084638
          -2.7478887,50.7084354
          -2.7477967,50.7084246
          -2.7477069,50.7083988
          -2.7476219,50.7083714
          -2.7475405,50.7083512
          -2.7474533,50.7083289
          -2.7473715,50.7083061
          -2.7472756,50.7082753
          -2.7471813,50.7082600
          -2.7470957,50.7082418
          -2.7470062,50.7082151
          -2.7469139,50.7081957
          -2.7468238,50.7081775
          -2.7467358,50.7081683
          -2.7466576,50.7081354
          -2.7465716,50.7081093
          -2.7464765,50.7080917
          -2.7463966,50.7080580
          -2.7462893,50.7080373
          -2.7462061,50.7080132
          -2.7461155,50.7079958
          -2.7460289,50.7079712
          -2.7459358,50.7079418
          -2.7458487,50.7079233
          -2.7457670,50.7078929
          -2.7456749,50.7078665
          -2.7455881,50.7078323
          -2.7454999,50.7078072
          -2.7454080,50.7077871
          -2.7453192,50.7077648
          -2.7452315,50.7077380
          -2.7451436,50.7077111
          -2.7450537,50.7076852
          -2.7449753,50.7076605
          -2.7448858,50.7076378
          -2.7447929,50.7076190
          -2.7447043,50.7075900
          -2.7446106,50.7075772
          -2.7445156,50.7075474
          -2.7444251,50.7075182
          -2.7443328,50.7074990
          -2.7442347,50.7074756
          -2.7441463,50.7074533
          -2.7440577,50.7074270
          -2.7439736,50.7074050
          -2.7438840,50.7073758
          -2.7438002,50.7073510
          -2.7437093,50.7073273
          -2.7436153,50.7073008
          -2.7435198,50.7072795
          -2.7434278,50.7072521
          -2.7433390,50.7072353
          -2.7432495,50.7072061
          -2.7431602,50.7071855
          -2.7430864,50.7071672
          -2.7430061,50.7071415
          -2.7429741,50.7071260
          -2.7429287,50.7071123
          -2.7428366,50.7070982
          -2.7427551,50.7070705
          -2.7426726,50.7070503
          -2.7425850,50.7070209
          -2.7425021,50.7069978
          -2.7424209,50.7069732
          -2.7423432,50.7069403
          -2.7422560,50.7069217
          -2.7421685,50.7068962
          -2.7420844,50.7068722
          -2.7420018,50.7068528
          -2.7419120,50.7068325
          -2.7418247,50.7068155
          -2.7417320,50.7067725
          -2.7416567,50.7067262
          -2.7415761,50.7066903
          -2.7414946,50.7066690
          -2.7414027,50.7066267
          -2.7413232,50.7066024
          -2.7412334,50.7065778
          -2.7411350,50.7065476
          -2.7410603,50.7065368
          -2.7409672,50.7065391
          -2.7408880,50.7065492
          -2.7408240,50.7065695
          -2.7408058,50.7065771
          -2.7408025,50.7066120
          -2.7407756,50.7066599
          -2.7407295,50.7067167
          -2.7406585,50.7067535
          -2.7405954,50.7067280
          -2.7405240,50.7066832
          -2.7404554,50.7066478
          -2.7403866,50.7066189
          -2.7403047,50.7065858
          -2.7402239,50.7065717
          -2.7401423,50.7065459
          -2.7400551,50.7065156
          -2.7399834,50.7064843
          -2.7399118,50.7064481
          -2.7398359,50.7064169
          -2.7397712,50.7063820
          -2.7397063,50.7063355
          -2.7396530,50.7062952
          -2.7395998,50.7062323
          -2.7395739,50.7061779
          -2.7395611,50.7061245
          -2.7395343,50.7060600
          -2.7394930,50.7060149
          -2.7394596,50.7059737
          -2.7394054,50.7059213
          -2.7393547,50.7058750
          -2.7392978,50.7058414
          -2.7392256,50.7058109
          -2.7391383,50.7057784
          -2.7390738,50.7057512
          -2.7390161,50.7057129
          -2.7389632,50.7056655
          -2.7389329,50.7056176
          -2.7389356,50.7055679
          -2.7389668,50.7055186
          -2.7389926,50.7054683
          -2.7390178,50.7054186
          -2.7389908,50.7053723
          -2.7389703,50.7053209
          -2.7389533,50.7052652
          -2.7389397,50.7052144
          -2.7389195,50.7051576
          -2.7389074,50.7051048
          -2.7388906,50.7050565
          -2.7388765,50.7050014
          -2.7388879,50.7049541
          -2.7388950,50.7049294
          -2.7388823,50.7049216
          -2.7387995,50.7048996
          -2.7387460,50.7048807
          -2.7386728,50.7048491
          -2.7385973,50.7048225
          -2.7385551,50.7047861
          -2.7385290,50.7047287
          -2.7385258,50.7046913
          -2.7385304,50.7046585
          -2.7385361,50.7046451
          -2.7385361,50.7046451
          -2.7385795,50.7046088
          -2.7386425,50.7045671
          -2.7386947,50.7045176
          -2.7387702,50.7044873
          -2.7388253,50.7044503
          -2.7388923,50.7044151
          -2.7389518,50.7043835
          -2.7390241,50.7043511
          -2.7390549,50.7043327
          -2.7390554,50.7043345
          -2.7390554,50.7043345
          -2.7390747,50.7043278
          -2.7391457,50.7042958
          -2.7392209,50.7042638
          -2.7393006,50.7042398
          -2.7393671,50.7042121
          -2.7394494,50.7041854
          -2.7395376,50.7041586
          -2.7396253,50.7041346
          -2.7397001,50.7041132
          -2.7397831,50.7040913
          -2.7398703,50.7040732
          -2.7399561,50.7040577
          -2.7400417,50.7040416
          -2.7401232,50.7040258
          -2.7402104,50.7040121
          -2.7403011,50.7040001
          -2.7403816,50.7039871
          -2.7404546,50.7039771
          -2.7405370,50.7039601
          -2.7406233,50.7039424
          -2.7406978,50.7039159
          -2.7407786,50.7038975
          -2.7408486,50.7038787
          -2.7408834,50.7038707
          -2.7408966,50.7038622
          -2.7408559,50.7038232
          -2.7408507,50.7038278
          -2.7408507,50.7038278
          -2.7408583,50.7038212
          -2.7408809,50.7037953
          -2.7408967,50.7037663
          -2.7409552,50.7037347
          -2.7409672,50.7037056
          -2.7409860,50.7036678
          -2.7410202,50.7036354
          -2.7410498,50.7036015
          -2.7410731,50.7035751
          -2.7410944,50.7035520
          -2.7411155,50.7035218
          -2.7411320,50.7035163
          -2.7411294,50.7035173
          -2.7411294,50.7035173
          -2.7411294,50.7035173
          -2.7411294,50.7035173
          -2.7411294,50.7035173
          -2.7411294,50.7035173
          -2.7411294,50.7035173
          -2.7411294,50.7035173
          -2.7411294,50.7035173
          -2.7411308,50.7035110
          -2.7411435,50.7034992
          -2.7411314,50.7034943
          -2.7410786,50.7035024
          -2.7410219,50.7035159
          -2.7410039,50.7035255
          -2.7410015,50.7035267
          -2.7410015,50.7035267
          -2.7410015,50.7035267
          -2.7410015,50.7035267
          -2.7410319,50.7035126
          -2.7410410,50.7034777
          -2.7410512,50.7034639
          -2.7410475,50.7034704
          -2.7410475,50.7034704
          -2.7410475,50.7034704
          -2.7410475,50.7034704
          -2.7410475,50.7034704
          -2.7410475,50.7034704
          -2.7410475,50.7034704
          -2.7410475,50.7034704
          -2.7410475,50.7034704
          -2.7410475,50.7034704
          -2.7410475,50.7034704
          -2.7410475,50.7034704
          -2.7410475,50.7034704
          -2.7410475,50.7034704
          -2.7410475,50.7034704
          -2.7410475,50.7034704
          -2.7410475,50.7034704
          -2.7410475,50.7034704
          -2.7410475,50.7034704
          -2.7410475,50.7034704
          -2.7410475,50.7034704
          -2.7410475,50.7034704
          -2.7410475,50.7034704
          -2.7410475,50.7034704
          -2.7410475,50.7034704
          -2.7410475,50.7034704
          -2.7410475,50.7034704
          -2.7410475,50.7034704
          -2.7410475,50.7034704
          -2.7410475,50.7034704
          -2.7410475,50.7034704
          -2.7410475,50.7034704
          -2.7410475,50.7034704
          -2.7410475,50.7034704
          -2.7410475,50.7034704
          -2.7410475,50.7034704
          -2.7410475,50.7034704
          -2.7410475,50.7034704
          -2.7410475,50.7034704
          -2.7410475,50.7034704
          -2.7410475,50.7034704
          -2.7410475,50.7034704
          -2.7410475,50.7034704
          -2.7410475,50.7034704
          -2.7410475,50.7034704
          -2.7410475,50.7034704
          -2.7410475,50.7034704
          -2.7410475,50.7034704
          -2.7410353,50.7034649
          -2.7410076,50.7034902
          -2.7409814,50.7035176
          -2.7409685,50.7035583
          -2.7409558,50.7035884
          -2.7409621,50.7036237
          -2.7409559,50.7036675
          -2.7409639,50.7036965
          -2.7409374,50.7037271
          -2.7409202,50.7037647
          -2.7409030,50.7038041
          -2.7408885,50.7038436
          -2.7408807,50.7038853
          -2.7408591,50.7038953
          -2.7407868,50.7039058
          -2.7407138,50.7039215
          -2.7406741,50.7039293
          -2.7406768,50.7039302
          -2.7406768,50.7039302
          -2.7406133,50.7039422
          -2.7405329,50.7039548
          -2.7404543,50.7039707
          -2.7403695,50.7039833
          -2.7403015,50.7039947
          -2.7402208,50.7040051
          -2.7401941,50.7040066
          -2.7401255,50.7040247
          -2.7400458,50.7040394
          -2.7399582,50.7040558
          -2.7399010,50.7040830
          -2.7398483,50.7040868
          -2.7397796,50.7041007
          -2.7397010,50.7041166
          -2.7396206,50.7041362
          -2.7395368,50.7041614
          -2.7394610,50.7041898
          -2.7393904,50.7042118
          -2.7393145,50.7042368
          -2.7392436,50.7042579
          -2.7391689,50.7042895
          -2.7390998,50.7043110
          -2.7390333,50.7043403
          -2.7389656,50.7043755
          -2.7389004,50.7044081
          -2.7388388,50.7044404
          -2.7387739,50.7044765
          -2.7387132,50.7045118
          -2.7386549,50.7045490
          -2.7385787,50.7045925
          -2.7385367,50.7046352
          -2.7385222,50.7046956
          -2.7385434,50.7047476
          -2.7385809,50.7048054
          -2.7386319,50.7048564
          -2.7386865,50.7048996
          -2.7387550,50.7049527
          -2.7387932,50.7049971
          -2.7388413,50.7050419
          -2.7388675,50.7050972
          -2.7389268,50.7051251
          -2.7389737,50.7051388
          -2.7389630,50.7051471
          -2.7389630,50.7051471
          -2.7389630,50.7051471
          -2.7389630,50.7051471
          -2.7389734,50.7051505
          -2.7389630,50.7051471
          -2.7389759,50.7051669
          -2.7389914,50.7052133
          -2.7390178,50.7052607
          -2.7390366,50.7052737
          -2.7390661,50.7052986
          -2.7390609,50.7052977
          -2.7390635,50.7053451
          -2.7390821,50.7054047
          -2.7390822,50.7054398
          -2.7390718,50.7054872
          -2.7390483,50.7055295
          -2.7390060,50.7055888
          -2.7389972,50.7056343
          -2.7390200,50.7056802
          -2.7390915,50.7057112
          -2.7391704,50.7057424
          -2.7392402,50.7057694
          -2.7393100,50.7057984
          -2.7393570,50.7058262
          -2.7393961,50.7058578
          -2.7394386,50.7058991
          -2.7394673,50.7059333
          -2.7394999,50.7059792
          -2.7395318,50.7060135
          -2.7395374,50.7060199
          -2.7395582,50.7060523
          -2.7395735,50.7060934
          -2.7395867,50.7061394
          -2.7396043,50.7061836
          -2.7396318,50.7062273
          -2.7396611,50.7062641
          -2.7397152,50.7063060
          -2.7397583,50.7063331
          -2.7398136,50.7063746
          -2.7398812,50.7064102
          -2.7399411,50.7064423
          -2.7400023,50.7064718
          -2.7400780,50.7064901
          -2.7401341,50.7065088
          -2.7401861,50.7065303
          -2.7402588,50.7065521
          -2.7403289,50.7065770
          -2.7403988,50.7066075
          -2.7404660,50.7066294
          -2.7405340,50.7066561
          -2.7406041,50.7066924
          -2.7406446,50.7067307
          -2.7407125,50.7067328
          -2.7407631,50.7066832
          -2.7407945,50.7066340
          -2.7408097,50.7065927
          -2.7408253,50.7065599
          -2.7408968,50.7065380
          -2.7409760,50.7065285
          -2.7410604,50.7065435
          -2.7411250,50.7065609
          -2.7412047,50.7065785
          -2.7412879,50.7065996
          -2.7413619,50.7066200
          -2.7414438,50.7066517
          -2.7415189,50.7066752
          -2.7415910,50.7067034
          -2.7416521,50.7067386
          -2.7417306,50.7067749
          -2.7418234,50.7068112
          -2.7418845,50.7068334
          -2.7419628,50.7068447
          -2.7420494,50.7068575
          -2.7421300,50.7068819
          -2.7422250,50.7069178
          -2.7423060,50.7069439
          -2.7423870,50.7069708
          -2.7424686,50.7069838
          -2.7425576,50.7070135
          -2.7426481,50.7070487
          -2.7427263,50.7070773
          -2.7428010,50.7070930
          -2.7428994,50.7071162
          -2.7429808,50.7071341
          -2.7430660,50.7071555
          -2.7431585,50.7071774
          -2.7432394,50.7072052
          -2.7433331,50.7072355
          -2.7434190,50.7072635
          -2.7434826,50.7072863
          -2.7435711,50.7073085
          -2.7436589,50.7073324
          -2.7437383,50.7073496
          -2.7438199,50.7073648
          -2.7439150,50.7073903
          -2.7439963,50.7074162
          -2.7440825,50.7074384
          -2.7441810,50.7074650
          -2.7442700,50.7074896
          -2.7443642,50.7075161
          -2.7444557,50.7075422
          -2.7445410,50.7075571
          -2.7446285,50.7075783
          -2.7447078,50.7076023
          -2.7448077,50.7076312
          -2.7448909,50.7076481
          -2.7449725,50.7076746
          -2.7450564,50.7076934
          -2.7451511,50.7077154
          -2.7452379,50.7077420
          -2.7453284,50.7077668
          -2.7454130,50.7077933
          -2.7455049,50.7078229
          -2.7455947,50.7078392
          -2.7456853,50.7078682
          -2.7457673,50.7078960
          -2.7458610,50.7079233
          -2.7459340,50.7079475
          -2.7460150,50.7079785
          -2.7461078,50.7079994
          -2.7462051,50.7080197
          -2.7462870,50.7080428
          -2.7463752,50.7080714
          -2.7464592,50.7080914
          -2.7465571,50.7081198
          -2.7466474,50.7081373
          -2.7467246,50.7081590
          -2.7468104,50.7081843
          -2.7469109,50.7082072
          -2.7469883,50.7082223
          -2.7470786,50.7082444
          -2.7471677,50.7082709
          -2.7472510,50.7082878
          -2.7473336,50.7083052
          -2.7474232,50.7083303
          -2.7475036,50.7083512
          -2.7475987,50.7083759
          -2.7476862,50.7083983
          -2.7477810,50.7084281
          -2.7478623,50.7084431
          -2.7479507,50.7084653
          -2.7480479,50.7084933
          -2.7481244,50.7085118
          -2.7482127,50.7085428
          -2.7483043,50.7085708
          -2.7483899,50.7085961
          -2.7484758,50.7086230
          -2.7485752,50.7086019
          -2.7486621,50.7085937
          -2.7487534,50.7085852
          -2.7488383,50.7085724
          -2.7489384,50.7085672
          -2.7490380,50.7085705
          -2.7491276,50.7085757
          -2.7492115,50.7085778
          -2.7493060,50.7085760
          -2.7493905,50.7085920
          -2.7494692,50.7086113
          -2.7495626,50.7086283
          -2.7496633,50.7086358
          -2.7497611,50.7086388
          -2.7498541,50.7086536
          -2.7499458,50.7086657
          -2.7500403,50.7086824
          -2.7501390,50.7086972
          -2.7502236,50.7087066
          -2.7503330,50.7087089
          -2.7504121,50.7086978
          -2.7504901,50.7087064
          -2.7505602,50.7087533
          -2.7506152,50.7087889
          -2.7506872,50.7088243
          -2.7507566,50.7088792
          -2.7508244,50.7089153
          -2.7508895,50.7089583
          -2.7509390,50.7090002
          -2.7509094,50.7090458
          -2.7508452,50.7090885
          -2.7508078,50.7091310
          -2.7507913,50.7091971
          -2.7507818,50.7092442
          -2.7507753,50.7093105
          -2.7508122,50.7093758
          -2.7508570,50.7094286
          -2.7509395,50.7094698
          -2.7510182,50.7095017
          -2.7511178,50.7095203
          -2.7512124,50.7095139
          -2.7513020,50.7094936
          -2.7513873,50.7094774
          -2.7514746,50.7094902
          -2.7515569,50.7095074
          -2.7516496,50.7095224
          -2.7517334,50.7095411
          -2.7518332,50.7095538
          -2.7519216,50.7095635
          -2.7519991,50.7095662
          -2.7520811,50.7095799
          -2.7521885,50.7095886
          -2.7522979,50.7095726
          -2.7523545,50.7095398
          -2.7524173,50.7095286
          -2.7524718,50.7095288
          -2.7525275,50.7095244
          -2.7525712,50.7095102
          -2.7526150,50.7094996
          -2.7526758,50.7094907
          -2.7527670,50.7094708
          -2.7528255,50.7094520
          -2.7528870,50.7094293
          -2.7529790,50.7094125
          -2.7530494,50.7093860
          -2.7530776,50.7093690
          -2.7530835,50.7093649
          -2.7531803,50.7093711
          -2.7532658,50.7093677
          -2.7533535,50.7093729
          -2.7534228,50.7093783
          -2.7535034,50.7093820
          -2.7535902,50.7093805
          -2.7536711,50.7093753
          -2.7537443,50.7093758
          -2.7538097,50.7093763
          -2.7538776,50.7093815
          -2.7539299,50.7093784
          -2.7539926,50.7093722
          -2.7540438,50.7093693
          -2.7541060,50.7093680
          -2.7541532,50.7093638
          -2.7542158,50.7093650
          -2.7542790,50.7093649
          -2.7543500,50.7093637
          -2.7544626,50.7093546
          -2.7545293,50.7093561
          -2.7546058,50.7093562
          -2.7546893,50.7093566
          -2.7547772,50.7093536
          -2.7548587,50.7093549
          -2.7549293,50.7093666
          -2.7549842,50.7093996
          -2.7550508,50.7094305
          -2.7551099,50.7094618
          -2.7551673,50.7094963
          -2.7552115,50.7095358
          -2.7552736,50.7095728
          -2.7553303,50.7096042
          -2.7554259,50.7096237
          -2.7554578,50.7096464
          -2.7555228,50.7096693
          -2.7555886,50.7096936
          -2.7556395,50.7097143
          -2.7556958,50.7097485
          -2.7557553,50.7097778
          -2.7558342,50.7098041
          -2.7558982,50.7098417
          -2.7559649,50.7098785
          -2.7560315,50.7099113
          -2.7560824,50.7099520
          -2.7561316,50.7099817
          -2.7561907,50.7100162
          -2.7562438,50.7100571
          -2.7562911,50.7100931
          -2.7563453,50.7101307
          -2.7564169,50.7101704
          -2.7564920,50.7102045
          -2.7565408,50.7102405
          -2.7566015,50.7102825
          -2.7566372,50.7103261
          -2.7566577,50.7103471
          -2.7566988,50.7103458
          -2.7567132,50.7103413
          -2.7566991,50.7103457
          -2.7566991,50.7103457
          -2.7566991,50.7103457
          -2.7566988,50.7103507
          -2.7567355,50.7103786
          -2.7567889,50.7103937
          -2.7568160,50.7104250
          -2.7568376,50.7104657
          -2.7568842,50.7105182
          -2.7569311,50.7105388
          -2.7569843,50.7105702
          -2.7570700,50.7105956
          -2.7571616,50.7105916
          -2.7572432,50.7105786
          -2.7573322,50.7105620
          -2.7574170,50.7105447
          -2.7575021,50.7105319
          -2.7575922,50.7105224
          -2.7576861,50.7105042
          -2.7577654,50.7104851
          -2.7578569,50.7104664
          -2.7579439,50.7104441
          -2.7580246,50.7104334
          -2.7581128,50.7104059
          -2.7582120,50.7103857
          -2.7582874,50.7103586
          -2.7583912,50.7103351
          -2.7584775,50.7103064
          -2.7585851,50.7102922
          -2.7586589,50.7102745
          -2.7587638,50.7102399
          -2.7588537,50.7102135
          -2.7589419,50.7101963
          -2.7590312,50.7101812
          -2.7591275,50.7101635
          -2.7591823,50.7101769
          -2.7592795,50.7101948
          -2.7593622,50.7102212
          -2.7594543,50.7102556
          -2.7595256,50.7102888
          -2.7595989,50.7103284
          -2.7596793,50.7103605
          -2.7597644,50.7103971
          -2.7598466,50.7104306
          -2.7599295,50.7104755
          -2.7599971,50.7105150
          -2.7600862,50.7105457
          -2.7601723,50.7105737
          -2.7602545,50.7106076
          -2.7603278,50.7106508
          -2.7603973,50.7106748
          -2.7604879,50.7107131
          -2.7605462,50.7107496
          -2.7606372,50.7107753
          -2.7607272,50.7108001
          -2.7608272,50.7108219
          -2.7608311,50.7108133
          -2.7609189,50.7108362
          -2.7610127,50.7108597
          -2.7610878,50.7108727
          -2.7611640,50.7108888
          -2.7612200,50.7109045
          -2.7612686,50.7108977
          -2.7613412,50.7109158
          -2.7613789,50.7109585
          -2.7614166,50.7109987
          -2.7614703,50.7110372
          -2.7615290,50.7110609
          -2.7615939,50.7110724
          -2.7615949,50.7110713
          -2.7616011,50.7110777
          -2.7616089,50.7110754
          -2.7616120,50.7110864
          -2.7616120,50.7110864
          -2.7616122,50.7110857
          -2.7615384,50.7110386
          -2.7614681,50.7110241
          -2.7614342,50.7109987
          -2.7614087,50.7109561
          -2.7613551,50.7109150
          -2.7612802,50.7108905
          -2.7612173,50.7108612
          -2.7611792,50.7108468
          -2.7611407,50.7108374
          -2.7611203,50.7108486
          -2.7611129,50.7108595
          -2.7611093,50.7108619
          -2.7611130,50.7108601
          -2.7611319,50.7108609
          -2.7611244,50.7108576
          -2.7611179,50.7108561
          -2.7611138,50.7108459
          -2.7611091,50.7108469
          -2.7611095,50.7108500
          -2.7611198,50.7108557
          -2.7611308,50.7108480
          -2.7611540,50.7108584
          -2.7611637,50.7108696
          -2.7611866,50.7108878
          -2.7611925,50.7108977
          -2.7611836,50.7108821
          -2.7611522,50.7108704
          -2.7611431,50.7108597
          -2.7611475,50.7108593
          -2.7611228,50.7108652
          -2.7611040,50.7108584
          -2.7611063,50.7108428
          -2.7610974,50.7108179
          -2.7611002,50.7108078
          -2.7610887,50.7108102
          -2.7610952,50.7108155
          -2.7611049,50.7108268
          -2.7611120,50.7108309
          -2.7611209,50.7108358
          -2.7611102,50.7108350
          -2.7610885,50.7108356
          -2.7610634,50.7108340
          -2.7610422,50.7108346
          -2.7610473,50.7108271
          -2.7610386,50.7108164
          -2.7610546,50.7108166
          -2.7610688,50.7108386
          -2.7611054,50.7108504
          -2.7611469,50.7108466
          -2.7612018,50.7108047
          -2.7612360,50.7107936
          -2.7612036,50.7108215
          -2.7612139,50.7108013
          -2.7612151,50.7108110
          -2.7611837,50.7108325
          -2.7611328,50.7108316
          -2.7610825,50.7108216
          -2.7610823,50.7108366
          -2.7611438,50.7108452
          -2.7612084,50.7107998
          -2.7612891,50.7107533
          -2.7613162,50.7107339
          -2.7613235,50.7107330
          -2.7613246,50.7107329
          -2.7613246,50.7107329
          -2.7613246,50.7107329
          -2.7613272,50.7107321
          -2.7613612,50.7106940
          -2.7613879,50.7106618
          -2.7614207,50.7106233
          -2.7614714,50.7105816
          -2.7615325,50.7105411
          -2.7615845,50.7104890
          -2.7616074,50.7104336
          -2.7616371,50.7103874
          -2.7616695,50.7103291
          -2.7616715,50.7102689
          -2.7617174,50.7102124
          -2.7617594,50.7101471
          -2.7617768,50.7100962
          -2.7617755,50.7100471
          -2.7617746,50.7100005
          -2.7617725,50.7099652
          -2.7617749,50.7099162
          -2.7617781,50.7098785
          -2.7617943,50.7098354
          -2.7618202,50.7097996
          -2.7618355,50.7097705
          -2.7618625,50.7097364
          -2.7618857,50.7097189
          -2.7618839,50.7097223
          -2.7618839,50.7097223
          -2.7618839,50.7097223
          -2.7618839,50.7097223
          -2.7618839,50.7097223
          -2.7618839,50.7097223
          -2.7618839,50.7097223
          -2.7618703,50.7097275
          -2.7618654,50.7097710
          -2.7618244,50.7098069
          -2.7617983,50.7098635
          -2.7617754,50.7099027
          -2.7617801,50.7099037
          -2.7617855,50.7099384
          -2.7617827,50.7099854
          -2.7617654,50.7100431
          -2.7617488,50.7101042
          -2.7617529,50.7101386
          -2.7617273,50.7101875
          -2.7616886,50.7102440
          -2.7616653,50.7103017
          -2.7616326,50.7103553
          -2.7616036,50.7104073
          -2.7615806,50.7104628
          -2.7615410,50.7105133
          -2.7614811,50.7105563
          -2.7614368,50.7106024
          -2.7613904,50.7106466
          -2.7613437,50.7106868
          -2.7612947,50.7107370
          -2.7613268,50.7107760
          -2.7613517,50.7107624
          -2.7613527,50.7108061
          -2.7613661,50.7108655
          -2.7613843,50.7109241
          -2.7614012,50.7109775
          -2.7614357,50.7110326
          -2.7614653,50.7110785
          -2.7614347,50.7111050
          -2.7614234,50.7111054
          -2.7614277,50.7111062
          -2.7614277,50.7111062
          -2.7614277,50.7111062
          -2.7614277,50.7111062
          -2.7614434,50.7111076
          -2.7614277,50.7111062
          -2.7614277,50.7111062
          -2.7614277,50.7111062
          -2.7614277,50.7111062
          -2.7614336,50.7111142
          -2.7614277,50.7111062
          -2.7614277,50.7111062
          -2.7614277,50.7111062
          -2.7614240,50.7111206
          -2.7614240,50.7111206
          -2.7614240,50.7111206
          -2.7614240,50.7111206
          -2.7614240,50.7111206
          -2.7614240,50.7111206
          -2.7614240,50.7111206
          -2.7614240,50.7111206
          -2.7614240,50.7111206
          -2.7614240,50.7111206
          -2.7614240,50.7111206
          -2.7614240,50.7111206
          -2.7614240,50.7111206
          -2.7614240,50.7111206
          -2.7614375,50.7111155
          -2.7614240,50.7111206
          -2.7614240,50.7111206
          -2.7614240,50.7111206
          -2.7614240,50.7111206
          -2.7614240,50.7111206
          -2.7614240,50.7111206
          -2.7614240,50.7111206
          -2.7614240,50.7111206
          -2.7614240,50.7111206
          -2.7614240,50.7111206
          -2.7614240,50.7111206
          -2.7614240,50.7111206
          -2.7614240,50.7111206
          -2.7614240,50.7111206
          -2.7614240,50.7111206
          -2.7614230,50.7111131
          -2.7614332,50.7111060
          -2.7614366,50.7111074
          -2.7614366,50.7111074
          -2.7614295,50.7111049
          -2.7614482,50.7111043
          -2.7614366,50.7111074
          -2.7614366,50.7111074
          -2.7614366,50.7111074
          -2.7614366,50.7111074
          -2.7614366,50.7111074
          -2.7614366,50.7111074
          -2.7614366,50.7111074
          -2.7614366,50.7111074
          -2.7614366,50.7111074
          -2.7614366,50.7111074
          -2.7614366,50.7111074
          -2.7614366,50.7111074
          -2.7614366,50.7111074
          -2.7614366,50.7111074
          -2.7614366,50.7111074
          -2.7614366,50.7111074
          -2.7614366,50.7111074
          -2.7614366,50.7111074
          -2.7614366,50.7111074
          -2.7614366,50.7111074
          -2.7614366,50.7111074
          -2.7614366,50.7111074
          -2.7614366,50.7111074
          -2.7614366,50.7111074
          -2.7614366,50.7111074
          -2.7614366,50.7111074
          -2.7614366,50.7111074
          -2.7614366,50.7111074
          -2.7614366,50.7111074
          -2.7614366,50.7111074
          -2.7614366,50.7111074
          -2.7614366,50.7111074
          -2.7614366,50.7111074
          -2.7614366,50.7111074
          -2.7614366,50.7111074
          -2.7614366,50.7111074
          -2.7614366,50.7111074
          -2.7614366,50.7111074
          -2.7614366,50.7111074
          -2.7614366,50.7111074
          -2.7614366,50.7111074
          -2.7614366,50.7111074
          -2.7614366,50.7111074
          -2.7614366,50.7111074
          -2.7614366,50.7111074
          -2.7614366,50.7111074
          -2.7614366,50.7111074
          -2.7614366,50.7111074
          -2.7614366,50.7111074
          -2.7614366,50.7111074
          -2.7614366,50.7111074
          -2.7614366,50.7111074
          -2.7614366,50.7111074
          -2.7614366,50.7111074
          -2.7614366,50.7111074
          -2.7614366,50.7111074
          -2.7614366,50.7111074
          -2.7614366,50.7111074
          -2.7614366,50.7111074
          -2.7614366,50.7111074
          -2.7614366,50.7111074
          -2.7614366,50.7111074
          -2.7614366,50.7111074
          -2.7614366,50.7111074
          -2.7614366,50.7111074
          -2.7614366,50.7111074
          -2.7614366,50.7111074
          -2.7614366,50.7111074
          -2.7614366,50.7111074
          -2.7614366,50.7111074
          -2.7614366,50.7111074
          -2.7614366,50.7111074
          -2.7614366,50.7111074
          -2.7614366,50.7111074
          -2.7614366,50.7111074
          -2.7614366,50.7111074
          -2.7614366,50.7111074
          -2.7614366,50.7111074
          -2.7614366,50.7111074
          -2.7614366,50.7111074
          -2.7614366,50.7111074
          -2.7614366,50.7111074
          -2.7614366,50.7111074
          -2.7614366,50.7111074
          -2.7614366,50.7111074
          -2.7614366,50.7111074
          -2.7614366,50.7111074
          -2.7614366,50.7111074
          -2.7614366,50.7111074
          -2.7614366,50.7111074
          -2.7614366,50.7111074
          -2.7614366,50.7111074
          -2.7614366,50.7111074
          -2.7614366,50.7111074
          -2.7614366,50.7111074
          -2.7614366,50.7111074
          -2.7614366,50.7111074
          -2.7614366,50.7111074
          -2.7614366,50.7111074
          -2.7614366,50.7111074
          -2.7614366,50.7111074
          -2.7614447,50.7111037
          -2.7614393,50.7111168
          -2.7614653,50.7111619
          -2.7614909,50.7112066
          -2.7615104,50.7112504
          -2.7615480,50.7112773
          -2.7615744,50.7112854
          -2.7616459,50.7113198
          -2.7617348,50.7113372
          -2.7618135,50.7113485
          -2.7618838,50.7113455
          -2.7619682,50.7113576
          -2.7620520,50.7113651
          -2.7620772,50.7113784
          -2.7621471,50.7113972
          -2.7622203,50.7114159
          -2.7622562,50.7114340
          -2.7622561,50.7114345
          -2.7622590,50.7114473
          -2.7623115,50.7114921
          -2.7623958,50.7115080
          -2.7624706,50.7115144
          -2.7625017,50.7115374
          -2.7624926,50.7115500
          -2.7624926,50.7115500
          -2.7624926,50.7115500
          -2.7624926,50.7115500
          -2.7624926,50.7115500
          -2.7624926,50.7115500
          -2.7624926,50.7115500
          -2.7624926,50.7115500
          -2.7625030,50.7115463
          -2.7625610,50.7115341
          -2.7626374,50.7115366
          -2.7627178,50.7115382
          -2.7627625,50.7115491
          -2.7628188,50.7115406
          -2.7628174,50.7115408
          -2.7628174,50.7115408
          -2.7628174,50.7115408
          -2.7627661,50.7115450
          -2.7627672,50.7115425
          -2.7627569,50.7115293
          -2.7627192,50.7115210
          -2.7626450,50.7115214
          -2.7625491,50.7115127
          -2.7624735,50.7115079
          -2.7623886,50.7115064
          -2.7623054,50.7115160
          -2.7622090,50.7115259
          -2.7621166,50.7115225
          -2.7620396,50.7115069
          -2.7619627,50.7114960
          -2.7618741,50.7114749
          -2.7617942,50.7114531
          -2.7617047,50.7114318
          -2.7616284,50.7114182
          -2.7615415,50.7114127
          -2.7614676,50.7113878
          -2.7614375,50.7113398
          -2.7614109,50.7112924
          -2.7613627,50.7112362
          -2.7613133,50.7111881
          -2.7612785,50.7111395
          -2.7612471,50.7110798
          -2.7611878,50.7110384
          -2.7611102,50.7110003
          -2.7610197,50.7109733
          -2.7609360,50.7109579
          -2.7608477,50.7109316
          -2.7607699,50.7109069
          -2.7606826,50.7108955
          -2.7605964,50.7108922
          -2.7605460,50.7108595
          -2.7605072,50.7108153
          -2.7604703,50.7107972
          -2.7604942,50.7107508
          -2.7605479,50.7106959
          -2.7606019,50.7106449
          -2.7605853,50.7105903
          -2.7605743,50.7105365
          -2.7605821,50.7104747
          -2.7605768,50.7104136
          -2.7605704,50.7103861
          -2.7605985,50.7103358
          -2.7605597,50.7103300
          -2.7605755,50.7103353
        </coordinates>
      </LineString>
    </Placemark>
  </Document>
</kml>
