<?xml version="1.0" encoding="UTF-8"?>
<kml xmlns="http://www.opengis.net/kml/2.2" xmlns:xsi="http://www.w3.org/2001/XMLSchema-instance" xsi:schemaLocation="http://www.opengis.net/kml/2.2 http://schemas.opengis.net/kml/2.2.0/ogckml22.xsd">
  <Document>
    <name>GPS Wizard</name>
    <open>1</open>
    <Style id="wizard">
      <LineStyle>
        <color>a00000ff</color>
        <width>2</width>
      </LineStyle>
    </Style>
    <Placemark>
      <name>TBC</name>
      <styleUrl>#wizard</styleUrl>
      <LineString>
        <extrude>1</extrude>
        <tessellate>1</tessellate>
        <coordinates>
          -2.8225698,50.7225583
          -2.8224587,50.7225103
          -2.8224677,50.7224682
          -2.8224911,50.7224105
          -2.8225042,50.7223696
          -2.8225126,50.7223608
          -2.8225126,50.7223608
          -2.8225015,50.7223633
          -2.8225126,50.7223608
          -2.8225126,50.7223608
          -2.8225126,50.7223608
          -2.8225126,50.7223608
          -2.8225126,50.7223608
          -2.8225126,50.7223608
          -2.8225038,50.7223651
          -2.8224836,50.7223739
          -2.8224989,50.7223747
          -2.8224989,50.7223747
          -2.8224989,50.7223747
          -2.8224989,50.7223747
          -2.8224989,50.7223747
          -2.8224989,50.7223747
          -2.8224989,50.7223747
          -2.8224989,50.7223747
          -2.8224651,50.7223673
          -2.8224656,50.7223658
          -2.8224893,50.7223488
          -2.8224899,50.7223128
          -2.8225085,50.7222820
          -2.8224944,50.7222739
          -2.8224851,50.7222633
          -2.8224557,50.7222285
          -2.8224114,50.7221939
          -2.8223783,50.7221577
          -2.8223472,50.7221176
          -2.8222983,50.7220878
          -2.8222725,50.7220569
          -2.8222787,50.7220536
          -2.8222514,50.7220291
          -2.8221990,50.7219749
          -2.8221560,50.7219520
          -2.8221091,50.7219496
          -2.8220424,50.7219395
          -2.8219899,50.7219255
          -2.8219265,50.7219110
          -2.8218811,50.7218998
          -2.8218409,50.7219002
          -2.8217897,50.7218974
          -2.8217592,50.7218917
          -2.8217527,50.7218881
          -2.8216963,50.7218905
          -2.8216502,50.7218914
          -2.8215924,50.7218872
          -2.8215578,50.7218843
          -2.8215520,50.7218784
          -2.8215512,50.7218777
          -2.8215497,50.7218769
          -2.8214852,50.7218649
          -2.8214360,50.7218700
          -2.8213740,50.7218512
          -2.8213168,50.7218414
          -2.8212471,50.7218376
          -2.8211771,50.7218288
          -2.8211008,50.7218163
          -2.8210344,50.7218025
          -2.8209383,50.7217858
          -2.8208774,50.7217860
          -2.8208016,50.7217811
          -2.8207279,50.7217770
          -2.8206579,50.7217687
          -2.8205771,50.7217640
          -2.8205003,50.7217540
          -2.8204257,50.7217488
          -2.8203522,50.7217354
          -2.8202689,50.7217139
          -2.8202045,50.7217088
          -2.8201367,50.7216972
          -2.8200670,50.7216789
          -2.8199968,50.7216629
          -2.8199244,50.7216508
          -2.8198490,50.7216366
          -2.8197730,50.7216153
          -2.8197045,50.7215977
          -2.8196558,50.7215778
          -2.8195891,50.7215605
          -2.8195289,50.7215459
          -2.8194635,50.7215323
          -2.8194016,50.7215163
          -2.8193349,50.7215010
          -2.8192798,50.7214919
          -2.8192021,50.7214813
          -2.8191360,50.7214684
          -2.8190759,50.7214511
          -2.8190106,50.7214397
          -2.8189346,50.7214185
          -2.8188749,50.7214152
          -2.8188114,50.7214178
          -2.8187249,50.7214122
          -2.8186706,50.7214159
          -2.8186069,50.7214114
          -2.8185338,50.7214044
          -2.8184707,50.7214008
          -2.8184011,50.7213989
          -2.8183374,50.7214016
          -2.8182709,50.7214015
          -2.8182026,50.7214035
          -2.8181401,50.7214052
          -2.8180708,50.7214003
          -2.8180051,50.7214094
          -2.8179573,50.7214097
          -2.8178931,50.7214078
          -2.8178254,50.7214149
          -2.8177728,50.7214207
          -2.8177078,50.7214257
          -2.8176490,50.7214332
          -2.8175840,50.7214478
          -2.8175246,50.7214519
          -2.8175267,50.7214500
          -2.8175267,50.7214500
          -2.8175267,50.7214500
          -2.8175267,50.7214500
          -2.8175172,50.7214518
          -2.8175267,50.7214500
          -2.8175267,50.7214500
          -2.8175267,50.7214500
          -2.8175267,50.7214500
          -2.8175203,50.7214585
          -2.8175267,50.7214500
          -2.8175267,50.7214500
          -2.8175267,50.7214500
          -2.8175267,50.7214500
          -2.8175267,50.7214500
          -2.8175267,50.7214500
          -2.8175158,50.7214578
          -2.8174833,50.7214522
          -2.8174896,50.7214063
          -2.8174773,50.7213941
          -2.8174453,50.7214386
          -2.8173894,50.7214687
          -2.8173396,50.7214809
          -2.8172829,50.7214708
          -2.8172343,50.7214595
          -2.8171919,50.7214426
          -2.8171586,50.7214113
          -2.8171137,50.7213893
          -2.8170768,50.7213786
          -2.8170356,50.7213680
          -2.8169910,50.7213480
          -2.8169548,50.7213371
          -2.8169047,50.7213228
          -2.8168495,50.7213196
          -2.8168065,50.7213171
          -2.8167809,50.7213029
          -2.8167837,50.7212828
          -2.8167770,50.7212325
          -2.8167511,50.7212135
          -2.8167123,50.7211976
          -2.8166713,50.7211884
          -2.8166196,50.7211829
          -2.8165599,50.7211653
          -2.8165112,50.7211595
          -2.8164584,50.7211507
          -2.8163957,50.7211418
          -2.8163394,50.7211345
          -2.8162646,50.7211314
          -2.8162065,50.7211310
          -2.8161408,50.7211351
          -2.8160699,50.7211397
          -2.8159963,50.7211387
          -2.8159249,50.7211313
          -2.8158707,50.7211209
          -2.8158023,50.7211038
          -2.8157256,50.7210851
          -2.8156772,50.7210795
          -2.8156102,50.7210617
          -2.8155541,50.7210471
          -2.8154754,50.7210389
          -2.8154167,50.7210257
          -2.8153581,50.7210163
          -2.8152856,50.7209990
          -2.8152108,50.7209831
          -2.8151352,50.7209724
          -2.8150551,50.7209682
          -2.8149841,50.7209595
          -2.8149093,50.7209490
          -2.8148339,50.7209332
          -2.8147526,50.7209056
          -2.8146900,50.7208933
          -2.8146148,50.7208751
          -2.8145477,50.7208541
          -2.8144830,50.7208327
          -2.8144247,50.7208036
          -2.8143605,50.7207736
          -2.8143058,50.7207404
          -2.8142542,50.7207057
          -2.8142171,50.7206676
          -2.8141649,50.7206296
          -2.8141066,50.7205999
          -2.8140304,50.7205666
          -2.8139386,50.7205383
          -2.8138632,50.7205109
          -2.8137954,50.7204845
          -2.8137399,50.7204514
          -2.8136548,50.7204007
          -2.8136015,50.7203729
          -2.8135252,50.7203421
          -2.8134502,50.7203097
          -2.8133675,50.7202690
          -2.8133009,50.7202281
          -2.8132332,50.7202008
          -2.8131504,50.7201818
          -2.8130722,50.7201645
          -2.8130027,50.7201433
          -2.8129342,50.7201189
          -2.8128588,50.7201011
          -2.8127826,50.7200751
          -2.8127170,50.7200530
          -2.8126406,50.7200219
          -2.8125664,50.7199879
          -2.8124862,50.7199676
          -2.8124111,50.7199510
          -2.8123368,50.7199354
          -2.8122491,50.7199305
          -2.8121727,50.7199368
          -2.8120957,50.7199279
          -2.8120510,50.7199029
          -2.8120185,50.7198981
          -2.8119864,50.7198800
          -2.8119861,50.7198836
          -2.8119030,50.7198881
          -2.8118094,50.7198926
          -2.8117249,50.7198961
          -2.8116892,50.7198997
          -2.8116398,50.7198983
          -2.8115639,50.7198981
          -2.8114850,50.7198987
          -2.8114279,50.7199056
          -2.8113595,50.7199099
          -2.8112991,50.7199125
          -2.8112289,50.7199161
          -2.8111618,50.7199163
          -2.8111028,50.7199142
          -2.8110678,50.7199211
          -2.8110431,50.7199514
          -2.8110384,50.7199585
          -2.8110384,50.7199585
          -2.8110384,50.7199585
          -2.8110384,50.7199585
          -2.8110384,50.7199585
          -2.8110384,50.7199585
          -2.8110384,50.7199585
          -2.8110384,50.7199585
          -2.8110384,50.7199585
          -2.8110384,50.7199585
          -2.8110384,50.7199585
          -2.8110384,50.7199585
          -2.8110384,50.7199585
          -2.8110384,50.7199585
          -2.8110384,50.7199585
          -2.8110384,50.7199585
          -2.8110384,50.7199585
          -2.8110384,50.7199585
          -2.8110384,50.7199585
          -2.8110450,50.7199551
          -2.8110162,50.7199280
          -2.8109846,50.7199119
          -2.8109838,50.7199098
          -2.8109822,50.7199092
          -2.8109083,50.7199005
          -2.8108648,50.7199177
          -2.8108319,50.7199084
          -2.8107805,50.7199142
          -2.8107289,50.7199202
          -2.8106942,50.7199175
          -2.8106575,50.7199264
          -2.8106259,50.7199299
          -2.8105820,50.7199257
          -2.8105466,50.7199396
          -2.8105079,50.7199479
          -2.8104727,50.7199552
          -2.8104386,50.7199578
          -2.8103954,50.7199712
          -2.8103598,50.7199749
          -2.8103233,50.7199795
          -2.8102868,50.7199846
          -2.8102538,50.7199855
          -2.8102153,50.7199971
          -2.8101582,50.7199970
          -2.8101406,50.7200026
          -2.8100925,50.7200030
          -2.8100719,50.7200213
          -2.8100826,50.7200493
          -2.8100739,50.7200541
          -2.8100739,50.7200541
          -2.8100739,50.7200541
          -2.8100739,50.7200541
          -2.8100739,50.7200541
          -2.8100739,50.7200541
          -2.8100739,50.7200541
          -2.8100739,50.7200541
          -2.8100739,50.7200541
          -2.8100739,50.7200541
          -2.8100739,50.7200541
          -2.8100739,50.7200541
          -2.8100739,50.7200541
          -2.8100741,50.7200508
          -2.8100739,50.7200541
          -2.8100739,50.7200541
          -2.8100938,50.7200318
          -2.8100506,50.7200061
          -2.8099968,50.7200139
          -2.8099413,50.7200206
          -2.8099074,50.7200245
          -2.8098739,50.7200380
          -2.8098309,50.7200382
          -2.8097936,50.7200432
          -2.8097478,50.7200498
          -2.8097063,50.7200541
          -2.8096631,50.7200617
          -2.8096179,50.7200714
          -2.8095704,50.7200851
          -2.8095413,50.7200954
          -2.8094948,50.7200984
          -2.8094467,50.7201096
          -2.8094001,50.7201261
          -2.8093478,50.7201427
          -2.8092893,50.7201620
          -2.8092446,50.7201685
          -2.8092098,50.7201714
          -2.8091616,50.7201753
          -2.8090964,50.7201793
          -2.8090260,50.7201862
          -2.8089563,50.7201861
          -2.8089011,50.7201888
          -2.8088701,50.7201872
          -2.8088639,50.7201893
          -2.8088180,50.7201906
          -2.8087849,50.7201991
          -2.8087569,50.7202050
          -2.8087359,50.7202065
          -2.8087359,50.7202065
          -2.8087359,50.7202065
          -2.8087359,50.7202065
          -2.8087316,50.7202074
          -2.8086659,50.7202164
          -2.8085976,50.7202246
          -2.8085401,50.7202348
          -2.8084639,50.7202397
          -2.8084074,50.7202563
          -2.8083573,50.7202706
          -2.8083097,50.7202803
          -2.8082642,50.7202978
          -2.8082660,50.7202872
          -2.8082588,50.7202887
          -2.8082588,50.7202887
          -2.8082588,50.7202887
          -2.8082588,50.7202887
          -2.8082588,50.7202887
          -2.8082588,50.7202887
          -2.8082588,50.7202887
          -2.8082588,50.7202887
          -2.8082588,50.7202887
          -2.8082588,50.7202887
          -2.8082588,50.7202887
          -2.8082588,50.7202887
          -2.8082588,50.7202887
          -2.8082588,50.7202887
          -2.8082588,50.7202887
          -2.8082588,50.7202887
          -2.8082346,50.7202909
          -2.8081767,50.7203050
          -2.8081261,50.7203237
          -2.8080646,50.7203486
          -2.8080029,50.7203630
          -2.8079329,50.7203794
          -2.8078662,50.7203939
          -2.8077896,50.7204120
          -2.8077205,50.7204301
          -2.8076469,50.7204529
          -2.8075679,50.7204778
          -2.8074921,50.7204971
          -2.8074167,50.7205130
          -2.8073218,50.7205337
          -2.8072498,50.7205493
          -2.8071950,50.7205756
          -2.8071435,50.7206158
          -2.8070934,50.7206497
          -2.8071603,50.7206780
          -2.8072399,50.7206706
          -2.8073186,50.7206684
          -2.8073777,50.7206604
          -2.8073714,50.7206605
          -2.8074186,50.7206660
          -2.8074967,50.7206699
          -2.8075745,50.7206782
          -2.8076605,50.7206791
          -2.8077249,50.7206815
          -2.8078046,50.7206884
          -2.8078843,50.7207003
          -2.8079687,50.7207090
          -2.8080338,50.7207090
          -2.8080251,50.7207103
          -2.8081219,50.7207264
          -2.8081982,50.7207347
          -2.8082837,50.7207317
          -2.8083669,50.7207367
          -2.8084595,50.7207366
          -2.8085490,50.7207378
          -2.8086343,50.7207371
          -2.8087255,50.7207389
          -2.8088037,50.7207411
          -2.8088687,50.7207434
          -2.8089179,50.7207487
          -2.8089960,50.7207545
          -2.8090166,50.7207522
          -2.8090166,50.7207522
          -2.8090624,50.7207577
          -2.8091474,50.7207542
          -2.8092186,50.7207506
          -2.8093096,50.7207538
          -2.8094028,50.7207411
          -2.8094892,50.7207247
          -2.8095478,50.7207071
          -2.8096092,50.7206841
          -2.8096943,50.7206591
          -2.8097497,50.7206386
          -2.8098218,50.7206099
          -2.8099007,50.7205814
          -2.8099798,50.7205481
          -2.8100452,50.7205249
          -2.8101065,50.7204893
          -2.8101678,50.7204638
          -2.8102417,50.7204275
          -2.8102918,50.7203886
          -2.8103634,50.7203543
          -2.8104248,50.7203265
          -2.8104745,50.7203010
          -2.8105225,50.7202631
          -2.8105790,50.7202299
          -2.8106280,50.7201983
          -2.8106707,50.7201553
          -2.8107165,50.7201142
          -2.8107670,50.7200717
          -2.8108269,50.7200426
          -2.8108717,50.7200052
          -2.8109135,50.7199634
          -2.8109654,50.7199365
          -2.8110665,50.7199176
          -2.8111444,50.7199152
          -2.8112220,50.7199225
          -2.8112876,50.7199224
          -2.8113503,50.7199197
          -2.8114375,50.7199166
          -2.8115081,50.7199160
          -2.8115797,50.7199112
          -2.8116742,50.7199058
          -2.8117553,50.7199012
          -2.8118497,50.7199010
          -2.8119267,50.7198953
          -2.8119981,50.7198930
          -2.8120071,50.7198961
          -2.8120403,50.7199026
          -2.8121242,50.7199330
          -2.8122045,50.7199366
          -2.8122696,50.7199362
          -2.8123526,50.7199487
          -2.8124354,50.7199673
          -2.8124969,50.7199937
          -2.8125695,50.7200110
          -2.8126395,50.7200320
          -2.8127038,50.7200490
          -2.8127613,50.7200754
          -2.8128287,50.7201003
          -2.8128951,50.7201220
          -2.8129606,50.7201459
          -2.8130277,50.7201679
          -2.8130986,50.7201867
          -2.8131667,50.7202075
          -2.8132374,50.7202336
          -2.8133019,50.7202597
          -2.8133690,50.7202879
          -2.8134383,50.7203210
          -2.8135085,50.7203501
          -2.8135860,50.7203896
          -2.8136430,50.7204200
          -2.8137187,50.7204555
          -2.8137902,50.7204869
          -2.8138558,50.7205187
          -2.8139342,50.7205549
          -2.8140072,50.7205832
          -2.8140667,50.7206063
          -2.8141173,50.7206281
          -2.8141704,50.7206573
          -2.8142260,50.7206946
          -2.8142863,50.7207360
          -2.8143544,50.7207672
          -2.8144297,50.7208015
          -2.8145086,50.7208374
          -2.8145763,50.7208670
          -2.8146557,50.7208939
          -2.8147406,50.7209265
          -2.8148198,50.7209424
          -2.8149078,50.7209524
          -2.8149919,50.7209662
          -2.8150659,50.7209680
          -2.8151469,50.7209720
          -2.8152280,50.7209806
          -2.8152944,50.7209927
          -2.8153654,50.7210104
          -2.8154356,50.7210352
          -2.8154995,50.7210416
          -2.8155761,50.7210432
          -2.8156524,50.7210433
          -2.8156637,50.7210791
          -2.8157099,50.7211096
          -2.8157619,50.7211127
          -2.8158355,50.7211249
          -2.8159116,50.7211344
          -2.8159853,50.7211403
          -2.8160625,50.7211398
          -2.8161378,50.7211302
          -2.8162073,50.7211266
          -2.8162764,50.7211294
          -2.8163466,50.7211311
          -2.8164089,50.7211359
          -2.8164659,50.7211427
          -2.8165316,50.7211539
          -2.8165901,50.7211693
          -2.8166513,50.7211874
          -2.8166932,50.7212024
          -2.8167275,50.7212239
          -2.8167481,50.7212683
          -2.8167653,50.7213076
          -2.8167795,50.7213183
          -2.8168188,50.7213212
          -2.8168681,50.7213160
          -2.8169181,50.7213257
          -2.8169644,50.7213405
          -2.8170021,50.7213563
          -2.8170529,50.7213630
          -2.8170637,50.7213710
          -2.8170775,50.7214027
          -2.8171281,50.7214311
          -2.8171750,50.7214482
          -2.8172318,50.7214643
          -2.8172975,50.7214717
          -2.8173613,50.7214743
          -2.8174087,50.7214781
          -2.8174651,50.7214899
          -2.8175223,50.7215038
          -2.8175810,50.7215164
          -2.8176490,50.7215273
          -2.8177106,50.7215369
          -2.8177808,50.7215445
          -2.8178415,50.7215553
          -2.8179083,50.7215652
          -2.8179694,50.7215748
          -2.8180480,50.7215847
          -2.8181147,50.7215896
          -2.8181940,50.7216044
          -2.8182354,50.7216090
          -2.8183155,50.7216154
          -2.8183792,50.7216304
          -2.8184403,50.7216347
          -2.8185211,50.7216445
          -2.8185660,50.7216507
          -2.8186397,50.7216569
          -2.8187063,50.7216677
          -2.8187908,50.7216767
          -2.8188577,50.7216818
          -2.8189278,50.7216943
          -2.8189986,50.7217032
          -2.8190754,50.7217200
          -2.8191479,50.7217360
          -2.8192224,50.7217489
          -2.8193049,50.7217613
          -2.8193910,50.7217729
          -2.8194726,50.7217900
          -2.8195550,50.7218090
          -2.8196417,50.7218214
          -2.8197193,50.7218312
          -2.8198137,50.7218386
          -2.8198915,50.7218567
          -2.8199762,50.7218743
          -2.8200523,50.7218878
          -2.8201393,50.7219079
          -2.8202143,50.7219308
          -2.8202909,50.7219546
          -2.8203677,50.7219736
          -2.8204407,50.7219970
          -2.8205175,50.7220320
          -2.8205896,50.7220506
          -2.8206586,50.7220798
          -2.8207189,50.7221088
          -2.8207952,50.7221426
          -2.8208672,50.7221611
          -2.8209425,50.7221771
          -2.8210010,50.7222055
          -2.8210675,50.7222347
          -2.8211335,50.7222741
          -2.8211852,50.7222998
          -2.8212437,50.7223261
          -2.8213076,50.7223602
          -2.8213542,50.7223800
          -2.8213775,50.7223863
          -2.8213760,50.7223853
          -2.8214396,50.7223765
          -2.8215146,50.7223904
          -2.8215903,50.7224280
          -2.8216699,50.7224598
          -2.8217375,50.7224896
          -2.8218115,50.7225191
          -2.8218975,50.7225397
          -2.8219685,50.7225671
          -2.8220514,50.7225901
          -2.8221398,50.7225955
          -2.8222348,50.7225964
          -2.8223191,50.7225919
          -2.8224083,50.7225926
          -2.8224906,50.7226093
          -2.8225206,50.7226188
          -2.8225229,50.7226229
          -2.8225351,50.7226119
          -2.8225386,50.7226097
          -2.8225473,50.7226167
          -2.8225476,50.7226192
          -2.8225450,50.7226194
          -2.8225352,50.7226217
          -2.8225109,50.7225766
          -2.8225668,50.7225565
          -2.8226204,50.7225747
          -2.8226735,50.7225824
          -2.8227482,50.7225973
          -2.8228234,50.7226144
          -2.8228768,50.7226192
          -2.8229252,50.7225873
          -2.8229730,50.7225331
          -2.8230241,50.7224771
          -2.8230841,50.7224359
          -2.8231396,50.7223872
          -2.8231867,50.7223322
          -2.8232490,50.7222916
          -2.8232987,50.7222608
          -2.8233997,50.7222329
          -2.8234794,50.7222292
          -2.8235293,50.7222340
          -2.8235450,50.7222468
          -2.8235582,50.7222557
          -2.8235669,50.7222645
          -2.8235571,50.7222659
          -2.8235537,50.7222656
          -2.8235479,50.7222666
          -2.8235413,50.7222642
          -2.8235404,50.7222542
          -2.8235249,50.7222395
          -2.8235027,50.7222341
          -2.8235050,50.7222274
          -2.8235152,50.7222251
          -2.8235152,50.7222251
          -2.8235152,50.7222251
          -2.8235043,50.7222297
          -2.8235218,50.7222364
          -2.8235215,50.7222414
          -2.8235201,50.7222411
          -2.8235201,50.7222411
          -2.8235201,50.7222411
          -2.8235201,50.7222411
          -2.8235201,50.7222411
          -2.8235201,50.7222411
          -2.8235201,50.7222411
          -2.8235201,50.7222411
          -2.8235183,50.7222320
          -2.8235235,50.7222235
          -2.8235137,50.7222148
          -2.8235188,50.7222128
          -2.8235287,50.7222174
          -2.8234750,50.7222134
          -2.8234349,50.7221525
          -2.8234679,50.7221536
          -2.8234609,50.7221536
          -2.8234636,50.7221594
          -2.8234769,50.7221660
          -2.8234823,50.7221666
          -2.8234760,50.7221659
          -2.8234755,50.7221691
          -2.8234696,50.7221649
          -2.8234692,50.7221566
          -2.8234406,50.7221399
          -2.8234333,50.7221370
          -2.8234333,50.7221370
          -2.8234333,50.7221370
          -2.8234333,50.7221370
          -2.8234333,50.7221370
          -2.8234333,50.7221370
          -2.8234333,50.7221370
          -2.8234333,50.7221370
          -2.8234333,50.7221370
          -2.8234333,50.7221370
          -2.8234576,50.7221547
          -2.8234576,50.7221547
          -2.8234511,50.7221578
          -2.8234045,50.7221615
          -2.8233205,50.7222004
          -2.8232687,50.7222494
          -2.8232234,50.7222990
          -2.8231707,50.7223423
          -2.8231184,50.7223816
          -2.8230829,50.7224001
          -2.8230412,50.7224500
          -2.8229903,50.7225035
          -2.8229553,50.7225512
          -2.8229016,50.7226063
          -2.8228599,50.7226240
          -2.8227826,50.7226029
          -2.8227019,50.7225847
          -2.8226190,50.7225800
          -2.8225750,50.7225874
        </coordinates>
      </LineString>
    </Placemark>
  </Document>
</kml>
