<?xml version="1.0" encoding="UTF-8"?>
<kml xmlns="http://www.opengis.net/kml/2.2" xmlns:xsi="http://www.w3.org/2001/XMLSchema-instance" xsi:schemaLocation="http://www.opengis.net/kml/2.2 http://schemas.opengis.net/kml/2.2.0/ogckml22.xsd">
  <Document>
    <name>GPS Wizard</name>
    <open>1</open>
    <Style id="wizard">
      <LineStyle>
        <color>a00000ff</color>
        <width>2</width>
      </LineStyle>
    </Style>
    <Placemark>
      <name>TBC</name>
      <styleUrl>#wizard</styleUrl>
      <LineString>
        <extrude>1</extrude>
        <tessellate>1</tessellate>
        <coordinates>
          -2.3757401,50.6351098
          -2.3757443,50.6351267
          -2.3757397,50.6351305
          -2.3757099,50.6351222
          -2.3756678,50.6350775
          -2.3756576,50.6350335
          -2.3756704,50.6349780
          -2.3756683,50.6349434
          -2.3756551,50.6349018
          -2.3756534,50.6348886
          -2.3756384,50.6348868
          -2.3755961,50.6348860
          -2.3755401,50.6348830
          -2.3754757,50.6348725
          -2.3754248,50.6348639
          -2.3753741,50.6348555
          -2.3753063,50.6348486
          -2.3752719,50.6348444
          -2.3752438,50.6348729
          -2.3752152,50.6349273
          -2.3751429,50.6349503
          -2.3750678,50.6349640
          -2.3749838,50.6349786
          -2.3749273,50.6350014
          -2.3748511,50.6349878
          -2.3747802,50.6349770
          -2.3746906,50.6349595
          -2.3746052,50.6349523
          -2.3745365,50.6349378
          -2.3745065,50.6349277
          -2.3745281,50.6349344
          -2.3745281,50.6349342
          -2.3745281,50.6349342
          -2.3745281,50.6349342
          -2.3745067,50.6349216
          -2.3744692,50.6348901
          -2.3744497,50.6348838
          -2.3743829,50.6348713
          -2.3743317,50.6348579
          -2.3742668,50.6348424
          -2.3742058,50.6348073
          -2.3741478,50.6347818
          -2.3740995,50.6347616
          -2.3740537,50.6347427
          -2.3739997,50.6347157
          -2.3739375,50.6346910
          -2.3738907,50.6346672
          -2.3738687,50.6346578
          -2.3738687,50.6346578
          -2.3738691,50.6346579
          -2.3738727,50.6346612
          -2.3738687,50.6346578
          -2.3738861,50.6346523
          -2.3738727,50.6346508
          -2.3738709,50.6346615
          -2.3738572,50.6346475
          -2.3737988,50.6346207
          -2.3737856,50.6346166
          -2.3737415,50.6345999
          -2.3736952,50.6345801
          -2.3736432,50.6345654
          -2.3736017,50.6345389
          -2.3735498,50.6345068
          -2.3734927,50.6344793
          -2.3734462,50.6344540
          -2.3733946,50.6344393
          -2.3733392,50.6344146
          -2.3732988,50.6343892
          -2.3732377,50.6343721
          -2.3731854,50.6343544
          -2.3731932,50.6343307
          -2.3731941,50.6343299
          -2.3731941,50.6343299
          -2.3731941,50.6343299
          -2.3731941,50.6343299
          -2.3731827,50.6343386
          -2.3731273,50.6343405
          -2.3730640,50.6343250
          -2.3729848,50.6343156
          -2.3729131,50.6342992
          -2.3728462,50.6342776
          -2.3727829,50.6342573
          -2.3727468,50.6342354
          -2.3727007,50.6342160
          -2.3726329,50.6341891
          -2.3725915,50.6341680
          -2.3725454,50.6341438
          -2.3724970,50.6341288
          -2.3724511,50.6341085
          -2.3724018,50.6340801
          -2.3723468,50.6340636
          -2.3722981,50.6340520
          -2.3722383,50.6340344
          -2.3721793,50.6340250
          -2.3721158,50.6340038
          -2.3720537,50.6339844
          -2.3719806,50.6339684
          -2.3719113,50.6339452
          -2.3718528,50.6339285
          -2.3718141,50.6338987
          -2.3717692,50.6338725
          -2.3717291,50.6338508
          -2.3716968,50.6338358
          -2.3716708,50.6338078
          -2.3716392,50.6337767
          -2.3716349,50.6337748
          -2.3715755,50.6337584
          -2.3715078,50.6337280
          -2.3714481,50.6336969
          -2.3713888,50.6336689
          -2.3713228,50.6336437
          -2.3712527,50.6336241
          -2.3711904,50.6335998
          -2.3711196,50.6335872
          -2.3710551,50.6335629
          -2.3710382,50.6335264
          -2.3710176,50.6334739
          -2.3710018,50.6334177
          -2.3709811,50.6333665
          -2.3709526,50.6333265
          -2.3709751,50.6333368
          -2.3709772,50.6333359
          -2.3709772,50.6333359
          -2.3709453,50.6333072
          -2.3709007,50.6332680
          -2.3708542,50.6332242
          -2.3708118,50.6331787
          -2.3707788,50.6331371
          -2.3707318,50.6330964
          -2.3706909,50.6330517
          -2.3706478,50.6330242
          -2.3705939,50.6329908
          -2.3705528,50.6329592
          -2.3705138,50.6329235
          -2.3704766,50.6328957
          -2.3704195,50.6328651
          -2.3703697,50.6328352
          -2.3703164,50.6327958
          -2.3702747,50.6327573
          -2.3702301,50.6327134
          -2.3701866,50.6326872
          -2.3701260,50.6326657
          -2.3700674,50.6326544
          -2.3699937,50.6326518
          -2.3699220,50.6326514
          -2.3698573,50.6326397
          -2.3698037,50.6326280
          -2.3697377,50.6326082
          -2.3696756,50.6325947
          -2.3695998,50.6325800
          -2.3695184,50.6325641
          -2.3694380,50.6325477
          -2.3693703,50.6325280
          -2.3692983,50.6325104
          -2.3692379,50.6324988
          -2.3691734,50.6324830
          -2.3691052,50.6324637
          -2.3690403,50.6324503
          -2.3689677,50.6324370
          -2.3688994,50.6324250
          -2.3688214,50.6324073
          -2.3687491,50.6323976
          -2.3686709,50.6323912
          -2.3686025,50.6323807
          -2.3685189,50.6323700
          -2.3684605,50.6323443
          -2.3683797,50.6323365
          -2.3682991,50.6323250
          -2.3682176,50.6323062
          -2.3681463,50.6322885
          -2.3680558,50.6322753
          -2.3679703,50.6322674
          -2.3678824,50.6322536
          -2.3678009,50.6322387
          -2.3677309,50.6322237
          -2.3676533,50.6322083
          -2.3675738,50.6321892
          -2.3674901,50.6321683
          -2.3674149,50.6321523
          -2.3673348,50.6321362
          -2.3672614,50.6321277
          -2.3671770,50.6321068
          -2.3671234,50.6320761
          -2.3670704,50.6320402
          -2.3670122,50.6320198
          -2.3669461,50.6319991
          -2.3668645,50.6319781
          -2.3667981,50.6319633
          -2.3667297,50.6319418
          -2.3667076,50.6319253
          -2.3667057,50.6319249
          -2.3667057,50.6319249
          -2.3667057,50.6319249
          -2.3667057,50.6319249
          -2.3667023,50.6319267
          -2.3666338,50.6319147
          -2.3665721,50.6318965
          -2.3665168,50.6318768
          -2.3664411,50.6318530
          -2.3663759,50.6318363
          -2.3663136,50.6318248
          -2.3662579,50.6318183
          -2.3661978,50.6318055
          -2.3661680,50.6318007
          -2.3661368,50.6317938
          -2.3661201,50.6317867
          -2.3660834,50.6317785
          -2.3660227,50.6317458
          -2.3659627,50.6317263
          -2.3659278,50.6317103
          -2.3658780,50.6316833
          -2.3658155,50.6316588
          -2.3657679,50.6316263
          -2.3657276,50.6315908
          -2.3656913,50.6315504
          -2.3656529,50.6315035
          -2.3655835,50.6314648
          -2.3654986,50.6314496
          -2.3654388,50.6314473
          -2.3653689,50.6314512
          -2.3652863,50.6314581
          -2.3652067,50.6314569
          -2.3651236,50.6314531
          -2.3650490,50.6314562
          -2.3649766,50.6314593
          -2.3649096,50.6314541
          -2.3648425,50.6314576
          -2.3647640,50.6314615
          -2.3647023,50.6314689
          -2.3646194,50.6314739
          -2.3645322,50.6314896
          -2.3644489,50.6315039
          -2.3643625,50.6315199
          -2.3642827,50.6315346
          -2.3642222,50.6315488
          -2.3641663,50.6315598
          -2.3641088,50.6315927
          -2.3640198,50.6316142
          -2.3639340,50.6316287
          -2.3638569,50.6316509
          -2.3637833,50.6316569
          -2.3636877,50.6316517
          -2.3636008,50.6316607
          -2.3635109,50.6316605
          -2.3634275,50.6316722
          -2.3633583,50.6317050
          -2.3632732,50.6317262
          -2.3631732,50.6317328
          -2.3630854,50.6317385
          -2.3629984,50.6317437
          -2.3629210,50.6317349
          -2.3628751,50.6317141
          -2.3627830,50.6317113
          -2.3627000,50.6317249
          -2.3626008,50.6317318
          -2.3625111,50.6317396
          -2.3624234,50.6317515
          -2.3623397,50.6317585
          -2.3622864,50.6317542
          -2.3622135,50.6317546
          -2.3621325,50.6317692
          -2.3620483,50.6317677
          -2.3619564,50.6317758
          -2.3618713,50.6317774
          -2.3617748,50.6317766
          -2.3616869,50.6317748
          -2.3616011,50.6317724
          -2.3615172,50.6317744
          -2.3614083,50.6317862
          -2.3613176,50.6317981
          -2.3612310,50.6318034
          -2.3611356,50.6318105
          -2.3610433,50.6318202
          -2.3609628,50.6318389
          -2.3608841,50.6318563
          -2.3607843,50.6318655
          -2.3606956,50.6318625
          -2.3606210,50.6318663
          -2.3605526,50.6318888
          -2.3605127,50.6319084
          -2.3604737,50.6319343
          -2.3604480,50.6319418
          -2.3604136,50.6319504
          -2.3603956,50.6319752
          -2.3603583,50.6319830
          -2.3603025,50.6319870
          -2.3602734,50.6319918
          -2.3602326,50.6319659
          -2.3602029,50.6319229
          -2.3601629,50.6318892
          -2.3601253,50.6318612
          -2.3601191,50.6318090
          -2.3601014,50.6317745
          -2.3600669,50.6317510
          -2.3600602,50.6317302
          -2.3600398,50.6317125
          -2.3600038,50.6316799
          -2.3600132,50.6316700
          -2.3600048,50.6316432
          -2.3600082,50.6316332
          -2.3600082,50.6316332
          -2.3600082,50.6316332
          -2.3600082,50.6316332
          -2.3600082,50.6316332
          -2.3600082,50.6316332
          -2.3600082,50.6316332
          -2.3600082,50.6316332
          -2.3600082,50.6316332
          -2.3600082,50.6316332
          -2.3600082,50.6316332
          -2.3600082,50.6316332
          -2.3600082,50.6316332
          -2.3600082,50.6316332
          -2.3600082,50.6316332
          -2.3600082,50.6316332
          -2.3600082,50.6316332
          -2.3600082,50.6316332
          -2.3600082,50.6316332
          -2.3600082,50.6316332
          -2.3600082,50.6316332
          -2.3600082,50.6316332
          -2.3600082,50.6316332
          -2.3600082,50.6316332
          -2.3600082,50.6316332
          -2.3600082,50.6316332
          -2.3600082,50.6316332
          -2.3600082,50.6316332
          -2.3600082,50.6316332
          -2.3600082,50.6316332
          -2.3600082,50.6316332
          -2.3600082,50.6316332
          -2.3600082,50.6316332
          -2.3600082,50.6316332
          -2.3600180,50.6316367
          -2.3600258,50.6316629
          -2.3600592,50.6316988
          -2.3600693,50.6317277
          -2.3600942,50.6317587
          -2.3601440,50.6317998
          -2.3601682,50.6318385
          -2.3601987,50.6318627
          -2.3602361,50.6318993
          -2.3602617,50.6319367
          -2.3602893,50.6319820
          -2.3602518,50.6320164
          -2.3601998,50.6320162
          -2.3601779,50.6320297
          -2.3601438,50.6320389
          -2.3601004,50.6320143
          -2.3600507,50.6319982
          -2.3599787,50.6319887
          -2.3599267,50.6319939
          -2.3598409,50.6320023
          -2.3597506,50.6319861
          -2.3596808,50.6319784
          -2.3595985,50.6319914
          -2.3595182,50.6319928
          -2.3594368,50.6319941
          -2.3593601,50.6319891
          -2.3592587,50.6320000
          -2.3591776,50.6320186
          -2.3590884,50.6320335
          -2.3589929,50.6320357
          -2.3588969,50.6320408
          -2.3588375,50.6320482
          -2.3588370,50.6320488
          -2.3588370,50.6320488
          -2.3588370,50.6320488
          -2.3588370,50.6320488
          -2.3588370,50.6320488
          -2.3588370,50.6320488
          -2.3588370,50.6320488
          -2.3588370,50.6320488
          -2.3588370,50.6320488
          -2.3588375,50.6320490
          -2.3588370,50.6320488
          -2.3588344,50.6320481
          -2.3588287,50.6320488
          -2.3587420,50.6320590
          -2.3586537,50.6320693
          -2.3585660,50.6320794
          -2.3584815,50.6320893
          -2.3583898,50.6320989
          -2.3583005,50.6320931
          -2.3582076,50.6320903
          -2.3581192,50.6320830
          -2.3580322,50.6320726
          -2.3579387,50.6320657
          -2.3578434,50.6320556
          -2.3577621,50.6320338
          -2.3576716,50.6320074
          -2.3575878,50.6319812
          -2.3574963,50.6319641
          -2.3574154,50.6319478
          -2.3573285,50.6319240
          -2.3572373,50.6319062
          -2.3571446,50.6318918
          -2.3570779,50.6319046
          -2.3570200,50.6319313
          -2.3569326,50.6319471
          -2.3568797,50.6319079
          -2.3567960,50.6318770
          -2.3567183,50.6318903
          -2.3566308,50.6318850
          -2.3565545,50.6318636
          -2.3564764,50.6318274
          -2.3563937,50.6317978
          -2.3563119,50.6317657
          -2.3562324,50.6317391
          -2.3561445,50.6317121
          -2.3560745,50.6316875
          -2.3559915,50.6316512
          -2.3559092,50.6316271
          -2.3558321,50.6316005
          -2.3557451,50.6315779
          -2.3556681,50.6315517
          -2.3555820,50.6315211
          -2.3555019,50.6314925
          -2.3554219,50.6314759
          -2.3553354,50.6314505
          -2.3552459,50.6314320
          -2.3551530,50.6314235
          -2.3550695,50.6314143
          -2.3549809,50.6314047
          -2.3548919,50.6313936
          -2.3547999,50.6313817
          -2.3547101,50.6313746
          -2.3546071,50.6313658
          -2.3545205,50.6313585
          -2.3544310,50.6313548
          -2.3543350,50.6313530
          -2.3542506,50.6313490
          -2.3541609,50.6313507
          -2.3540674,50.6313530
          -2.3540003,50.6313496
          -2.3539700,50.6312939
          -2.3539249,50.6312601
          -2.3538786,50.6312456
          -2.3538273,50.6312342
          -2.3537822,50.6312239
          -2.3537517,50.6312223
          -2.3537442,50.6312264
          -2.3537386,50.6312296
          -2.3537387,50.6312295
          -2.3537387,50.6312288
          -2.3537110,50.6312194
          -2.3537121,50.6312209
          -2.3536830,50.6312200
          -2.3536275,50.6312148
          -2.3535830,50.6312086
          -2.3535597,50.6312055
          -2.3535292,50.6312015
          -2.3534915,50.6311998
          -2.3534688,50.6312005
          -2.3534209,50.6311974
          -2.3533833,50.6311993
          -2.3533544,50.6311998
          -2.3533527,50.6311999
          -2.3533060,50.6312079
          -2.3532505,50.6312111
          -2.3531993,50.6312219
          -2.3531508,50.6312316
          -2.3531001,50.6312447
          -2.3530536,50.6312575
          -2.3530062,50.6312702
          -2.3529557,50.6312812
          -2.3529097,50.6312947
          -2.3528384,50.6313086
          -2.3527807,50.6313226
          -2.3527016,50.6313327
          -2.3526324,50.6313422
          -2.3525621,50.6313454
          -2.3524965,50.6313511
          -2.3524464,50.6313610
          -2.3523794,50.6313588
          -2.3523175,50.6313598
          -2.3522443,50.6313653
          -2.3521735,50.6313630
          -2.3521109,50.6313623
          -2.3520308,50.6313620
          -2.3519636,50.6313697
          -2.3518904,50.6313751
          -2.3518108,50.6313650
          -2.3517300,50.6313569
          -2.3516614,50.6313547
          -2.3515832,50.6313444
          -2.3515059,50.6313381
          -2.3514372,50.6313298
          -2.3513605,50.6313215
          -2.3512835,50.6313195
          -2.3512315,50.6313207
          -2.3511575,50.6312892
          -2.3511063,50.6312726
          -2.3510326,50.6312518
          -2.3509596,50.6312345
          -2.3508789,50.6312250
          -2.3508073,50.6312162
          -2.3507320,50.6312053
          -2.3506549,50.6311933
          -2.3505870,50.6311762
          -2.3505120,50.6311643
          -2.3504289,50.6311496
          -2.3503696,50.6311498
          -2.3503116,50.6311556
          -2.3502494,50.6311385
          -2.3501747,50.6311261
          -2.3501095,50.6311154
          -2.3500349,50.6311051
          -2.3499598,50.6311074
          -2.3498956,50.6311160
          -2.3498360,50.6311289
          -2.3497869,50.6311451
          -2.3497554,50.6311457
          -2.3497580,50.6311462
          -2.3497580,50.6311462
          -2.3497772,50.6311376
          -2.3497878,50.6311387
          -2.3497998,50.6311448
          -2.3497998,50.6311448
          -2.3497998,50.6311448
          -2.3497998,50.6311448
          -2.3497998,50.6311448
          -2.3497998,50.6311448
          -2.3497998,50.6311448
          -2.3497998,50.6311448
          -2.3497998,50.6311448
          -2.3497998,50.6311448
          -2.3497998,50.6311448
          -2.3497998,50.6311448
          -2.3497998,50.6311448
          -2.3497998,50.6311448
          -2.3497998,50.6311448
          -2.3497998,50.6311448
          -2.3497998,50.6311448
          -2.3497998,50.6311448
          -2.3497998,50.6311448
          -2.3497998,50.6311448
          -2.3497998,50.6311448
          -2.3497998,50.6311448
          -2.3497998,50.6311448
          -2.3497998,50.6311448
          -2.3497998,50.6311448
          -2.3497998,50.6311448
          -2.3497998,50.6311448
          -2.3497998,50.6311448
          -2.3497998,50.6311448
          -2.3497998,50.6311448
          -2.3497998,50.6311448
          -2.3497998,50.6311448
          -2.3497998,50.6311448
          -2.3497998,50.6311448
          -2.3497998,50.6311448
          -2.3497998,50.6311448
          -2.3497998,50.6311448
          -2.3497998,50.6311448
          -2.3497998,50.6311448
          -2.3497998,50.6311448
          -2.3497998,50.6311448
          -2.3497998,50.6311448
          -2.3497998,50.6311448
          -2.3497998,50.6311448
          -2.3497998,50.6311448
          -2.3497998,50.6311448
          -2.3497998,50.6311448
          -2.3497998,50.6311448
          -2.3497998,50.6311448
          -2.3497998,50.6311448
          -2.3497998,50.6311448
          -2.3497998,50.6311448
          -2.3497998,50.6311448
          -2.3497998,50.6311448
          -2.3497998,50.6311448
          -2.3497998,50.6311448
          -2.3497998,50.6311448
          -2.3497998,50.6311448
          -2.3497998,50.6311448
          -2.3497998,50.6311448
          -2.3497998,50.6311448
          -2.3497998,50.6311448
          -2.3497998,50.6311448
          -2.3497998,50.6311448
          -2.3497998,50.6311448
          -2.3497998,50.6311448
          -2.3497998,50.6311448
          -2.3497998,50.6311448
          -2.3497998,50.6311448
          -2.3497998,50.6311448
          -2.3497998,50.6311448
          -2.3497998,50.6311448
          -2.3497998,50.6311448
          -2.3498129,50.6311516
          -2.3497998,50.6311448
          -2.3497998,50.6311448
          -2.3497998,50.6311448
          -2.3497998,50.6311448
          -2.3497998,50.6311448
          -2.3497998,50.6311448
          -2.3497998,50.6311448
          -2.3497998,50.6311448
          -2.3497998,50.6311448
          -2.3497998,50.6311448
          -2.3497998,50.6311448
          -2.3497998,50.6311448
          -2.3497998,50.6311448
          -2.3497998,50.6311448
          -2.3497998,50.6311448
          -2.3497998,50.6311448
          -2.3497998,50.6311448
          -2.3498122,50.6311478
          -2.3497998,50.6311448
          -2.3497970,50.6311354
          -2.3497961,50.6311454
          -2.3497595,50.6311489
          -2.3497563,50.6311505
          -2.3497563,50.6311505
          -2.3497563,50.6311505
          -2.3497563,50.6311505
          -2.3497563,50.6311505
          -2.3497563,50.6311505
          -2.3497563,50.6311505
          -2.3497563,50.6311505
          -2.3497563,50.6311505
          -2.3497563,50.6311505
          -2.3497563,50.6311505
          -2.3497563,50.6311505
          -2.3497563,50.6311505
          -2.3497563,50.6311505
          -2.3497563,50.6311505
          -2.3497563,50.6311505
          -2.3497563,50.6311505
          -2.3497563,50.6311505
          -2.3497563,50.6311505
          -2.3497563,50.6311505
          -2.3497563,50.6311505
          -2.3497563,50.6311505
          -2.3497563,50.6311505
          -2.3497427,50.6311635
          -2.3497411,50.6311638
          -2.3497411,50.6311638
          -2.3497411,50.6311638
          -2.3497411,50.6311638
          -2.3497411,50.6311638
          -2.3497411,50.6311638
          -2.3497411,50.6311638
          -2.3497411,50.6311638
          -2.3497411,50.6311638
          -2.3497411,50.6311638
          -2.3497411,50.6311638
          -2.3497411,50.6311638
          -2.3497411,50.6311638
          -2.3497411,50.6311638
          -2.3497411,50.6311638
          -2.3497411,50.6311638
          -2.3497411,50.6311638
          -2.3497411,50.6311638
          -2.3497411,50.6311638
          -2.3497411,50.6311638
          -2.3497411,50.6311638
          -2.3497411,50.6311638
          -2.3497411,50.6311638
          -2.3497411,50.6311638
          -2.3497411,50.6311638
          -2.3497411,50.6311638
          -2.3497411,50.6311638
          -2.3497411,50.6311638
          -2.3497411,50.6311638
          -2.3497411,50.6311638
          -2.3497411,50.6311638
          -2.3497411,50.6311638
          -2.3497411,50.6311638
          -2.3497411,50.6311638
          -2.3497411,50.6311638
          -2.3497411,50.6311638
          -2.3497411,50.6311638
          -2.3497411,50.6311638
          -2.3497411,50.6311638
          -2.3497411,50.6311638
          -2.3497411,50.6311638
          -2.3497411,50.6311638
          -2.3497749,50.6311577
          -2.3497915,50.6311508
          -2.3498237,50.6311475
          -2.3498703,50.6311453
          -2.3498813,50.6311462
          -2.3498738,50.6311742
          -2.3498629,50.6312097
          -2.3498515,50.6312446
          -2.3498475,50.6312674
          -2.3498210,50.6312993
          -2.3497762,50.6313293
          -2.3497266,50.6313446
          -2.3496970,50.6313525
          -2.3496498,50.6313889
          -2.3496443,50.6314350
          -2.3496286,50.6314785
          -2.3496310,50.6315215
          -2.3496402,50.6315711
          -2.3496528,50.6316105
          -2.3496594,50.6316543
          -2.3496583,50.6316935
          -2.3496485,50.6317385
          -2.3496425,50.6317860
          -2.3496299,50.6318411
          -2.3496112,50.6318955
          -2.3495974,50.6319430
          -2.3496184,50.6319777
          -2.3496281,50.6320123
          -2.3496348,50.6320540
          -2.3496691,50.6320839
          -2.3497171,50.6321187
          -2.3497722,50.6321182
          -2.3498541,50.6321104
          -2.3499442,50.6320959
          -2.3500317,50.6320953
          -2.3501256,50.6320983
          -2.3502218,50.6320917
          -2.3503094,50.6320883
          -2.3503906,50.6320773
          -2.3504723,50.6320772
          -2.3505666,50.6320774
          -2.3506689,50.6320690
          -2.3507550,50.6320721
          -2.3508356,50.6320716
          -2.3509311,50.6320703
          -2.3510278,50.6320743
          -2.3511054,50.6320708
          -2.3511958,50.6320753
          -2.3512979,50.6320766
          -2.3513836,50.6320846
          -2.3514741,50.6320885
          -2.3515636,50.6320913
          -2.3516568,50.6320980
          -2.3517353,50.6321029
          -2.3518256,50.6321051
          -2.3519160,50.6321142
          -2.3520023,50.6321212
          -2.3521036,50.6321247
          -2.3522018,50.6321270
          -2.3522903,50.6321364
          -2.3523794,50.6321452
          -2.3524784,50.6321503
          -2.3525637,50.6321638
          -2.3526462,50.6321845
          -2.3527312,50.6321988
          -2.3528355,50.6322141
          -2.3529317,50.6322291
          -2.3530211,50.6322348
          -2.3531057,50.6322471
          -2.3531839,50.6322506
          -2.3531761,50.6322860
          -2.3531299,50.6322969
          -2.3531144,50.6323181
          -2.3531058,50.6323364
          -2.3531058,50.6323316
          -2.3531034,50.6323312
          -2.3531011,50.6323291
          -2.3530963,50.6323256
          -2.3531080,50.6323211
          -2.3531272,50.6323156
          -2.3531488,50.6323069
          -2.3531823,50.6322972
          -2.3531866,50.6322955
          -2.3532098,50.6322964
          -2.3532244,50.6322923
          -2.3532244,50.6322923
          -2.3532244,50.6322923
          -2.3532244,50.6322923
          -2.3532244,50.6322923
          -2.3532244,50.6322923
          -2.3532244,50.6322923
          -2.3532244,50.6322923
          -2.3532244,50.6322923
          -2.3532244,50.6322923
          -2.3532244,50.6322923
          -2.3532244,50.6322923
          -2.3532244,50.6322923
          -2.3532544,50.6322889
          -2.3532796,50.6322969
          -2.3532837,50.6322659
          -2.3533082,50.6322034
          -2.3532977,50.6322317
          -2.3532661,50.6322850
          -2.3532441,50.6323399
          -2.3532138,50.6323845
          -2.3531612,50.6324252
          -2.3531178,50.6324534
          -2.3530358,50.6324417
          -2.3529528,50.6324265
          -2.3528835,50.6324153
          -2.3528823,50.6324114
          -2.3529397,50.6323668
          -2.3529649,50.6323543
          -2.3529441,50.6323809
          -2.3529269,50.6324053
          -2.3529398,50.6324078
          -2.3529459,50.6324020
          -2.3529848,50.6324083
          -2.3529908,50.6324057
          -2.3529971,50.6324093
          -2.3529938,50.6324203
          -2.3529964,50.6324231
          -2.3529850,50.6324263
          -2.3529897,50.6324298
          -2.3529826,50.6324336
          -2.3529798,50.6324377
          -2.3529296,50.6324197
          -2.3529565,50.6323676
          -2.3529488,50.6323282
          -2.3528761,50.6323040
          -2.3528813,50.6322824
          -2.3528870,50.6322844
          -2.3529374,50.6323089
          -2.3529557,50.6323229
          -2.3529418,50.6323228
          -2.3529409,50.6323221
          -2.3529396,50.6323179
          -2.3529439,50.6323202
          -2.3529534,50.6323298
          -2.3529570,50.6323372
          -2.3529636,50.6323410
          -2.3529627,50.6323453
          -2.3529606,50.6323455
          -2.3529606,50.6323455
          -2.3529606,50.6323455
          -2.3529606,50.6323455
          -2.3529606,50.6323455
          -2.3529606,50.6323455
          -2.3529606,50.6323455
          -2.3529606,50.6323455
          -2.3529606,50.6323455
          -2.3529606,50.6323455
          -2.3529606,50.6323455
          -2.3529606,50.6323455
          -2.3529606,50.6323455
          -2.3529606,50.6323455
          -2.3529606,50.6323455
          -2.3529606,50.6323455
          -2.3529606,50.6323455
          -2.3529606,50.6323455
          -2.3529606,50.6323455
          -2.3529606,50.6323455
          -2.3529572,50.6323449
          -2.3529606,50.6323455
          -2.3529606,50.6323455
          -2.3529440,50.6323348
          -2.3529456,50.6323367
          -2.3529606,50.6323455
          -2.3529606,50.6323455
          -2.3529606,50.6323455
          -2.3529606,50.6323455
          -2.3529606,50.6323455
          -2.3529606,50.6323455
          -2.3529606,50.6323455
          -2.3529555,50.6323366
          -2.3529420,50.6323307
          -2.3529438,50.6323313
          -2.3529466,50.6323316
          -2.3529577,50.6323415
          -2.3529597,50.6323419
          -2.3529628,50.6323389
          -2.3529574,50.6323394
          -2.3529468,50.6323361
          -2.3529438,50.6323313
          -2.3529438,50.6323313
          -2.3529438,50.6323313
          -2.3529454,50.6323378
          -2.3529438,50.6323313
          -2.3529438,50.6323313
          -2.3529438,50.6323313
          -2.3529438,50.6323313
          -2.3529438,50.6323313
          -2.3529438,50.6323313
          -2.3529438,50.6323313
          -2.3529438,50.6323313
          -2.3529438,50.6323313
          -2.3529438,50.6323313
          -2.3529438,50.6323313
          -2.3529438,50.6323313
          -2.3529438,50.6323236
          -2.3529552,50.6323206
          -2.3529513,50.6323178
          -2.3529513,50.6323178
          -2.3529513,50.6323178
          -2.3529513,50.6323178
          -2.3529482,50.6323185
          -2.3529317,50.6323203
          -2.3529281,50.6323165
          -2.3529281,50.6323165
          -2.3529281,50.6323165
          -2.3529281,50.6323165
          -2.3529281,50.6323165
          -2.3529281,50.6323165
          -2.3529281,50.6323165
          -2.3529281,50.6323165
          -2.3529281,50.6323165
          -2.3529281,50.6323165
          -2.3529281,50.6323165
          -2.3529281,50.6323165
          -2.3529281,50.6323165
          -2.3529281,50.6323165
          -2.3529281,50.6323165
          -2.3529281,50.6323165
          -2.3529281,50.6323165
          -2.3529281,50.6323165
          -2.3529281,50.6323165
          -2.3529281,50.6323165
          -2.3529260,50.6323045
          -2.3529281,50.6323165
          -2.3529281,50.6323165
          -2.3529281,50.6323165
          -2.3529281,50.6323165
          -2.3529281,50.6323165
          -2.3529508,50.6323163
          -2.3529479,50.6323277
          -2.3529599,50.6323397
          -2.3529559,50.6323479
          -2.3529385,50.6323352
          -2.3529501,50.6323216
          -2.3529539,50.6323425
          -2.3529532,50.6323398
          -2.3529540,50.6323404
          -2.3529540,50.6323404
          -2.3529540,50.6323404
          -2.3529332,50.6323083
          -2.3529332,50.6323083
          -2.3529332,50.6323083
          -2.3529332,50.6323083
          -2.3529332,50.6323083
          -2.3529332,50.6323083
          -2.3529332,50.6323083
          -2.3529332,50.6323083
          -2.3529332,50.6323083
          -2.3529332,50.6323083
          -2.3529332,50.6323083
          -2.3529332,50.6323083
          -2.3529332,50.6323083
          -2.3529332,50.6323083
          -2.3529332,50.6323083
          -2.3529332,50.6323083
          -2.3529332,50.6323083
          -2.3529332,50.6323083
          -2.3529332,50.6323083
          -2.3529332,50.6323083
          -2.3529332,50.6323083
          -2.3529332,50.6323083
          -2.3529332,50.6323083
          -2.3529332,50.6323083
          -2.3529332,50.6323083
          -2.3529332,50.6323083
          -2.3529332,50.6323083
          -2.3529332,50.6323083
          -2.3529332,50.6323083
          -2.3529332,50.6323083
          -2.3529332,50.6323083
          -2.3529332,50.6323083
          -2.3529332,50.6323083
          -2.3529332,50.6323083
          -2.3529332,50.6323083
          -2.3529332,50.6323083
          -2.3529332,50.6323083
          -2.3529332,50.6323083
          -2.3529332,50.6323083
          -2.3529332,50.6323083
          -2.3529550,50.6323156
          -2.3529594,50.6323166
          -2.3529785,50.6323274
          -2.3529805,50.6323312
          -2.3529805,50.6323312
          -2.3529805,50.6323312
          -2.3529805,50.6323312
          -2.3529805,50.6323312
          -2.3529805,50.6323312
          -2.3529805,50.6323312
          -2.3529805,50.6323312
          -2.3529567,50.6323291
          -2.3529465,50.6323285
          -2.3529454,50.6323307
          -2.3529454,50.6323307
          -2.3529454,50.6323307
          -2.3529454,50.6323307
          -2.3529454,50.6323307
          -2.3529454,50.6323307
          -2.3529454,50.6323307
          -2.3529454,50.6323307
          -2.3529454,50.6323307
          -2.3529454,50.6323307
          -2.3529454,50.6323307
          -2.3529454,50.6323307
          -2.3529423,50.6323301
          -2.3529436,50.6323328
          -2.3529493,50.6323367
          -2.3529326,50.6323291
          -2.3529536,50.6323306
          -2.3529454,50.6323307
          -2.3529454,50.6323307
          -2.3529530,50.6323210
          -2.3529454,50.6323307
          -2.3529454,50.6323307
          -2.3529454,50.6323307
          -2.3529454,50.6323307
          -2.3529454,50.6323307
          -2.3529454,50.6323307
          -2.3529454,50.6323307
          -2.3529454,50.6323307
          -2.3529454,50.6323307
          -2.3529454,50.6323307
          -2.3529454,50.6323307
          -2.3529454,50.6323307
          -2.3529454,50.6323307
          -2.3529454,50.6323307
          -2.3529454,50.6323307
          -2.3529454,50.6323307
          -2.3529454,50.6323307
          -2.3529454,50.6323307
          -2.3529454,50.6323307
          -2.3529454,50.6323307
          -2.3529454,50.6323307
          -2.3529454,50.6323307
          -2.3529454,50.6323307
          -2.3529454,50.6323307
          -2.3529454,50.6323307
          -2.3529454,50.6323307
          -2.3529454,50.6323307
          -2.3529454,50.6323307
          -2.3529454,50.6323307
          -2.3529454,50.6323307
          -2.3529454,50.6323307
          -2.3529454,50.6323307
          -2.3529454,50.6323307
          -2.3529454,50.6323307
          -2.3529454,50.6323307
          -2.3529585,50.6323237
          -2.3529454,50.6323307
          -2.3529653,50.6323239
          -2.3529565,50.6323172
          -2.3529487,50.6323168
          -2.3529487,50.6323168
          -2.3529498,50.6323166
          -2.3529487,50.6323168
          -2.3529487,50.6323168
          -2.3529487,50.6323168
          -2.3529487,50.6323168
          -2.3529487,50.6323168
          -2.3529487,50.6323168
          -2.3529487,50.6323168
          -2.3529681,50.6323328
          -2.3529476,50.6323228
          -2.3529487,50.6323168
          -2.3529487,50.6323168
          -2.3529489,50.6323182
          -2.3529625,50.6323115
          -2.3529757,50.6323177
          -2.3529913,50.6323244
          -2.3529997,50.6323226
          -2.3530021,50.6323233
          -2.3529949,50.6323197
          -2.3529990,50.6323192
          -2.3529968,50.6323161
          -2.3529968,50.6323161
          -2.3529968,50.6323161
          -2.3529968,50.6323161
          -2.3529968,50.6323161
          -2.3529968,50.6323161
          -2.3529968,50.6323161
          -2.3529968,50.6323161
          -2.3529968,50.6323161
          -2.3529968,50.6323161
          -2.3529968,50.6323161
          -2.3529968,50.6323161
          -2.3529968,50.6323161
          -2.3529968,50.6323161
          -2.3529968,50.6323161
          -2.3529968,50.6323161
          -2.3529648,50.6323223
          -2.3529543,50.6323216
          -2.3529656,50.6323132
          -2.3529683,50.6323078
          -2.3529683,50.6323078
          -2.3529559,50.6323214
          -2.3529328,50.6323714
          -2.3529083,50.6324204
          -2.3529868,50.6324300
          -2.3530487,50.6324028
          -2.3530943,50.6324042
          -2.3531742,50.6323790
          -2.3531917,50.6323774
          -2.3531910,50.6323778
          -2.3531800,50.6324311
          -2.3531978,50.6324567
          -2.3532044,50.6324249
          -2.3532279,50.6323628
          -2.3532388,50.6323083
          -2.3532520,50.6322589
          -2.3532919,50.6321956
          -2.3533221,50.6321394
          -2.3533558,50.6320851
          -2.3533744,50.6320265
          -2.3533857,50.6319597
          -2.3534027,50.6318967
          -2.3534247,50.6318317
          -2.3534545,50.6317691
          -2.3534705,50.6317173
          -2.3535018,50.6316474
          -2.3535191,50.6315862
          -2.3535483,50.6315224
          -2.3535809,50.6314625
          -2.3536411,50.6314115
          -2.3537482,50.6313905
          -2.3538447,50.6313781
          -2.3539416,50.6313706
          -2.3540382,50.6313600
          -2.3541342,50.6313521
          -2.3542306,50.6313470
          -2.3543364,50.6313487
          -2.3544299,50.6313521
          -2.3545302,50.6313550
          -2.3546273,50.6313603
          -2.3547214,50.6313660
          -2.3548159,50.6313764
          -2.3549220,50.6313826
          -2.3550131,50.6313929
          -2.3551109,50.6314062
          -2.3552060,50.6314130
          -2.3552956,50.6314277
          -2.3553780,50.6314463
          -2.3554687,50.6314712
          -2.3555621,50.6314908
          -2.3556411,50.6315210
          -2.3557209,50.6315496
          -2.3557997,50.6315785
          -2.3558828,50.6316071
          -2.3559681,50.6316374
          -2.3560470,50.6316657
          -2.3561241,50.6316945
          -2.3562073,50.6317244
          -2.3562888,50.6317531
          -2.3563757,50.6317784
          -2.3564490,50.6318091
          -2.3565251,50.6318361
          -2.3566111,50.6318576
          -2.3566917,50.6318715
          -2.3567680,50.6318723
          -2.3568320,50.6318933
          -2.3568854,50.6319306
          -2.3569612,50.6319398
          -2.3570251,50.6319162
          -2.3571182,50.6318901
          -2.3572067,50.6318950
          -2.3572983,50.6319096
          -2.3573896,50.6319332
          -2.3574614,50.6319558
          -2.3575615,50.6319745
          -2.3576554,50.6320009
          -2.3577342,50.6320255
          -2.3578266,50.6320455
          -2.3579233,50.6320571
          -2.3580123,50.6320657
          -2.3581006,50.6320774
          -2.3581986,50.6320874
          -2.3582955,50.6320937
          -2.3583942,50.6321000
          -2.3584799,50.6320862
          -2.3585831,50.6320716
          -2.3586696,50.6320632
          -2.3587681,50.6320524
          -2.3588754,50.6320368
          -2.3589581,50.6320267
          -2.3590458,50.6320250
          -2.3591358,50.6320174
          -2.3592317,50.6320048
          -2.3593323,50.6319871
          -2.3594092,50.6319903
          -2.3595062,50.6319940
          -2.3595855,50.6319874
          -2.3596680,50.6319750
          -2.3597683,50.6319865
          -2.3598496,50.6319874
          -2.3599346,50.6319767
          -2.3600003,50.6319790
          -2.3600468,50.6319880
          -2.3600816,50.6319994
          -2.3601246,50.6320072
          -2.3601564,50.6320012
          -2.3601933,50.6319873
          -2.3602421,50.6319833
          -2.3602713,50.6319557
          -2.3603028,50.6319408
          -2.3603419,50.6319317
          -2.3603876,50.6319197
          -2.3604189,50.6319101
          -2.3604590,50.6318898
          -2.3605018,50.6318663
          -2.3605479,50.6318498
          -2.3606433,50.6318423
          -2.3607221,50.6318426
          -2.3608095,50.6318425
          -2.3609103,50.6318293
          -2.3609995,50.6318113
          -2.3610815,50.6318017
          -2.3611784,50.6317907
          -2.3612702,50.6317905
          -2.3613609,50.6317843
          -2.3614598,50.6317667
          -2.3615590,50.6317570
          -2.3616334,50.6317554
          -2.3617189,50.6317620
          -2.3618109,50.6317656
          -2.3619031,50.6317652
          -2.3619946,50.6317551
          -2.3620797,50.6317545
          -2.3621624,50.6317488
          -2.3622435,50.6317344
          -2.3623035,50.6317387
          -2.3623924,50.6317364
          -2.3624720,50.6317211
          -2.3625635,50.6317179
          -2.3626453,50.6317138
          -2.3627122,50.6317042
          -2.3628012,50.6316893
          -2.3628743,50.6316993
          -2.3629141,50.6317240
          -2.3629838,50.6317287
          -2.3630753,50.6317235
          -2.3631559,50.6317199
          -2.3632456,50.6317137
          -2.3633300,50.6316983
          -2.3633975,50.6316664
          -2.3634828,50.6316342
          -2.3635751,50.6316313
          -2.3636639,50.6316340
          -2.3637541,50.6316510
          -2.3638309,50.6316525
          -2.3639171,50.6316177
          -2.3640287,50.6315949
          -2.3641037,50.6315740
          -2.3641693,50.6315469
          -2.3642531,50.6315136
          -2.3643509,50.6314957
          -2.3644394,50.6314793
          -2.3645378,50.6314666
          -2.3646247,50.6314617
          -2.3647040,50.6314562
          -2.3647838,50.6314435
          -2.3648807,50.6314407
          -2.3649519,50.6314427
          -2.3650147,50.6314437
          -2.3651003,50.6314414
          -2.3651932,50.6314417
          -2.3652755,50.6314434
          -2.3653708,50.6314380
          -2.3654575,50.6314293
          -2.3655472,50.6314386
          -2.3656293,50.6314740
          -2.3656819,50.6315230
          -2.3657088,50.6315618
          -2.3657445,50.6315904
          -2.3657806,50.6316307
          -2.3658419,50.6316619
          -2.3658989,50.6316898
          -2.3659505,50.6317096
          -2.3660217,50.6317326
          -2.3660608,50.6317590
          -2.3660883,50.6317690
          -2.3661210,50.6317800
          -2.3661681,50.6317915
          -2.3662324,50.6318065
          -2.3663182,50.6318180
          -2.3663959,50.6318370
          -2.3664702,50.6318641
          -2.3665462,50.6318881
          -2.3666299,50.6319095
          -2.3667071,50.6319297
          -2.3667804,50.6319452
          -2.3668662,50.6319705
          -2.3669552,50.6319912
          -2.3670386,50.6320155
          -2.3671116,50.6320596
          -2.3671712,50.6320883
          -2.3672389,50.6321147
          -2.3673333,50.6321292
          -2.3674201,50.6321483
          -2.3675122,50.6321650
          -2.3676080,50.6321866
          -2.3677046,50.6322032
          -2.3677984,50.6322226
          -2.3678856,50.6322400
          -2.3679745,50.6322546
          -2.3680722,50.6322669
          -2.3681727,50.6322897
          -2.3682561,50.6323145
          -2.3683542,50.6323241
          -2.3684430,50.6323327
          -2.3685298,50.6323655
          -2.3686218,50.6323735
          -2.3687061,50.6323863
          -2.3688088,50.6323914
          -2.3688967,50.6324094
          -2.3689926,50.6324311
          -2.3690844,50.6324439
          -2.3691665,50.6324684
          -2.3692014,50.6324743
          -2.3692074,50.6324741
          -2.3692074,50.6324741
          -2.3692074,50.6324741
          -2.3692074,50.6324741
          -2.3692074,50.6324741
          -2.3692074,50.6324741
          -2.3692074,50.6324741
          -2.3692074,50.6324741
          -2.3692074,50.6324741
          -2.3692074,50.6324741
          -2.3692074,50.6324741
          -2.3692074,50.6324741
          -2.3692420,50.6324829
          -2.3693340,50.6325048
          -2.3694322,50.6325298
          -2.3695286,50.6325488
          -2.3696263,50.6325720
          -2.3697130,50.6325892
          -2.3697737,50.6326089
          -2.3698530,50.6326233
          -2.3699304,50.6326372
          -2.3700107,50.6326355
          -2.3700995,50.6326450
          -2.3701734,50.6326699
          -2.3702342,50.6327015
          -2.3702889,50.6327454
          -2.3703410,50.6327985
          -2.3703960,50.6328350
          -2.3704621,50.6328699
          -2.3705186,50.6329128
          -2.3705714,50.6329582
          -2.3706197,50.6329945
          -2.3706608,50.6330262
          -2.3707161,50.6330691
          -2.3707607,50.6331119
          -2.3708011,50.6331547
          -2.3708419,50.6332047
          -2.3708931,50.6332513
          -2.3709314,50.6332972
          -2.3709653,50.6333363
          -2.3709865,50.6333523
          -2.3709866,50.6333523
          -2.3709866,50.6333523
          -2.3709858,50.6333540
          -2.3709854,50.6333528
          -2.3709833,50.6333490
          -2.3709803,50.6333441
          -2.3709739,50.6333460
          -2.3709926,50.6334020
          -2.3710097,50.6334597
          -2.3710368,50.6335162
          -2.3710878,50.6335641
          -2.3711768,50.6335766
          -2.3712537,50.6336053
          -2.3713348,50.6336363
          -2.3714080,50.6336645
          -2.3714850,50.6337023
          -2.3715659,50.6337327
          -2.3716333,50.6337598
          -2.3716614,50.6337814
          -2.3716816,50.6338007
          -2.3717047,50.6338196
          -2.3717240,50.6338319
          -2.3717646,50.6338579
          -2.3718070,50.6338783
          -2.3718626,50.6339090
          -2.3719157,50.6339373
          -2.3720013,50.6339641
          -2.3720902,50.6339860
          -2.3721668,50.6340064
          -2.3722384,50.6340213
          -2.3723095,50.6340312
          -2.3723446,50.6340463
          -2.3723941,50.6340644
          -2.3724259,50.6340872
          -2.3724901,50.6341061
          -2.3725513,50.6341204
          -2.3725761,50.6341390
          -2.3726067,50.6341597
          -2.3726621,50.6341906
          -2.3727287,50.6342188
          -2.3728030,50.6342475
          -2.3728731,50.6342680
          -2.3729424,50.6342846
          -2.3730216,50.6342996
          -2.3731088,50.6343149
          -2.3731709,50.6343323
          -2.3732296,50.6343552
          -2.3732777,50.6343749
          -2.3733181,50.6343947
          -2.3733784,50.6344090
          -2.3734372,50.6344353
          -2.3734881,50.6344535
          -2.3735248,50.6344824
          -2.3735705,50.6345086
          -2.3736044,50.6345243
          -2.3736455,50.6345407
          -2.3737032,50.6345573
          -2.3737666,50.6345832
          -2.3738029,50.6345933
          -2.3738102,50.6346017
          -2.3738520,50.6346355
          -2.3738739,50.6346537
          -2.3738789,50.6346534
          -2.3739011,50.6346708
          -2.3739511,50.6346751
          -2.3740008,50.6346829
          -2.3740426,50.6347082
          -2.3740876,50.6347339
          -2.3741453,50.6347674
          -2.3741974,50.6347782
          -2.3742172,50.6347853
          -2.3742161,50.6347850
          -2.3742161,50.6347850
          -2.3742161,50.6347850
          -2.3742696,50.6347999
          -2.3743357,50.6348187
          -2.3743912,50.6348336
          -2.3744346,50.6348497
          -2.3744544,50.6348744
          -2.3744549,50.6348777
          -2.3744550,50.6348777
          -2.3744885,50.6348948
          -2.3745307,50.6349218
          -2.3745939,50.6349382
          -2.3746582,50.6349472
          -2.3747192,50.6349606
          -2.3747950,50.6349745
          -2.3748691,50.6349821
          -2.3749221,50.6349704
          -2.3749674,50.6349469
          -2.3750356,50.6349372
          -2.3751253,50.6349393
          -2.3751867,50.6349317
          -2.3752008,50.6348830
          -2.3752287,50.6348388
          -2.3752204,50.6348112
          -2.3751953,50.6347978
          -2.3752238,50.6348158
          -2.3752860,50.6348326
          -2.3753571,50.6348342
          -2.3754180,50.6348421
          -2.3754870,50.6348494
          -2.3755405,50.6348590
          -2.3755945,50.6348709
          -2.3756256,50.6348753
          -2.3756635,50.6348889
          -2.3756738,50.6349355
          -2.3756935,50.6349756
          -2.3757194,50.6350233
          -2.3757634,50.6350741
          -2.3757942,50.6351128
          -2.3757928,50.6351187
          -2.3757820,50.6351258
          -2.3757753,50.6351377
          -2.3757761,50.6351399
          -2.3757777,50.6351384
          -2.3757827,50.6351398
          -2.3757929,50.6351330
          -2.3758067,50.6351307
          -2.3757686,50.6351054
          -2.3756946,50.6351258
          -2.3756192,50.6351579
          -2.3755509,50.6351934
          -2.3755055,50.6352446
          -2.3754680,50.6352989
          -2.3754271,50.6353513
          -2.3754025,50.6353978
          -2.3753703,50.6354430
          -2.3753610,50.6354706
          -2.3753586,50.6354677
          -2.3753589,50.6354757
          -2.3753601,50.6354719
          -2.3753731,50.6354417
          -2.3753628,50.6354611
          -2.3753806,50.6354653
          -2.3753781,50.6354674
        </coordinates>
      </LineString>
    </Placemark>
  </Document>
</kml>
